{"type":"Feature","properties":{"code":"CIV-NZ","name":"N'Zi Watershed","landscape_system":"Sudan-Sahelian and Guinea Forest-Savanna Transition","countries":["Côte d'Ivoire"],"source_file":"MFLLL_Nzi_watershed_Cote_d_Ivoire_CIV.shp","source_features_dissolved":1,"simplify_tolerance_deg":0.0,"generated":"2026-07-21"},"bbox":[-5.37917,5.95,-3.85833,9.43333],"geometry":{"type":"Polygon","coordinates":[[[-5.1964,8.61054],[-5.2004,8.6157],[-5.20638,8.61723],[-5.21029,8.62027],[-5.21471,8.6214],[-5.22013,8.62592],[-5.2214,8.63554],[-5.22592,8.64096],[-5.23554,8.64223],[-5.24096,8.64675],[-5.24238,8.65745],[-5.24804,8.6589],[-5.25196,8.66193],[-5.25908,8.66307],[-5.26446,8.6589],[-5.29388,8.65777],[-5.29779,8.65473],[-5.30833,8.65417],[-5.30869,8.65659],[-5.31215,8.66008],[-5.31285,8.68159],[-5.32048,8.68924],[-5.32083,8.69583],[-5.31841,8.69619],[-5.31286,8.70171],[-5.31215,8.70659],[-5.30869,8.71008],[-5.30798,8.71492],[-5.30452,8.71841],[-5.30417,8.72083],[-5.30452,8.72742],[-5.30798,8.73091],[-5.30869,8.73921],[-5.30418,8.74375],[-5.30798,8.74758],[-5.30869,8.77326],[-5.31215,8.77674],[-5.31285,8.79755],[-5.30418,8.80625],[-5.30798,8.81008],[-5.30833,8.82083],[-5.30196,8.8214],[-5.28451,8.83791],[-5.28333,8.83333],[-5.27674,8.83369],[-5.26492,8.84548],[-5.2625,8.84583],[-5.26193,8.86888],[-5.2589,8.87279],[-5.25777,8.87721],[-5.25473,8.88112],[-5.25346,8.89075],[-5.24804,8.89527],[-5.23835,8.89655],[-5.2373,8.90122],[-5.24223,8.90759],[-5.24093,8.91579],[-5.2375,8.91667],[-5.23396,8.91758],[-5.23333,8.92917],[-5.23298,8.93159],[-5.22535,8.93924],[-5.22465,8.94826],[-5.21702,8.95591],[-5.21667,8.95833],[-5.21631,8.96079],[-5.21076,8.96631],[-5.20833,8.96667],[-5.20869,8.98159],[-5.21215,8.98508],[-5.2125,8.9875],[-5.20833,8.9875],[-5.20798,9.01076],[-5.20452,9.01424],[-5.20381,9.02255],[-5.20798,9.02674],[-5.20869,9.03159],[-5.21215,9.03508],[-5.2125,9.04167],[-5.21029,9.04223],[-5.20638,9.04527],[-5.20196,9.0464],[-5.1968,9.0504],[-5.1947,9.0586],[-5.18958,9.05464],[-5.18554,9.05777],[-5.17589,9.05904],[-5.17443,9.06471],[-5.1714,9.06862],[-5.17083,9.07083],[-5.17168,9.07415],[-5.175,9.075],[-5.17535,9.09409],[-5.18298,9.10174],[-5.18333,9.10833],[-5.18298,9.11076],[-5.17535,9.11841],[-5.17465,9.12326],[-5.16285,9.13508],[-5.1625,9.1375],[-5.15899,9.1384],[-5.15767,9.15327],[-5.15417,9.15417],[-5.15,9.15417],[-5.15,9.15833],[-5.15035,9.16909],[-5.15798,9.17674],[-5.15833,9.1875],[-5.15869,9.19409],[-5.16215,9.19758],[-5.16285,9.20659],[-5.16631,9.21008],[-5.16702,9.23159],[-5.17082,9.23542],[-5.16702,9.23924],[-5.16631,9.24409],[-5.16285,9.24758],[-5.1625,9.25],[-5.16285,9.25242],[-5.16838,9.25798],[-5.17083,9.25833],[-5.17048,9.27745],[-5.16492,9.28298],[-5.15,9.28333],[-5.14643,9.28425],[-5.14583,9.30833],[-5.13924,9.30869],[-5.13576,9.31215],[-5.13091,9.31285],[-5.12742,9.31631],[-5.11667,9.31667],[-5.11335,9.31752],[-5.11165,9.32415],[-5.10833,9.325],[-5.10833,9.33333],[-5.10777,9.33554],[-5.10473,9.33946],[-5.1036,9.34804],[-5.09908,9.35346],[-5.08839,9.35488],[-5.08693,9.36054],[-5.07973,9.36862],[-5.07827,9.37434],[-5.06446,9.37557],[-5.05899,9.38013],[-5.05833,9.3875],[-5.05099,9.38822],[-5.04938,9.39383],[-5.04228,9.40201],[-5.04087,9.41171],[-5.03117,9.41312],[-5.02716,9.41605],[-5.01451,9.41728],[-5.01049,9.42022],[-4.99266,9.42153],[-4.99167,9.425],[-4.9875,9.425],[-4.98007,9.42566],[-4.97917,9.42917],[-4.97173,9.42983],[-4.97083,9.43333],[-4.96752,9.43248],[-4.96667,9.42917],[-4.96424,9.42881],[-4.96076,9.42535],[-4.95833,9.425],[-4.95833,9.42083],[-4.95869,9.41841],[-4.96215,9.41492],[-4.96285,9.40591],[-4.96665,9.40208],[-4.96215,9.39755],[-4.96285,9.38924],[-4.96631,9.38576],[-4.96702,9.37674],[-4.97048,9.37326],[-4.97083,9.36667],[-4.97083,9.3625],[-4.96446,9.36193],[-4.95509,9.35358],[-4.9536,9.34779],[-4.94223,9.33554],[-4.9411,9.32696],[-4.93658,9.32154],[-4.92696,9.32027],[-4.92304,9.31723],[-4.92009,9.3161],[-4.91458,9.32036],[-4.91054,9.31723],[-4.88841,9.31604],[-4.88693,9.31029],[-4.88244,9.3049],[-4.87425,9.3036],[-4.86763,9.30873],[-4.86667,9.3125],[-4.85923,9.31184],[-4.85744,9.30484],[-4.83971,9.28807],[-4.82917,9.2875],[-4.82832,9.28418],[-4.82279,9.28277],[-4.81471,9.27557],[-4.80777,9.27379],[-4.8089,9.26862],[-4.81307,9.26325],[-4.81193,9.25612],[-4.80473,9.24804],[-4.80417,9.2375],[-4.8029,9.23331],[-4.79616,9.22852],[-4.7937,9.22981],[-4.78958,9.23273],[-4.7813,9.22564],[-4.76736,9.22422],[-4.76667,9.20833],[-4.76008,9.20869],[-4.75659,9.21215],[-4.75,9.2125],[-4.74915,9.20918],[-4.74583,9.20833],[-4.74583,9.2],[-4.74527,9.19779],[-4.74168,9.19316],[-4.74779,9.18807],[-4.75443,9.18636],[-4.75057,9.18138],[-4.74943,9.16862],[-4.74527,9.16325],[-4.7464,9.15196],[-4.74943,9.14804],[-4.75057,9.14362],[-4.7536,9.13971],[-4.75417,9.1375],[-4.75201,9.13688],[-4.74799,9.13395],[-4.74159,9.13212],[-4.74645,9.12547],[-4.74522,9.11867],[-4.74228,9.11466],[-4.74072,9.1039],[-4.7338,9.10895],[-4.73003,9.10718],[-4.72855,9.10201],[-4.72145,9.09383],[-4.72083,9.09167],[-4.72027,9.08946],[-4.71723,9.08554],[-4.71596,9.07589],[-4.70918,9.07415],[-4.70748,9.06752],[-4.70417,9.06667],[-4.70417,9.0625],[-4.70381,9.05174],[-4.69965,9.04755],[-4.70036,9.03505],[-4.70591,9.02952],[-4.70833,9.02917],[-4.71054,9.0286],[-4.71593,9.02411],[-4.71723,9.01592],[-4.71224,9.00947],[-4.71667,9.00833],[-4.71667,9.00417],[-4.71702,8.99758],[-4.72048,8.99409],[-4.72119,8.98508],[-4.72952,8.97672],[-4.72881,8.96841],[-4.72535,8.96492],[-4.725,8.9625],[-4.72443,8.95196],[-4.7214,8.94804],[-4.71998,8.94252],[-4.71667,8.94167],[-4.71723,8.93529],[-4.7214,8.92991],[-4.72027,8.92696],[-4.71307,8.91888],[-4.71193,8.91029],[-4.7036,8.90094],[-4.70473,8.89779],[-4.7089,8.89241],[-4.70759,8.88421],[-4.69943,8.88212],[-4.70066,8.86757],[-4.70417,8.86667],[-4.70332,8.86335],[-4.7,8.8625],[-4.7,8.85833],[-4.70057,8.85612],[-4.70777,8.84804],[-4.70899,8.83423],[-4.71471,8.83277],[-4.71862,8.82973],[-4.72083,8.82917],[-4.72027,8.82696],[-4.7036,8.80935],[-4.70479,8.78841],[-4.70833,8.7875],[-4.70748,8.78418],[-4.70417,8.78333],[-4.70417,8.77917],[-4.68841,8.77856],[-4.6875,8.775],[-4.68684,8.76757],[-4.67988,8.76578],[-4.67846,8.75505],[-4.67279,8.7536],[-4.66875,8.75047],[-4.66325,8.75473],[-4.6509,8.75349],[-4.64915,8.74668],[-4.64206,8.74487],[-4.63807,8.73971],[-4.6375,8.7375],[-4.63333,8.7375],[-4.62983,8.7366],[-4.62851,8.72173],[-4.62123,8.71987],[-4.61723,8.71471],[-4.61667,8.70833],[-4.62721,8.70777],[-4.63676,8.6991],[-4.63807,8.69092],[-4.6339,8.68554],[-4.63248,8.68002],[-4.62566,8.67827],[-4.625,8.67083],[-4.62557,8.66862],[-4.6287,8.66458],[-4.62443,8.65908],[-4.62557,8.65196],[-4.6286,8.64804],[-4.63002,8.64252],[-4.63333,8.64167],[-4.63298,8.63091],[-4.62952,8.62742],[-4.62881,8.61841],[-4.62119,8.61076],[-4.62048,8.58922],[-4.61076,8.57952],[-4.60833,8.57917],[-4.60798,8.57255],[-4.59826,8.56285],[-4.59583,8.5625],[-4.59583,8.55],[-4.59252,8.54915],[-4.59167,8.54583],[-4.58693,8.54462],[-4.58807,8.53529],[-4.5911,8.53138],[-4.59167,8.5125],[-4.58333,8.5125],[-4.5758,8.51176],[-4.57423,8.50097],[-4.57083,8.5],[-4.57048,8.48508],[-4.56702,8.48159],[-4.56631,8.47674],[-4.56285,8.47326],[-4.5625,8.46667],[-4.56285,8.46008],[-4.56702,8.45588],[-4.56631,8.44758],[-4.56251,8.44375],[-4.56702,8.43921],[-4.56631,8.43508],[-4.55869,8.42742],[-4.55833,8.42083],[-4.56054,8.42027],[-4.56446,8.41723],[-4.57411,8.41596],[-4.575,8.4125],[-4.57721,8.41193],[-4.58683,8.40321],[-4.58807,8.39092],[-4.5839,8.38554],[-4.58277,8.38112],[-4.5714,8.36888],[-4.57027,8.36592],[-4.5754,8.3593],[-4.5836,8.3572],[-4.57973,8.35221],[-4.5786,8.34779],[-4.57557,8.34388],[-4.575,8.34167],[-4.56029,8.3411],[-4.55221,8.3339],[-4.54925,8.33277],[-4.54388,8.33693],[-4.54092,8.33807],[-4.5343,8.33294],[-4.53248,8.32585],[-4.52696,8.32443],[-4.51876,8.31713],[-4.51471,8.32027],[-4.51175,8.3214],[-4.50625,8.31714],[-4.50221,8.32027],[-4.49906,8.3214],[-4.48971,8.31307],[-4.48259,8.31193],[-4.47721,8.3161],[-4.47279,8.31723],[-4.46471,8.32443],[-4.46156,8.32557],[-4.45221,8.31723],[-4.44288,8.3161],[-4.44167,8.32083],[-4.43816,8.31993],[-4.43693,8.30612],[-4.4339,8.30221],[-4.43237,8.29623],[-4.42721,8.29223],[-4.41759,8.29096],[-4.41307,8.28554],[-4.4125,8.28333],[-4.40174,8.28369],[-4.39826,8.28715],[-4.39583,8.2875],[-4.39548,8.28508],[-4.39202,8.28159],[-4.39131,8.26838],[-4.38576,8.26285],[-4.37917,8.2625],[-4.35174,8.26215],[-4.34409,8.25452],[-4.33924,8.25381],[-4.33576,8.25035],[-4.32083,8.25],[-4.31841,8.24965],[-4.31492,8.24619],[-4.3125,8.24583],[-4.31008,8.24548],[-4.30659,8.24202],[-4.28091,8.24131],[-4.27742,8.23785],[-4.26841,8.23715],[-4.26076,8.22952],[-4.25591,8.22881],[-4.25208,8.22501],[-4.24826,8.22881],[-4.24167,8.22917],[-4.23946,8.2286],[-4.23554,8.22557],[-4.22589,8.22429],[-4.22411,8.21738],[-4.21446,8.2161],[-4.21054,8.21307],[-4.20502,8.21165],[-4.20417,8.20833],[-4.20417,8.19167],[-4.20061,8.19075],[-4.2,8.175],[-4.20221,8.17443],[-4.2089,8.16788],[-4.20417,8.16667],[-4.20174,8.16702],[-4.19755,8.17119],[-4.17674,8.17048],[-4.17326,8.16702],[-4.15833,8.16667],[-4.15833,8.1625],[-4.15869,8.16008],[-4.16285,8.15588],[-4.16215,8.13924],[-4.15869,8.13576],[-4.15833,8.13333],[-4.16165,8.13248],[-4.1625,8.12917],[-4.16193,8.12696],[-4.15777,8.12158],[-4.15898,8.10507],[-4.16723,8.10295],[-4.1661,8.09779],[-4.1589,8.08971],[-4.15762,8.08005],[-4.14943,8.07795],[-4.15057,8.04779],[-4.1537,8.04375],[-4.15057,8.03971],[-4.14943,8.01446],[-4.1464,8.01054],[-4.14527,7.98946],[-4.1411,7.98408],[-4.14234,7.97173],[-4.1496,7.96987],[-4.15473,7.96325],[-4.1536,7.94779],[-4.15057,7.94388],[-4.15,7.94167],[-4.15035,7.93508],[-4.15452,7.93088],[-4.15381,7.92258],[-4.14585,7.91458],[-4.15381,7.90659],[-4.15452,7.90174],[-4.16215,7.89409],[-4.16285,7.88091],[-4.16631,7.87742],[-4.16667,7.875],[-4.14338,7.87465],[-4.13785,7.86909],[-4.1375,7.86667],[-4.125,7.86667],[-4.12465,7.86424],[-4.12119,7.86076],[-4.12048,7.85591],[-4.10869,7.84409],[-4.10798,7.83508],[-4.10452,7.83159],[-4.10417,7.825],[-4.10417,7.82083],[-4.1,7.82083],[-4.09786,7.82019],[-4.0938,7.81731],[-4.08846,7.8157],[-4.08686,7.81036],[-4.08398,7.8063],[-4.08261,7.7841],[-4.07549,7.77852],[-4.0687,7.77981],[-4.06338,7.78358],[-4.0617,7.76717],[-4.05214,7.75898],[-4.04581,7.75707],[-4.04102,7.75032],[-4.04365,7.7453],[-4.04786,7.74231],[-4.05481,7.74022],[-4.04797,7.73398],[-4.04235,7.73229],[-4.04167,7.71667],[-4.03946,7.71723],[-4.03408,7.7214],[-4.02279,7.72027],[-4.01874,7.71713],[-4.0095,7.72537],[-4.00833,7.72083],[-3.99583,7.72083],[-3.99518,7.71346],[-3.98971,7.7089],[-3.9759,7.70767],[-3.97443,7.70196],[-3.9714,7.69804],[-3.97027,7.69362],[-3.96723,7.68971],[-3.96596,7.68005],[-3.95918,7.67832],[-3.95833,7.675],[-3.95772,7.66867],[-3.95478,7.66466],[-3.9532,7.6591],[-3.94237,7.65753],[-3.94097,7.63849],[-3.9375,7.6375],[-3.93786,7.63504],[-3.94341,7.62952],[-3.94583,7.62917],[-3.9453,7.62275],[-3.93697,7.61358],[-3.93803,7.58109],[-3.9422,7.57594],[-3.94075,7.5716],[-3.93428,7.57007],[-3.92956,7.56459],[-3.9328,7.56058],[-3.93386,7.55609],[-3.94128,7.54793],[-3.93803,7.54391],[-3.93697,7.53942],[-3.92955,7.53125],[-3.93697,7.52308],[-3.93803,7.51859],[-3.9453,7.51058],[-3.94583,7.50833],[-3.94362,7.50777],[-3.93971,7.50473],[-3.93529,7.5036],[-3.93138,7.50057],[-3.91862,7.49943],[-3.91054,7.49223],[-3.88946,7.4911],[-3.88554,7.48807],[-3.88002,7.48665],[-3.87917,7.48333],[-3.87832,7.48002],[-3.87027,7.47795],[-3.8714,7.46862],[-3.87453,7.46458],[-3.8713,7.46042],[-3.87443,7.45638],[-3.875,7.45],[-3.875,7.44167],[-3.875,7.4375],[-3.87716,7.43688],[-3.87978,7.43433],[-3.86746,7.43254],[-3.8659,7.4218],[-3.8625,7.42083],[-3.86285,7.41841],[-3.86631,7.41492],[-3.86667,7.40833],[-3.8661,7.40612],[-3.86193,7.40075],[-3.86317,7.3884],[-3.86667,7.3875],[-3.86631,7.38508],[-3.85869,7.37742],[-3.85833,7.35833],[-3.85869,7.35591],[-3.86215,7.35242],[-3.86285,7.33508],[-3.87048,7.32742],[-3.87083,7.31667],[-3.875,7.31667],[-3.87465,7.31005],[-3.86909,7.30452],[-3.8625,7.30417],[-3.86307,7.28529],[-3.8661,7.28138],[-3.86752,7.27585],[-3.87429,7.27411],[-3.87557,7.26446],[-3.8786,7.26054],[-3.87917,7.25833],[-3.88159,7.25798],[-3.88508,7.25452],[-3.8875,7.25417],[-3.89082,7.25332],[-3.89167,7.25],[-3.8875,7.25],[-3.88715,7.24758],[-3.88369,7.24409],[-3.88298,7.23091],[-3.87952,7.22742],[-3.87917,7.225],[-3.87952,7.22258],[-3.88298,7.21909],[-3.88333,7.21667],[-3.8875,7.21667],[-3.88785,7.21008],[-3.89965,7.19826],[-3.9,7.19583],[-3.90659,7.19619],[-3.91008,7.19965],[-3.91422,7.20035],[-3.92292,7.19168],[-3.93091,7.19965],[-3.93576,7.20035],[-3.94341,7.20798],[-3.97917,7.20833],[-3.98333,7.20833],[-3.98398,7.18434],[-3.98966,7.18272],[-3.99367,7.17978],[-4.00753,7.17843],[-4.00919,7.167],[-4.01451,7.16312],[-4.02083,7.1625],[-4.02326,7.16215],[-4.02881,7.15662],[-4.02917,7.15417],[-4.02917,7.15],[-4.02442,7.14875],[-4.02587,7.14235],[-4.03333,7.14167],[-4.03333,7.13333],[-4.03277,7.11862],[-4.02973,7.11471],[-4.02832,7.10918],[-4.025,7.10833],[-4.02557,7.10612],[-4.0286,7.10221],[-4.02973,7.09779],[-4.03277,7.09388],[-4.0339,7.07696],[-4.0411,7.06888],[-4.04252,7.06335],[-4.04583,7.0625],[-4.04583,7.05833],[-4.04668,7.05502],[-4.05,7.05417],[-4.05085,7.05085],[-4.05417,7.05],[-4.05354,7.03841],[-4.04623,7.03653],[-4.0411,7.02991],[-4.04223,7.01446],[-4.04527,7.01054],[-4.0464,7.00612],[-4.04943,7.00221],[-4.05089,6.99654],[-4.06157,6.99513],[-4.07027,6.98554],[-4.0714,6.98112],[-4.07443,6.97721],[-4.07557,6.97279],[-4.08277,6.96471],[-4.08333,6.9625],[-4.07917,6.9625],[-4.07881,6.96008],[-4.07535,6.95659],[-4.07465,6.95174],[-4.06702,6.94409],[-4.06667,6.9375],[-4.06667,6.93333],[-4.07423,6.93256],[-4.07564,6.9187],[-4.07852,6.91463],[-4.07917,6.9125],[-4.08002,6.90918],[-4.08554,6.90777],[-4.09362,6.90057],[-4.11471,6.89943],[-4.12279,6.89223],[-4.13554,6.8911],[-4.13946,6.88807],[-4.14167,6.8875],[-4.1411,6.88529],[-4.12973,6.87304],[-4.1286,6.86862],[-4.12027,6.85927],[-4.1214,6.85612],[-4.12443,6.85221],[-4.12564,6.83424],[-4.13138,6.83277],[-4.13529,6.82973],[-4.14167,6.82917],[-4.14202,6.82674],[-4.14548,6.82326],[-4.14583,6.81667],[-4.14915,6.81582],[-4.15057,6.81029],[-4.1536,6.80638],[-4.15473,6.79362],[-4.15777,6.78971],[-4.1589,6.78529],[-4.1682,6.77504],[-4.17279,6.7786],[-4.175,6.77917],[-4.17535,6.76841],[-4.17881,6.76492],[-4.17952,6.75174],[-4.18298,6.74826],[-4.18333,6.7375],[-4.18369,6.72258],[-4.18715,6.71909],[-4.18786,6.70588],[-4.19341,6.70035],[-4.20417,6.7],[-4.20356,6.68425],[-4.19623,6.68237],[-4.19223,6.67721],[-4.19167,6.675],[-4.19498,6.67415],[-4.1964,6.66862],[-4.2004,6.66347],[-4.20417,6.6625],[-4.20452,6.65588],[-4.21008,6.65035],[-4.2125,6.65],[-4.21667,6.65],[-4.21702,6.65242],[-4.2229,6.65833],[-4.22674,6.65452],[-4.24409,6.65381],[-4.25591,6.64202],[-4.2625,6.64167],[-4.26285,6.63508],[-4.26702,6.63088],[-4.26631,6.62674],[-4.25835,6.61875],[-4.27119,6.60588],[-4.27048,6.59341],[-4.26631,6.58921],[-4.26702,6.58091],[-4.27048,6.57742],[-4.27083,6.575],[-4.26995,6.57154],[-4.25926,6.57013],[-4.25057,6.56054],[-4.25,6.54583],[-4.25332,6.54498],[-4.25417,6.54167],[-4.25748,6.54252],[-4.25833,6.54583],[-4.26466,6.54645],[-4.28117,6.56188],[-4.28549,6.56312],[-4.28951,6.56605],[-4.29214,6.56728],[-4.29784,6.56312],[-4.30216,6.56188],[-4.31034,6.55478],[-4.31466,6.55355],[-4.31867,6.55062],[-4.32299,6.54938],[-4.32701,6.54645],[-4.33671,6.54504],[-4.33827,6.53431],[-4.34383,6.53272],[-4.34784,6.52978],[-4.35633,6.52855],[-4.36034,6.52562],[-4.36883,6.52438],[-4.37806,6.51637],[-4.37978,6.51034],[-4.38835,6.50069],[-4.41049,6.49938],[-4.41451,6.49645],[-4.425,6.49583],[-4.42443,6.48112],[-4.4214,6.47721],[-4.42012,6.46755],[-4.41667,6.46667],[-4.41702,6.46424],[-4.42465,6.45659],[-4.425,6.4375],[-4.42721,6.43693],[-4.4322,6.43307],[-4.43333,6.4375],[-4.4375,6.4375],[-4.43785,6.42674],[-4.44165,6.42292],[-4.43751,6.41875],[-4.44202,6.41421],[-4.44131,6.40591],[-4.43715,6.40171],[-4.43786,6.39754],[-4.44341,6.39202],[-4.45,6.39167],[-4.44965,6.38508],[-4.44548,6.38088],[-4.44619,6.37255],[-4.45174,6.36702],[-4.45662,6.36631],[-4.46215,6.36076],[-4.4625,6.35833],[-4.46193,6.35612],[-4.45462,6.34792],[-4.46307,6.33844],[-4.46152,6.33415],[-4.45488,6.33245],[-4.4536,6.32279],[-4.45057,6.31888],[-4.44943,6.31446],[-4.4464,6.31054],[-4.44498,6.30502],[-4.43816,6.30327],[-4.4375,6.29583],[-4.43807,6.29362],[-4.44943,6.28138],[-4.45057,6.27279],[-4.4536,6.26888],[-4.45502,6.26335],[-4.46165,6.26165],[-4.46339,6.25488],[-4.47411,6.25346],[-4.475,6.25],[-4.47535,6.24758],[-4.47881,6.24409],[-4.47917,6.22917],[-4.47917,6.225],[-4.47561,6.22409],[-4.475,6.20833],[-4.47851,6.20743],[-4.47973,6.19362],[-4.48429,6.18816],[-4.4991,6.18684],[-4.50057,6.18112],[-4.50777,6.17304],[-4.5089,6.14779],[-4.51193,6.14388],[-4.51307,6.13946],[-4.5161,6.13554],[-4.51748,6.13017],[-4.52158,6.1286],[-4.52696,6.13277],[-4.53333,6.13333],[-4.53277,6.12696],[-4.52973,6.12304],[-4.52851,6.10923],[-4.52123,6.10737],[-4.51723,6.10221],[-4.5161,6.09779],[-4.51193,6.09241],[-4.51307,6.08946],[-4.5161,6.08554],[-4.51667,6.06667],[-4.52083,6.06667],[-4.52304,6.0661],[-4.52846,6.06158],[-4.52973,6.05196],[-4.53277,6.04804],[-4.5339,6.04362],[-4.5379,6.03847],[-4.54388,6.03693],[-4.55196,6.02973],[-4.55638,6.0286],[-4.56029,6.02557],[-4.56471,6.02443],[-4.57279,6.01723],[-4.57832,6.01582],[-4.58002,6.00918],[-4.58554,6.00777],[-4.5907,6.00377],[-4.59223,5.99779],[-4.59623,5.99263],[-4.60354,5.99076],[-4.60417,5.97917],[-4.6125,5.97917],[-4.61492,5.97952],[-4.62048,5.98504],[-4.62119,5.98992],[-4.62465,5.99341],[-4.62535,5.99826],[-4.63088,6.00381],[-4.63576,6.00452],[-4.63924,6.00798],[-4.64167,6.00833],[-4.64409,6.00798],[-4.64758,6.00452],[-4.65242,6.00381],[-4.65591,6.00035],[-4.66421,5.99965],[-4.66841,6.00381],[-4.67326,6.00452],[-4.67674,6.00798],[-4.68992,6.00869],[-4.69792,6.01665],[-4.70174,6.01285],[-4.70588,6.01215],[-4.71008,6.01631],[-4.72326,6.01702],[-4.72674,6.02048],[-4.75,6.02083],[-4.75076,6.01761],[-4.75609,6.01303],[-4.76475,6.01197],[-4.77707,6.00039],[-4.78239,6.0047],[-4.78685,6.00322],[-4.78803,5.99359],[-4.80364,5.97725],[-4.80417,5.975],[-4.80641,5.97447],[-4.81025,5.97136],[-4.81475,5.9703],[-4.81859,5.9672],[-4.82822,5.96602],[-4.8297,5.96156],[-4.82553,5.95641],[-4.825,5.95],[-4.82917,5.95],[-4.83333,5.95],[-4.83422,5.95346],[-4.84388,5.95473],[-4.8493,5.95925],[-4.85057,5.96888],[-4.8537,5.97292],[-4.85057,5.97696],[-4.84943,5.98971],[-4.8464,5.99362],[-4.84527,5.99658],[-4.84943,6.00196],[-4.85057,6.02795],[-4.84263,6.02999],[-4.8411,6.03437],[-4.8661,6.06029],[-4.86752,6.06582],[-4.87436,6.06757],[-4.87557,6.08554],[-4.88013,6.09101],[-4.8875,6.09167],[-4.88715,6.10242],[-4.87952,6.11008],[-4.87917,6.1125],[-4.88014,6.1159],[-4.89087,6.11746],[-4.89228,6.12716],[-4.89522,6.13117],[-4.89681,6.13673],[-4.9076,6.1383],[-4.90895,6.15216],[-4.91194,6.15626],[-4.90399,6.16542],[-4.91049,6.16728],[-4.91451,6.17022],[-4.92917,6.17083],[-4.93576,6.17119],[-4.93924,6.17465],[-4.9625,6.175],[-4.96693,6.17614],[-4.96307,6.18112],[-4.96193,6.1926],[-4.97027,6.20196],[-4.97168,6.20748],[-4.975,6.20833],[-4.97716,6.20895],[-4.98117,6.21188],[-4.98549,6.21312],[-4.98951,6.21605],[-4.99903,6.21744],[-5.00062,6.22299],[-5.00355,6.22701],[-5.00509,6.23241],[-5.01049,6.23395],[-5.0201,6.24247],[-5.02155,6.25735],[-5.02716,6.25895],[-5.03117,6.26188],[-5.03797,6.26312],[-5.04367,6.25895],[-5.04863,6.25772],[-5.05062,6.26466],[-5.05355,6.26867],[-5.05512,6.27943],[-5.06034,6.27562],[-5.0653,6.27438],[-5.06728,6.28133],[-5.07022,6.28534],[-5.07145,6.29214],[-5.06728,6.29784],[-5.06605,6.3088],[-5.07022,6.31451],[-5.07145,6.33133],[-5.07507,6.33629],[-5.07083,6.3375],[-5.07168,6.34082],[-5.07721,6.34223],[-5.08529,6.34943],[-5.09241,6.35057],[-5.09779,6.3464],[-5.10833,6.34583],[-5.1089,6.34804],[-5.12443,6.36446],[-5.12557,6.37304],[-5.1286,6.37696],[-5.12988,6.38661],[-5.13333,6.3875],[-5.1375,6.3875],[-5.13785,6.38992],[-5.14165,6.39375],[-5.13785,6.39758],[-5.13715,6.40171],[-5.14131,6.40591],[-5.14202,6.41421],[-5.13785,6.41841],[-5.1375,6.42083],[-5.14082,6.42168],[-5.14257,6.42851],[-5.15743,6.42983],[-5.1589,6.43554],[-5.17027,6.44779],[-5.17168,6.45332],[-5.17721,6.45473],[-5.18112,6.45777],[-5.19167,6.45833],[-5.19105,6.46466],[-5.18812,6.46867],[-5.18655,6.47943],[-5.18007,6.4747],[-5.17888,6.48426],[-5.18395,6.4912],[-5.18218,6.49497],[-5.17917,6.49583],[-5.17832,6.49915],[-5.175,6.5],[-5.17589,6.50346],[-5.18554,6.50473],[-5.18946,6.50777],[-5.19388,6.5089],[-5.20346,6.5176],[-5.20473,6.52721],[-5.20932,6.53271],[-5.22083,6.53333],[-5.22119,6.53576],[-5.22465,6.53924],[-5.225,6.54583],[-5.22415,6.54915],[-5.22083,6.55],[-5.2214,6.55221],[-5.22443,6.55612],[-5.22566,6.56993],[-5.22917,6.57083],[-5.22917,6.58333],[-5.22973,6.59388],[-5.23704,6.60207],[-5.2339,6.60612],[-5.23248,6.61165],[-5.22585,6.61335],[-5.22443,6.61888],[-5.2214,6.62279],[-5.22027,6.62575],[-5.22443,6.63112],[-5.22557,6.64658],[-5.2214,6.65196],[-5.22012,6.66161],[-5.21335,6.66335],[-5.2125,6.66667],[-5.21492,6.66702],[-5.22047,6.67254],[-5.22119,6.67671],[-5.21702,6.68091],[-5.21631,6.68505],[-5.22499,6.69375],[-5.22119,6.69758],[-5.22083,6.71667],[-5.2203,6.72308],[-5.2172,6.72692],[-5.21614,6.73141],[-5.21155,6.73674],[-5.20508,6.73827],[-5.20364,6.74261],[-5.20795,6.74793],[-5.19636,6.76025],[-5.1953,6.76475],[-5.1922,6.76859],[-5.19114,6.79808],[-5.18803,6.80192],[-5.1875,6.80417],[-5.18992,6.80452],[-5.20174,6.81631],[-5.20659,6.81702],[-5.21008,6.82048],[-5.21667,6.82083],[-5.21998,6.82168],[-5.22083,6.825],[-5.2217,6.82836],[-5.22795,6.82973],[-5.22917,6.825],[-5.23576,6.82535],[-5.23924,6.82881],[-5.24583,6.82917],[-5.24619,6.83159],[-5.25381,6.83924],[-5.25452,6.84755],[-5.25035,6.85174],[-5.25,6.85417],[-5.25085,6.85748],[-5.25748,6.85918],[-5.25833,6.8625],[-5.2625,6.8625],[-5.26335,6.86582],[-5.26667,6.86667],[-5.26723,6.87304],[-5.27123,6.8782],[-5.27843,6.88005],[-5.27973,6.88844],[-5.2714,6.89779],[-5.27083,6.9125],[-5.27304,6.91307],[-5.27696,6.9161],[-5.28138,6.91723],[-5.29493,6.92981],[-5.2964,6.93554],[-5.3004,6.9407],[-5.30762,6.94255],[-5.30904,6.95328],[-5.3125,6.95417],[-5.31335,6.95748],[-5.31667,6.95833],[-5.31909,6.95869],[-5.32674,6.96631],[-5.32917,6.96667],[-5.32881,6.97326],[-5.31285,6.98924],[-5.3125,6.99167],[-5.31492,6.99202],[-5.32881,7.00588],[-5.32952,7.01076],[-5.33298,7.01424],[-5.33369,7.02255],[-5.32918,7.02708],[-5.33298,7.03091],[-5.33369,7.03576],[-5.34131,7.04341],[-5.34167,7.04583],[-5.3411,7.05221],[-5.3371,7.05737],[-5.3289,7.05947],[-5.33277,7.06446],[-5.3339,7.06741],[-5.32973,7.07279],[-5.3286,7.08825],[-5.33373,7.09487],[-5.3375,7.09583],[-5.33693,7.09804],[-5.3338,7.10208],[-5.33807,7.10759],[-5.33693,7.11471],[-5.3339,7.11862],[-5.33248,7.12415],[-5.32917,7.125],[-5.32917,7.12917],[-5.32674,7.12952],[-5.32119,7.13504],[-5.32083,7.1375],[-5.32818,7.13822],[-5.33003,7.14468],[-5.3338,7.14645],[-5.33951,7.14228],[-5.34214,7.14105],[-5.34914,7.14616],[-5.35062,7.15633],[-5.35355,7.16034],[-5.35478,7.16466],[-5.35777,7.16875],[-5.35478,7.17284],[-5.35355,7.1865],[-5.36466,7.18812],[-5.37284,7.19522],[-5.375,7.19583],[-5.37854,7.19674],[-5.37917,7.20833],[-5.37696,7.2089],[-5.37304,7.21193],[-5.36706,7.21347],[-5.36193,7.22009],[-5.36307,7.23138],[-5.36723,7.23675],[-5.3661,7.24388],[-5.3589,7.25196],[-5.35748,7.25748],[-5.35196,7.2589],[-5.34388,7.2661],[-5.33427,7.26737],[-5.3214,7.28112],[-5.31998,7.28665],[-5.31667,7.2875],[-5.316,7.30335],[-5.30514,7.30493],[-5.30355,7.31049],[-5.30062,7.31451],[-5.29938,7.31714],[-5.30424,7.32379],[-5.29784,7.32562],[-5.29383,7.32855],[-5.28407,7.32997],[-5.28333,7.3375],[-5.28576,7.33785],[-5.28924,7.34131],[-5.29409,7.34202],[-5.30381,7.35171],[-5.30452,7.35588],[-5.30035,7.36008],[-5.29965,7.37326],[-5.29619,7.37674],[-5.29583,7.39167],[-5.29668,7.39498],[-5.3,7.39583],[-5.29943,7.40638],[-5.29491,7.4118],[-5.28422,7.41321],[-5.28277,7.41888],[-5.27546,7.42707],[-5.2786,7.43112],[-5.27973,7.43844],[-5.2714,7.44779],[-5.27027,7.46471],[-5.25769,7.47826],[-5.25196,7.47973],[-5.24649,7.48429],[-5.24583,7.49167],[-5.24583,7.5],[-5.24522,7.50633],[-5.23812,7.51451],[-5.23671,7.52421],[-5.22597,7.52577],[-5.22407,7.53241],[-5.21678,7.53449],[-5.21312,7.53951],[-5.21139,7.54554],[-5.20209,7.55361],[-5.19799,7.55062],[-5.19583,7.55],[-5.19548,7.55242],[-5.18785,7.56008],[-5.18715,7.56492],[-5.18369,7.56841],[-5.18298,7.57329],[-5.17742,7.57881],[-5.175,7.57917],[-5.17443,7.58971],[-5.1714,7.59362],[-5.17027,7.60075],[-5.17454,7.60626],[-5.16608,7.61575],[-5.16029,7.61723],[-5.15487,7.62175],[-5.1536,7.63138],[-5.1496,7.63653],[-5.14362,7.63807],[-5.13554,7.64527],[-5.12988,7.64672],[-5.1286,7.65638],[-5.1214,7.66446],[-5.12083,7.66667],[-5.10517,7.66727],[-5.10057,7.67279],[-5.09915,7.67832],[-5.09583,7.67917],[-5.09583,7.68333],[-5.09583,7.69167],[-5.09258,7.69243],[-5.09114,7.69677],[-5.0953,7.70192],[-5.09636,7.70525],[-5.08803,7.71442],[-5.0875,7.71667],[-5.09082,7.71752],[-5.09167,7.72083],[-5.09388,7.7214],[-5.0993,7.72592],[-5.10057,7.73554],[-5.1036,7.73946],[-5.10502,7.74498],[-5.11179,7.74672],[-5.11307,7.75638],[-5.11706,7.76153],[-5.12439,7.76341],[-5.125,7.77917],[-5.12721,7.77973],[-5.13112,7.78277],[-5.13554,7.7839],[-5.13946,7.78693],[-5.16576,7.78811],[-5.16667,7.79167],[-5.16702,7.79409],[-5.17465,7.80174],[-5.17535,7.80588],[-5.16668,7.81458],[-5.17881,7.82674],[-5.17917,7.82917],[-5.1786,7.83554],[-5.17557,7.83946],[-5.17415,7.84498],[-5.17083,7.84583],[-5.1661,7.84705],[-5.16723,7.85221],[-5.1714,7.85759],[-5.17027,7.86054],[-5.16723,7.86446],[-5.1661,7.87721],[-5.15473,7.88946],[-5.15346,7.89908],[-5.14804,7.9036],[-5.14252,7.90502],[-5.1407,7.9121],[-5.13554,7.9161],[-5.13333,7.91667],[-5.13418,7.91998],[-5.14096,7.92172],[-5.14223,7.93138],[-5.14527,7.93529],[-5.14583,7.95833],[-5.14804,7.9589],[-5.15612,7.9661],[-5.16054,7.96723],[-5.16862,7.97443],[-5.18659,7.97564],[-5.1875,7.97917],[-5.18785,7.98992],[-5.19131,7.99341],[-5.19202,7.99826],[-5.19965,8.00591],[-5.20035,8.01076],[-5.20381,8.01424],[-5.20452,8.01909],[-5.20832,8.02292],[-5.20452,8.02674],[-5.20417,8.05417],[-5.20417,8.0625],[-5.19341,8.06285],[-5.18992,8.06631],[-5.1875,8.06667],[-5.18661,8.07012],[-5.17592,8.07154],[-5.1714,8.07696],[-5.16998,8.08248],[-5.16446,8.0839],[-5.16054,8.08693],[-5.15417,8.0875],[-5.15452,8.08992],[-5.15798,8.09341],[-5.15869,8.10242],[-5.16665,8.11042],[-5.15869,8.11841],[-5.15833,8.15833],[-5.15798,8.16079],[-5.14826,8.17048],[-5.14583,8.17083],[-5.14527,8.17721],[-5.14223,8.18112],[-5.14078,8.18679],[-5.13112,8.18807],[-5.12721,8.1911],[-5.12057,8.1928],[-5.12443,8.19779],[-5.12557,8.20221],[-5.13277,8.21029],[-5.1339,8.21741],[-5.12973,8.22279],[-5.1286,8.22721],[-5.12557,8.23112],[-5.12443,8.23554],[-5.1214,8.23946],[-5.12027,8.24658],[-5.12443,8.25196],[-5.12557,8.26054],[-5.1286,8.26446],[-5.12917,8.26667],[-5.13333,8.26667],[-5.1375,8.26667],[-5.13971,8.26723],[-5.15326,8.27981],[-5.15506,8.28683],[-5.1676,8.28807],[-5.17696,8.27973],[-5.17991,8.2786],[-5.18529,8.28277],[-5.20638,8.2839],[-5.21029,8.28693],[-5.21667,8.2875],[-5.2161,8.29388],[-5.2089,8.30196],[-5.20777,8.30935],[-5.22568,8.32827],[-5.23248,8.33002],[-5.23333,8.33333],[-5.23112,8.3339],[-5.21888,8.34527],[-5.21446,8.3464],[-5.21054,8.34943],[-5.2048,8.35091],[-5.2036,8.36888],[-5.1964,8.37696],[-5.19527,8.39241],[-5.19953,8.39792],[-5.1964,8.40196],[-5.19527,8.4051],[-5.2036,8.41446],[-5.20473,8.42575],[-5.20057,8.43112],[-5.19943,8.44388],[-5.19223,8.45196],[-5.19167,8.4625],[-5.19202,8.46909],[-5.19548,8.47258],[-5.19619,8.47671],[-5.19202,8.48091],[-5.19167,8.5],[-5.19167,8.50417],[-5.18811,8.50508],[-5.18693,8.53138],[-5.1839,8.53529],[-5.18277,8.54265],[-5.19527,8.55612],[-5.1964,8.56054],[-5.19943,8.56446],[-5.20057,8.57304],[-5.20787,8.58124],[-5.20377,8.58653],[-5.19557,8.58864],[-5.19943,8.59362],[-5.20057,8.60075],[-5.1964,8.60612],[-5.19583,8.60833],[-5.1964,8.61054]]]}}
