{"type":"Feature","properties":{"code":"IND-CH","name":"Central India Highlands","landscape_system":"Deccan Plateau Forest-Dryland Transition Zone","countries":["India"],"source_file":"MFL_India_LL_Boundary_IND.shp","source_features_dissolved":1,"simplify_tolerance_deg":0.002,"generated":"2026-07-21"},"bbox":[78.29423,22.20216,81.19749,25.9555],"geometry":{"type":"Polygon","coordinates":[[[78.93476,25.95449],[78.95744,25.94156],[78.97149,25.94867],[78.99583,25.93877],[79.01086,25.94559],[79.03055,25.94048],[79.03427,25.93271],[79.07786,25.92175],[79.07417,25.91001],[79.05013,25.91194],[79.04693,25.89721],[79.03914,25.89954],[79.04005,25.90466],[79.0228,25.90906],[79.02709,25.89268],[79.03663,25.88515],[79.03269,25.873],[79.05572,25.86166],[79.06055,25.86565],[79.06792,25.86456],[79.06999,25.87098],[79.06603,25.87451],[79.07005,25.89568],[79.10015,25.89617],[79.08998,25.8666],[79.0918,25.86354],[79.10667,25.85947],[79.10907,25.87176],[79.11917,25.87082],[79.11315,25.85403],[79.11925,25.85153],[79.10984,25.82974],[79.12892,25.81768],[79.16571,25.81088],[79.20561,25.79514],[79.22303,25.80327],[79.23035,25.81296],[79.25803,25.79758],[79.26583,25.80148],[79.27341,25.81858],[79.28782,25.82083],[79.29392,25.8174],[79.29382,25.81383],[79.28377,25.79738],[79.28925,25.79067],[79.30452,25.78382],[79.31201,25.77474],[79.32629,25.77956],[79.33781,25.79031],[79.35279,25.79329],[79.37579,25.79131],[79.38984,25.8014],[79.39265,25.79828],[79.39388,25.78885],[79.39077,25.78342],[79.38103,25.78012],[79.36175,25.78156],[79.35546,25.77718],[79.36652,25.76577],[79.36746,25.75147],[79.39204,25.74567],[79.39188,25.74137],[79.38544,25.73464],[79.366,25.72069],[79.36484,25.70427],[79.37939,25.69024],[79.37041,25.67418],[79.37119,25.67038],[79.37925,25.66434],[79.39562,25.66207],[79.39803,25.65773],[79.38734,25.65237],[79.35993,25.65406],[79.35361,25.65157],[79.35271,25.64819],[79.37037,25.62547],[79.36673,25.60774],[79.38128,25.58229],[79.40533,25.58846],[79.41006,25.58818],[79.41281,25.58229],[79.39433,25.57224],[79.40189,25.55424],[79.40087,25.5465],[79.38111,25.52686],[79.3705,25.50449],[79.35476,25.49027],[79.3605,25.46723],[79.32493,25.4363],[79.33264,25.40677],[79.31682,25.40398],[79.30601,25.39005],[79.29185,25.38092],[79.28716,25.36332],[79.26943,25.34198],[79.2729,25.32972],[79.27652,25.32703],[79.29132,25.32929],[79.29473,25.34022],[79.32513,25.33725],[79.33373,25.33258],[79.34459,25.33445],[79.33448,25.3174],[79.34187,25.30458],[79.33076,25.29405],[79.34971,25.28842],[79.3511,25.26995],[79.35297,25.26538],[79.3583,25.26352],[79.36574,25.26807],[79.36724,25.27242],[79.36445,25.29252],[79.36742,25.29432],[79.37257,25.29332],[79.38354,25.28361],[79.38861,25.28625],[79.40189,25.27925],[79.40122,25.26236],[79.41531,25.25922],[79.43121,25.25955],[79.45158,25.27361],[79.45307,25.28256],[79.45741,25.28387],[79.47312,25.28213],[79.4763,25.27316],[79.4904,25.27035],[79.48974,25.26564],[79.48396,25.26498],[79.45919,25.26945],[79.44834,25.25081],[79.44491,25.24812],[79.44176,25.25172],[79.43855,25.24827],[79.42702,25.22504],[79.4424,25.22095],[79.4427,25.21256],[79.43214,25.20278],[79.41734,25.20392],[79.40958,25.20876],[79.40456,25.19947],[79.40389,25.18958],[79.38387,25.17028],[79.38023,25.14912],[79.39317,25.11615],[79.40197,25.11336],[79.40919,25.11566],[79.41711,25.12727],[79.41839,25.13352],[79.41512,25.1391],[79.4259,25.1384],[79.43114,25.1354],[79.43526,25.12653],[79.42991,25.10913],[79.43637,25.10782],[79.46838,25.13445],[79.47018,25.13068],[79.46053,25.09633],[79.47153,25.08719],[79.48988,25.08275],[79.50016,25.0992],[79.51723,25.10179],[79.51377,25.12572],[79.52869,25.13738],[79.52731,25.1431],[79.53494,25.14762],[79.55034,25.1694],[79.56552,25.17755],[79.56894,25.17552],[79.57397,25.15945],[79.5897,25.14728],[79.59327,25.14635],[79.60281,25.15477],[79.59541,25.13562],[79.59788,25.13143],[79.60609,25.1325],[79.62003,25.14267],[79.63785,25.13108],[79.66617,25.12712],[79.6766,25.13699],[79.71777,25.13382],[79.74564,25.14388],[79.76922,25.12526],[79.78834,25.12039],[79.80517,25.11098],[79.8187,25.11015],[79.83129,25.09811],[79.85589,25.0985],[79.84268,25.11633],[79.84657,25.12227],[79.84767,25.13339],[79.85162,25.13978],[79.8721,25.1503],[79.86059,25.15606],[79.8626,25.17697],[79.85811,25.18186],[79.85879,25.19023],[79.85185,25.20348],[79.85619,25.21361],[79.86304,25.21919],[79.85285,25.22503],[79.84716,25.23241],[79.84714,25.2402],[79.86098,25.24299],[79.87246,25.25379],[79.88663,25.24641],[79.8936,25.24621],[79.9024,25.25692],[79.9063,25.25418],[79.91345,25.23344],[79.921,25.25071],[79.93257,25.25032],[79.93333,25.26302],[79.94257,25.27188],[79.94922,25.2653],[79.96717,25.26847],[79.97728,25.26494],[79.99673,25.26865],[79.99126,25.28316],[79.9987,25.29377],[80.01265,25.30172],[80.00991,25.32475],[80.02074,25.34316],[80.03719,25.34097],[80.07002,25.3431],[80.0833,25.35583],[80.09338,25.35383],[80.10699,25.34418],[80.11913,25.3427],[80.1233,25.33843],[80.13712,25.35573],[80.15913,25.3662],[80.15918,25.37765],[80.1879,25.38365],[80.18883,25.40643],[80.19392,25.41623],[80.20245,25.40673],[80.21137,25.40395],[80.22956,25.41092],[80.24519,25.40489],[80.25587,25.42871],[80.27373,25.42504],[80.29533,25.40776],[80.31075,25.38732],[80.31325,25.37226],[80.30263,25.35828],[80.31174,25.33421],[80.31069,25.31065],[80.30267,25.29696],[80.30405,25.28889],[80.31201,25.28215],[80.34097,25.2786],[80.34927,25.26955],[80.35771,25.25113],[80.37803,25.23751],[80.3907,25.24569],[80.39906,25.24297],[80.40166,25.22095],[80.41813,25.19192],[80.42257,25.17221],[80.41548,25.16529],[80.38067,25.16078],[80.35129,25.1449],[80.34412,25.12492],[80.31327,25.10117],[80.31472,25.09406],[80.31052,25.08195],[80.30479,25.07551],[80.28196,25.06322],[80.2778,25.04398],[80.26694,25.03024],[80.23508,25.01422],[80.18884,24.97634],[80.15427,24.96625],[80.14929,24.96182],[80.14217,24.94053],[80.12624,24.93724],[80.10065,24.94404],[80.04656,24.94231],[80.02744,24.92598],[80.02984,24.91807],[80.0275,24.9133],[80.03687,24.90335],[80.05487,24.86342],[80.08305,24.84431],[80.08525,24.82756],[80.07839,24.81335],[80.0627,24.79181],[80.01044,24.75037],[79.99011,24.72729],[79.98461,24.71582],[79.98045,24.69228],[79.95221,24.66072],[79.94484,24.65844],[79.93529,24.66372],[79.92449,24.67745],[79.92033,24.69159],[79.90806,24.69664],[79.88973,24.69718],[79.87807,24.68455],[79.86785,24.65049],[79.85707,24.63882],[79.85398,24.62781],[79.83912,24.61657],[79.83753,24.59843],[79.84871,24.59497],[79.85217,24.58687],[79.85922,24.58544],[79.87292,24.59442],[79.88212,24.59524],[79.88215,24.57973],[79.89541,24.57714],[79.86938,24.57465],[79.86612,24.55226],[79.87615,24.53729],[79.87692,24.52417],[79.86035,24.51107],[79.86383,24.49666],[79.87568,24.48049],[79.86075,24.46179],[79.86147,24.44049],[79.86524,24.42176],[79.87157,24.40902],[79.87618,24.37819],[79.86615,24.37256],[79.85229,24.35393],[79.84814,24.35329],[79.83508,24.35812],[79.83427,24.37782],[79.82444,24.38125],[79.81873,24.3874],[79.80254,24.38903],[79.79007,24.37679],[79.80622,24.35584],[79.8148,24.35012],[79.81197,24.34093],[79.79727,24.32067],[79.81561,24.32515],[79.82875,24.32337],[79.85146,24.30236],[79.83714,24.28824],[79.82202,24.28502],[79.80662,24.28736],[79.80232,24.26907],[79.8325,24.25602],[79.83922,24.2476],[79.83254,24.23751],[79.83618,24.22926],[79.83525,24.21984],[79.82528,24.20507],[79.80852,24.20352],[79.80564,24.1935],[79.80532,24.16257],[79.78864,24.153],[79.79025,24.13858],[79.77827,24.13598],[79.77969,24.12132],[79.76362,24.11314],[79.75747,24.10411],[79.75682,24.07853],[79.75037,24.07496],[79.73854,24.07725],[79.73299,24.0753],[79.73093,24.06489],[79.73832,24.04788],[79.74164,24.04779],[79.74552,24.05649],[79.74847,24.05668],[79.74971,24.04104],[79.75468,24.03641],[79.76465,24.04416],[79.78098,24.03448],[79.80721,24.03077],[79.8174,24.03288],[79.83433,24.02793],[79.83826,24.02527],[79.8399,24.01236],[79.83106,24.00765],[79.83805,24.00006],[79.84986,23.99537],[79.84534,23.97253],[79.8328,23.95168],[79.83176,23.93656],[79.83781,23.92838],[79.84471,23.92803],[79.85815,23.91555],[79.86352,23.90565],[79.85741,23.86724],[79.85087,23.8618],[79.84964,23.85447],[79.86436,23.82056],[79.85816,23.81353],[79.84887,23.81047],[79.8511,23.79439],[79.83797,23.79057],[79.83836,23.78431],[79.82841,23.77895],[79.82322,23.76995],[79.82659,23.75795],[79.8128,23.74177],[79.81628,23.72479],[79.83144,23.72038],[79.82378,23.71121],[79.82116,23.70034],[79.82685,23.69586],[79.85973,23.69619],[79.86268,23.69177],[79.88865,23.68279],[79.90589,23.68599],[79.91962,23.68005],[79.92968,23.68093],[79.9353,23.67229],[79.94549,23.66757],[79.94932,23.65932],[79.93913,23.64681],[79.93807,23.64025],[79.93884,23.63421],[79.94708,23.62313],[79.93493,23.62246],[79.92366,23.60749],[79.92082,23.59503],[79.91405,23.58768],[79.89906,23.58484],[79.87193,23.55228],[79.86527,23.5354],[79.8438,23.50819],[79.83749,23.50621],[79.82162,23.51522],[79.80481,23.50183],[79.80823,23.49024],[79.7934,23.46657],[79.79765,23.46201],[79.80611,23.46989],[79.80892,23.46305],[79.80365,23.444],[79.81178,23.44246],[79.81732,23.43516],[79.82224,23.44555],[79.83756,23.44812],[79.8344,23.42404],[79.85101,23.42436],[79.85747,23.41825],[79.85439,23.40035],[79.85715,23.38514],[79.86655,23.36629],[79.88263,23.36369],[79.9048,23.38733],[79.9187,23.39062],[79.92139,23.39957],[79.93001,23.40408],[79.93626,23.39941],[79.93339,23.38712],[79.94257,23.38688],[79.94518,23.37583],[79.95234,23.3727],[79.95316,23.36464],[79.96315,23.36224],[79.96996,23.34924],[79.98302,23.34588],[79.99736,23.34877],[80.01132,23.34315],[80.02169,23.34716],[80.02958,23.35554],[80.03944,23.35443],[80.04565,23.35018],[80.06396,23.34931],[80.07306,23.3387],[80.09403,23.32884],[80.10114,23.31973],[80.10514,23.32124],[80.1123,23.33838],[80.11872,23.34231],[80.12337,23.32905],[80.16233,23.30292],[80.17025,23.32323],[80.19347,23.32907],[80.19283,23.33714],[80.21396,23.33667],[80.22314,23.34085],[80.22857,23.33476],[80.24636,23.33463],[80.2547,23.319],[80.26151,23.32169],[80.26868,23.33079],[80.27292,23.35849],[80.28585,23.36292],[80.2952,23.35482],[80.29149,23.34484],[80.29521,23.33314],[80.30581,23.32194],[80.32087,23.31545],[80.31985,23.30492],[80.36149,23.30899],[80.36404,23.31464],[80.35787,23.32926],[80.36693,23.33217],[80.37346,23.33881],[80.38149,23.33952],[80.38917,23.35003],[80.40417,23.34434],[80.42737,23.34978],[80.43817,23.34501],[80.453,23.34863],[80.45631,23.36744],[80.47127,23.37251],[80.47356,23.38576],[80.47867,23.39207],[80.48874,23.39181],[80.50178,23.38248],[80.51255,23.37945],[80.53467,23.39277],[80.54754,23.38327],[80.54992,23.37664],[80.53467,23.3663],[80.53332,23.35901],[80.56687,23.35398],[80.56338,23.31999],[80.56419,23.31726],[80.57513,23.31652],[80.57577,23.28667],[80.56461,23.28393],[80.55911,23.27201],[80.54153,23.27317],[80.53267,23.26344],[80.51647,23.2592],[80.51141,23.23777],[80.49665,23.21276],[80.49562,23.20524],[80.47289,23.20021],[80.47388,23.19689],[80.49612,23.186],[80.51579,23.15878],[80.54515,23.16951],[80.54945,23.16505],[80.55132,23.15309],[80.56816,23.14572],[80.57413,23.13956],[80.5734,23.13307],[80.56845,23.12787],[80.56061,23.12369],[80.55198,23.12363],[80.54173,23.11045],[80.52095,23.1076],[80.52208,23.08424],[80.51782,23.08048],[80.51251,23.08099],[80.51223,23.07808],[80.52582,23.07748],[80.52932,23.08335],[80.5384,23.08065],[80.54269,23.07314],[80.54677,23.08042],[80.54941,23.07891],[80.55054,23.08409],[80.55274,23.08356],[80.55287,23.07435],[80.54929,23.07183],[80.55653,23.05754],[80.55975,23.03041],[80.5718,23.0214],[80.56509,22.99447],[80.55543,22.99373],[80.55915,22.98722],[80.56937,22.98571],[80.57156,22.97835],[80.57639,22.97637],[80.56796,22.95778],[80.55856,22.95807],[80.54555,22.96346],[80.53559,22.94577],[80.51663,22.95226],[80.50933,22.94726],[80.51869,22.93845],[80.53151,22.93572],[80.53968,22.91946],[80.53801,22.90307],[80.52343,22.87189],[80.55234,22.86955],[80.56029,22.88047],[80.56832,22.87604],[80.5681,22.86992],[80.58228,22.86562],[80.58895,22.86022],[80.58854,22.85669],[80.63066,22.85522],[80.64826,22.84865],[80.651,22.83948],[80.66201,22.84311],[80.66709,22.84225],[80.67027,22.83633],[80.68181,22.83919],[80.68388,22.8513],[80.68857,22.84431],[80.69268,22.85634],[80.70034,22.85065],[80.70887,22.85071],[80.71846,22.86259],[80.73637,22.85645],[80.74275,22.84119],[80.73802,22.84196],[80.73446,22.8357],[80.72871,22.83705],[80.72676,22.8329],[80.73188,22.83261],[80.72998,22.81176],[80.74358,22.81591],[80.77514,22.81472],[80.78501,22.82153],[80.79158,22.81898],[80.8165,22.83143],[80.82662,22.83299],[80.83051,22.84964],[80.87012,22.84859],[80.86718,22.83439],[80.85775,22.8254],[80.85445,22.80732],[80.86912,22.80458],[80.87031,22.80174],[80.87212,22.78878],[80.86761,22.75811],[80.89858,22.76012],[80.92489,22.75501],[80.94264,22.74434],[80.92687,22.73065],[80.91649,22.71413],[80.91909,22.70898],[80.92912,22.70798],[80.92297,22.69219],[80.92283,22.67944],[80.94044,22.68004],[80.94389,22.66869],[80.95456,22.65619],[80.95392,22.65069],[80.9509,22.6512],[80.94867,22.64736],[80.95941,22.63785],[80.96314,22.63742],[80.96482,22.64202],[80.96229,22.64734],[80.96533,22.65008],[80.97138,22.64401],[80.97585,22.6487],[80.98663,22.64906],[81.01152,22.64084],[81.00612,22.63019],[81.00891,22.62369],[81.00249,22.6179],[80.99022,22.61101],[80.98451,22.61494],[80.98002,22.60713],[80.97329,22.61166],[80.96746,22.61151],[80.95725,22.60451],[80.95563,22.59699],[80.96695,22.59441],[80.96535,22.5896],[80.95975,22.59056],[80.95683,22.58717],[80.95272,22.59116],[80.94287,22.58294],[80.93608,22.58774],[80.93443,22.57375],[80.94468,22.56519],[80.94575,22.55816],[80.94923,22.55526],[80.96471,22.56079],[80.96538,22.54995],[80.97022,22.54295],[80.9803,22.54453],[80.98487,22.54099],[80.99073,22.54569],[81.00783,22.54819],[81.0098,22.55429],[81.0248,22.56133],[81.02404,22.56986],[81.01609,22.57045],[81.02115,22.58282],[81.01709,22.59182],[81.02265,22.60202],[81.03293,22.60405],[81.03126,22.61333],[81.03409,22.61653],[81.04362,22.61339],[81.04523,22.60605],[81.06299,22.60754],[81.06808,22.61426],[81.07547,22.60909],[81.08421,22.61323],[81.08938,22.61031],[81.08911,22.6027],[81.09378,22.5973],[81.10763,22.59598],[81.11174,22.59976],[81.11477,22.59381],[81.12317,22.59409],[81.12581,22.58791],[81.1314,22.58651],[81.13632,22.58053],[81.13745,22.57114],[81.14259,22.57128],[81.14384,22.56715],[81.14962,22.56597],[81.14816,22.56224],[81.15802,22.55951],[81.15938,22.55566],[81.1554,22.55409],[81.16204,22.54209],[81.15991,22.54037],[81.16791,22.54054],[81.16833,22.53388],[81.17398,22.52608],[81.17816,22.52636],[81.18939,22.51126],[81.19749,22.49283],[81.17221,22.48775],[81.16282,22.47455],[81.15512,22.45491],[81.14103,22.45423],[81.12701,22.44923],[81.11006,22.43553],[81.11034,22.41744],[81.1037,22.38267],[81.10867,22.37382],[81.11312,22.35327],[81.12121,22.3426],[81.11355,22.32413],[81.11894,22.30922],[81.11872,22.29126],[81.10186,22.2783],[81.09153,22.249],[81.07873,22.23885],[81.07261,22.24837],[81.04842,22.24384],[81.04495,22.25436],[81.0324,22.26507],[81.03088,22.27212],[81.01891,22.27744],[81.01112,22.28555],[80.98755,22.28655],[80.98087,22.27799],[80.97447,22.27636],[80.96281,22.281],[80.95825,22.27516],[80.94529,22.28635],[80.93807,22.28757],[80.93665,22.27786],[80.91497,22.27904],[80.91302,22.29014],[80.9057,22.29325],[80.90375,22.29765],[80.91313,22.30946],[80.90965,22.3177],[80.91405,22.32008],[80.91687,22.32923],[80.92866,22.32671],[80.9315,22.33117],[80.92436,22.33715],[80.90888,22.34286],[80.90227,22.34089],[80.89902,22.33374],[80.88147,22.33373],[80.88284,22.34733],[80.89171,22.34899],[80.89007,22.35166],[80.89373,22.35043],[80.86537,22.36478],[80.8657,22.3789],[80.84458,22.38906],[80.84221,22.38779],[80.84433,22.38223],[80.83417,22.38367],[80.82005,22.39107],[80.81476,22.3901],[80.81129,22.39462],[80.81127,22.40197],[80.80655,22.39919],[80.79536,22.40005],[80.80148,22.3872],[80.79403,22.37578],[80.80223,22.36639],[80.79413,22.35505],[80.79211,22.34151],[80.79505,22.32887],[80.79072,22.32546],[80.79207,22.32106],[80.78791,22.31372],[80.7737,22.31725],[80.77209,22.31255],[80.76577,22.31207],[80.76591,22.30891],[80.76176,22.3092],[80.74909,22.29741],[80.74341,22.2871],[80.74481,22.28449],[80.72318,22.27745],[80.71881,22.27143],[80.71113,22.27166],[80.70857,22.27503],[80.70395,22.27049],[80.70347,22.25462],[80.71777,22.23535],[80.72425,22.23491],[80.72856,22.22027],[80.70625,22.20216],[80.69983,22.20358],[80.69115,22.21259],[80.68161,22.213],[80.66419,22.22207],[80.65914,22.21949],[80.64589,22.22747],[80.60785,22.22789],[80.59825,22.23227],[80.57992,22.22651],[80.53221,22.24057],[80.52514,22.2494],[80.52628,22.26463],[80.51564,22.2623],[80.50785,22.27567],[80.50231,22.27133],[80.48745,22.27007],[80.48318,22.27801],[80.46229,22.28082],[80.46049,22.27709],[80.46499,22.26437],[80.45107,22.26331],[80.44682,22.24609],[80.41551,22.24418],[80.42111,22.2782],[80.40341,22.29312],[80.39975,22.30446],[80.38729,22.30638],[80.38492,22.30925],[80.3711,22.30097],[80.33606,22.29894],[80.33407,22.30557],[80.34628,22.3271],[80.33384,22.33411],[80.33521,22.33917],[80.32308,22.34612],[80.30086,22.33738],[80.28826,22.32412],[80.27944,22.32317],[80.27311,22.3074],[80.25973,22.30827],[80.23505,22.30154],[80.22813,22.31386],[80.2151,22.31008],[80.21258,22.3145],[80.16807,22.32542],[80.17243,22.33996],[80.15985,22.34624],[80.14975,22.34633],[80.14282,22.33897],[80.13914,22.34349],[80.12938,22.34616],[80.10591,22.34384],[80.09799,22.33854],[80.08299,22.34475],[80.07666,22.35135],[80.07749,22.35916],[80.06923,22.37732],[80.07346,22.38318],[80.0725,22.39411],[80.09159,22.40624],[80.09266,22.42351],[80.08016,22.4276],[80.07742,22.44055],[80.07158,22.45031],[80.05013,22.45618],[80.05223,22.46953],[80.04425,22.4949],[80.0376,22.50139],[80.02788,22.4997],[80.02334,22.50531],[80.02414,22.51681],[80.03722,22.52423],[80.03743,22.54102],[80.02992,22.54726],[80.02166,22.54733],[80.01613,22.543],[80.0112,22.54771],[80.00903,22.55895],[80.00496,22.5585],[80.00176,22.55043],[79.98852,22.54506],[79.98249,22.54934],[79.97044,22.54755],[79.9528,22.55829],[79.96409,22.56817],[79.97831,22.56686],[79.97886,22.57565],[79.9898,22.58079],[80.00774,22.57479],[80.01542,22.59696],[80.03222,22.59643],[80.03537,22.60812],[80.05263,22.6041],[80.06468,22.60736],[80.07282,22.60211],[80.08201,22.61349],[80.08796,22.61312],[80.08545,22.61725],[80.08905,22.61975],[80.10456,22.62141],[80.1129,22.62705],[80.12639,22.6102],[80.13116,22.61446],[80.13828,22.61102],[80.14481,22.61619],[80.15385,22.59996],[80.17535,22.60168],[80.18986,22.59908],[80.20235,22.60392],[80.21604,22.62717],[80.2143,22.63446],[80.19435,22.64436],[80.20223,22.66288],[80.21296,22.67447],[80.21923,22.67044],[80.23605,22.67417],[80.24104,22.69047],[80.23365,22.70001],[80.23845,22.70643],[80.23939,22.71515],[80.24509,22.72101],[80.27629,22.71826],[80.28942,22.72633],[80.27874,22.76492],[80.28157,22.78056],[80.27888,22.78748],[80.26538,22.79382],[80.21812,22.8005],[80.20994,22.79817],[80.20338,22.79203],[80.20554,22.77811],[80.19035,22.77488],[80.17971,22.76292],[80.16242,22.76659],[80.10045,22.76924],[80.06927,22.7581],[80.05972,22.76106],[80.03955,22.78344],[80.01895,22.79298],[80.00462,22.82368],[79.97903,22.8326],[79.96437,22.85198],[79.94841,22.85905],[79.92081,22.85822],[79.9017,22.84763],[79.89349,22.86496],[79.88088,22.86218],[79.87518,22.85388],[79.86236,22.85646],[79.84615,22.83571],[79.83706,22.8321],[79.82526,22.83618],[79.82056,22.84609],[79.81197,22.85045],[79.81248,22.8679],[79.80506,22.87026],[79.77519,22.84719],[79.76099,22.84564],[79.75385,22.85237],[79.7539,22.85917],[79.76998,22.88079],[79.76708,22.88466],[79.75134,22.89085],[79.73831,22.90221],[79.74404,22.91599],[79.74245,22.91973],[79.68793,22.92507],[79.67619,22.92908],[79.65568,22.92457],[79.64526,22.92794],[79.62219,22.94759],[79.6166,22.95676],[79.6175,22.96769],[79.6336,22.97467],[79.63277,22.98003],[79.61884,22.99337],[79.61073,22.99177],[79.6113,23.00226],[79.59995,23.01098],[79.60304,23.01968],[79.58722,23.02156],[79.58529,23.02421],[79.59299,23.03477],[79.58955,23.04641],[79.59187,23.05901],[79.60115,23.06648],[79.59724,23.09136],[79.60781,23.09273],[79.60194,23.09928],[79.60898,23.10507],[79.5751,23.11384],[79.57053,23.13025],[79.56557,23.13366],[79.5209,23.14319],[79.5048,23.14217],[79.4772,23.12222],[79.46602,23.10866],[79.45023,23.09729],[79.43181,23.10834],[79.40111,23.10105],[79.37395,23.11326],[79.35938,23.1081],[79.34512,23.10806],[79.35091,23.13151],[79.34744,23.14048],[79.36357,23.1529],[79.36565,23.16708],[79.34307,23.15549],[79.32376,23.1503],[79.32726,23.16103],[79.31204,23.1799],[79.31481,23.18782],[79.29996,23.22415],[79.30013,23.235],[79.2838,23.22113],[79.26405,23.21635],[79.26125,23.2186],[79.26442,23.23223],[79.25913,23.24315],[79.22969,23.25366],[79.22533,23.25329],[79.22665,23.24349],[79.2206,23.22743],[79.20645,23.23016],[79.20104,23.23824],[79.19051,23.24216],[79.18436,23.22379],[79.16994,23.22342],[79.1685,23.22588],[79.16585,23.25817],[79.19545,23.25675],[79.20454,23.25963],[79.21265,23.27737],[79.21976,23.28266],[79.22338,23.29703],[79.20473,23.31638],[79.20501,23.32018],[79.22172,23.33024],[79.2299,23.34198],[79.21172,23.35437],[79.21256,23.36678],[79.20915,23.36801],[79.20039,23.36339],[79.18703,23.36672],[79.1845,23.37094],[79.18103,23.40481],[79.19513,23.41244],[79.1953,23.41712],[79.17766,23.42372],[79.17524,23.42682],[79.1764,23.43409],[79.18907,23.44204],[79.2131,23.43934],[79.22054,23.46167],[79.23016,23.46107],[79.24225,23.46827],[79.25346,23.4644],[79.25492,23.47898],[79.27958,23.48037],[79.27756,23.48527],[79.2826,23.49135],[79.2868,23.50883],[79.29304,23.51637],[79.3232,23.52585],[79.32535,23.52916],[79.31626,23.54167],[79.31866,23.55283],[79.30845,23.55523],[79.2945,23.56513],[79.29241,23.57188],[79.2948,23.58506],[79.30122,23.58932],[79.31175,23.58834],[79.29646,23.60017],[79.29465,23.64113],[79.29794,23.64482],[79.31982,23.63343],[79.32944,23.63293],[79.34541,23.66044],[79.34231,23.66618],[79.33487,23.66414],[79.31348,23.67766],[79.29606,23.67918],[79.28018,23.69345],[79.27757,23.70251],[79.29215,23.71054],[79.28168,23.72584],[79.285,23.72831],[79.28069,23.73967],[79.28534,23.74807],[79.27066,23.74439],[79.26595,23.74611],[79.26449,23.75585],[79.21514,23.78801],[79.22518,23.81137],[79.23344,23.82272],[79.24343,23.82905],[79.21227,23.84425],[79.19462,23.83853],[79.17674,23.8371],[79.16801,23.85282],[79.14481,23.85109],[79.1063,23.88338],[79.10343,23.90112],[79.08794,23.922],[79.0752,23.92267],[79.07589,23.91009],[79.07158,23.90791],[79.05193,23.91899],[79.05042,23.92538],[79.06921,23.93512],[79.07751,23.94743],[79.08789,23.95181],[79.09163,23.95766],[79.07935,23.96646],[79.07736,23.97733],[79.08272,23.97856],[79.09776,23.97225],[79.1109,23.98147],[79.12762,23.98118],[79.12997,23.98936],[79.13857,23.9928],[79.144,23.99984],[79.18138,24.01637],[79.17312,24.02053],[79.17527,24.03311],[79.16765,24.04234],[79.16496,24.05765],[79.15601,24.06222],[79.14839,24.07575],[79.14055,24.10503],[79.12994,24.10263],[79.11981,24.10533],[79.11675,24.10943],[79.11719,24.11686],[79.11193,24.12232],[79.06688,24.13564],[79.06587,24.14336],[79.07116,24.15142],[79.06313,24.15652],[79.06087,24.16721],[79.04935,24.1748],[79.04903,24.18828],[79.04491,24.19432],[79.04428,24.21252],[79.04032,24.22487],[79.05618,24.23057],[79.06176,24.24934],[79.06078,24.26685],[79.07575,24.26717],[79.07796,24.26523],[79.07503,24.2552],[79.08609,24.24724],[79.09072,24.24775],[79.0992,24.25527],[79.10538,24.26737],[79.13339,24.25724],[79.13664,24.25899],[79.13749,24.26701],[79.14879,24.27725],[79.16725,24.28348],[79.16191,24.29915],[79.16251,24.30964],[79.17818,24.32068],[79.1775,24.32948],[79.16173,24.34292],[79.15354,24.36299],[79.13409,24.37322],[79.14611,24.37864],[79.14326,24.38989],[79.14774,24.40031],[79.14415,24.40919],[79.15952,24.40992],[79.15736,24.4038],[79.15937,24.39018],[79.15214,24.3799],[79.15274,24.37646],[79.17723,24.36173],[79.19011,24.36295],[79.19119,24.33779],[79.19885,24.33931],[79.20939,24.33527],[79.22826,24.34679],[79.22856,24.35808],[79.22497,24.36427],[79.23721,24.36213],[79.2462,24.37437],[79.2407,24.38019],[79.23588,24.40076],[79.23735,24.41505],[79.2318,24.42041],[79.21868,24.42259],[79.19924,24.42033],[79.18887,24.43095],[79.16734,24.43522],[79.14906,24.42911],[79.1282,24.41646],[79.11414,24.41781],[79.09518,24.4141],[79.0915,24.40583],[79.06661,24.40701],[79.06044,24.38724],[79.04765,24.37404],[79.03099,24.37419],[79.01093,24.38646],[79.00689,24.3753],[78.99928,24.37534],[78.99939,24.39528],[78.98889,24.40691],[78.98778,24.42797],[78.98199,24.44724],[78.9444,24.44326],[78.93108,24.45998],[78.90859,24.46677],[78.90264,24.47837],[78.90094,24.48837],[78.91758,24.50251],[78.92607,24.49639],[78.92335,24.4884],[78.93072,24.48454],[78.94856,24.48619],[78.96639,24.49695],[78.96341,24.50204],[78.95019,24.50448],[78.94417,24.50951],[78.94477,24.52363],[78.94001,24.53408],[78.94466,24.55621],[78.93038,24.56439],[78.91315,24.5813],[78.90562,24.60221],[78.89295,24.61384],[78.88172,24.6397],[78.87307,24.64695],[78.86654,24.64549],[78.85919,24.62818],[78.8524,24.62094],[78.84437,24.62899],[78.83906,24.62822],[78.83345,24.62079],[78.83085,24.60889],[78.81113,24.60534],[78.80183,24.60783],[78.79382,24.59823],[78.7769,24.59309],[78.74947,24.60498],[78.74798,24.63705],[78.74007,24.65996],[78.74487,24.66931],[78.75499,24.67357],[78.75999,24.69357],[78.7676,24.69693],[78.77239,24.70414],[78.76862,24.7548],[78.7632,24.76676],[78.76455,24.79499],[78.78011,24.80699],[78.78054,24.81497],[78.77257,24.83048],[78.76448,24.86137],[78.75343,24.86497],[78.74668,24.87085],[78.73441,24.87099],[78.71887,24.88266],[78.7029,24.88403],[78.69634,24.89466],[78.67966,24.89719],[78.6684,24.9024],[78.65948,24.91752],[78.65372,24.94422],[78.6405,24.94036],[78.64243,24.95265],[78.62205,24.9649],[78.63202,24.98372],[78.63616,25.02137],[78.64419,25.03525],[78.64193,25.06149],[78.62949,25.08243],[78.62032,25.09159],[78.59717,25.09787],[78.59817,25.12708],[78.59371,25.15739],[78.56976,25.20196],[78.56259,25.22602],[78.55099,25.21686],[78.52677,25.18803],[78.50007,25.1748],[78.48108,25.15203],[78.44292,25.12877],[78.42294,25.14537],[78.4183,25.1535],[78.4209,25.15764],[78.44199,25.15735],[78.44646,25.16902],[78.44395,25.17256],[78.42823,25.16964],[78.41727,25.17278],[78.40356,25.18894],[78.38536,25.19516],[78.38395,25.206],[78.39776,25.21775],[78.39554,25.22118],[78.37517,25.22575],[78.36889,25.24166],[78.35453,25.24608],[78.36222,25.26543],[78.35526,25.27572],[78.34507,25.28297],[78.34516,25.29794],[78.31645,25.30458],[78.30803,25.31099],[78.31544,25.32073],[78.32783,25.32761],[78.33129,25.33672],[78.3232,25.35527],[78.29423,25.36762],[78.29972,25.38375],[78.31068,25.38507],[78.33249,25.40455],[78.33519,25.43105],[78.34759,25.45484],[78.35267,25.45531],[78.36098,25.4466],[78.37738,25.44838],[78.38569,25.45416],[78.39375,25.47125],[78.40143,25.47297],[78.40672,25.47922],[78.42072,25.47762],[78.41948,25.49054],[78.40941,25.50427],[78.40957,25.51865],[78.41434,25.51531],[78.41675,25.51777],[78.40866,25.5329],[78.41231,25.54225],[78.42934,25.56386],[78.43707,25.56435],[78.44497,25.55499],[78.45519,25.55195],[78.46212,25.56747],[78.48627,25.58223],[78.51144,25.57296],[78.52752,25.57293],[78.54179,25.56514],[78.56548,25.56787],[78.58119,25.56431],[78.59028,25.57522],[78.59799,25.57561],[78.60421,25.58729],[78.60863,25.58908],[78.61815,25.58699],[78.62133,25.58218],[78.62021,25.57356],[78.62341,25.571],[78.64862,25.56564],[78.67702,25.5941],[78.68799,25.59516],[78.71117,25.60659],[78.72432,25.60845],[78.73284,25.60306],[78.74095,25.60388],[78.76598,25.61315],[78.79455,25.61755],[78.80519,25.62456],[78.81125,25.64545],[78.81133,25.67448],[78.79576,25.69614],[78.7894,25.69983],[78.79124,25.71054],[78.76075,25.72079],[78.7524,25.72741],[78.7458,25.73802],[78.74682,25.74909],[78.75128,25.7527],[78.76241,25.75226],[78.76582,25.75891],[78.77579,25.7615],[78.77997,25.77512],[78.79955,25.79936],[78.8205,25.7994],[78.82408,25.80761],[78.82227,25.81523],[78.81623,25.81758],[78.80402,25.81022],[78.80046,25.81288],[78.79886,25.81821],[78.81125,25.83012],[78.81583,25.83114],[78.84098,25.82064],[78.84129,25.8052],[78.84969,25.79586],[78.85595,25.79444],[78.86192,25.7992],[78.86575,25.83435],[78.85294,25.84361],[78.84622,25.83876],[78.84398,25.84531],[78.84663,25.8605],[78.86359,25.87467],[78.88268,25.87027],[78.88134,25.88842],[78.88719,25.89897],[78.87638,25.91566],[78.89427,25.92585],[78.90978,25.94608],[78.92384,25.95275],[78.92113,25.95085],[78.92735,25.94832],[78.9301,25.95158],[78.92742,25.9555],[78.93476,25.95449]]]}}
