{"type":"Feature","properties":{"code":"KEN-LEI","name":"LEILA (Southern Kenya Rangelands)","landscape_system":"East-South Africa Highland-Lowland-Rift Valley System","countries":["Kenya"],"source_file":"Zone1_KEN.shp","source_features_dissolved":4,"simplify_tolerance_deg":0.001,"generated":"2026-07-21"},"bbox":[35.9962,-3.18701,38.51942,-0.75262],"geometry":{"type":"Polygon","coordinates":[[[38.31718,-2.52349],[38.3215,-2.52944],[38.31942,-2.53584],[38.32314,-2.54108],[38.32262,-2.54792],[38.33222,-2.55064],[38.33829,-2.55554],[38.33733,-2.55826],[38.33191,-2.56126],[38.33145,-2.56294],[38.33486,-2.56891],[38.33882,-2.58519],[38.34735,-2.58918],[38.34925,-2.5995],[38.35299,-2.60537],[38.36223,-2.63091],[38.36204,-2.63677],[38.3678,-2.64232],[38.36692,-2.64988],[38.38231,-2.66344],[38.38153,-2.66965],[38.38585,-2.67727],[38.39201,-2.69811],[38.39649,-2.7058],[38.40452,-2.72749],[38.40956,-2.73488],[38.41362,-2.75004],[38.41963,-2.75804],[38.42569,-2.77185],[38.42669,-2.77782],[38.43214,-2.78766],[38.4314,-2.79141],[38.42315,-2.79577],[38.42202,-2.8049],[38.41813,-2.81176],[38.41942,-2.81445],[38.42519,-2.81683],[38.42673,-2.81952],[38.4267,-2.82764],[38.43144,-2.84165],[38.42799,-2.84993],[38.43184,-2.85494],[38.43853,-2.85597],[38.43962,-2.85799],[38.43812,-2.8637],[38.44573,-2.86877],[38.44302,-2.87694],[38.44368,-2.87931],[38.45118,-2.87887],[38.45441,-2.88133],[38.45497,-2.88421],[38.45121,-2.88866],[38.4507,-2.89342],[38.46132,-2.89684],[38.46094,-2.90278],[38.46657,-2.9092],[38.47427,-2.92622],[38.47604,-2.93652],[38.48744,-2.93641],[38.48821,-2.94338],[38.4934,-2.95017],[38.49167,-2.9536],[38.49226,-2.95572],[38.49807,-2.95576],[38.5048,-2.96573],[38.50977,-2.96505],[38.51548,-2.97302],[38.51942,-2.97469],[38.51428,-2.97888],[38.51446,-2.98305],[38.49279,-2.984],[38.48867,-2.97756],[38.47744,-2.9853],[38.46832,-2.98494],[38.4675,-2.98779],[38.46332,-2.98779],[38.45989,-2.99221],[38.45822,-2.99115],[38.44751,-2.97101],[38.43011,-2.95563],[38.40869,-2.927],[38.40527,-2.9256],[38.39819,-2.92709],[38.39288,-2.92603],[38.36188,-2.89801],[38.3385,-2.86529],[38.31872,-2.83271],[38.30201,-2.81585],[38.27911,-2.78241],[38.25787,-2.75763],[38.25048,-2.752],[38.24969,-2.74969],[38.18469,-2.70282],[38.16694,-2.69311],[38.1625,-2.69303],[38.16132,-2.6792],[38.15729,-2.68809],[38.1577,-2.69357],[38.15332,-2.69818],[38.12875,-2.69811],[38.12237,-2.70453],[38.11829,-2.70471],[38.1153,-2.71259],[38.1013,-2.71834],[38.10006,-2.72066],[37.97442,-2.78739],[37.93746,-2.77076],[37.91787,-2.86843],[37.89447,-2.88568],[37.87073,-3.07751],[37.86627,-3.07922],[37.85431,-3.08008],[37.85272,-3.17987],[37.84747,-3.18378],[37.83508,-3.18689],[37.83069,-3.1839],[37.82813,-3.1795],[37.8197,-3.17462],[37.81592,-3.17029],[37.81049,-3.16821],[37.80072,-3.16882],[37.79547,-3.17291],[37.79169,-3.17108],[37.69043,-3.17514],[37.67257,-3.0677],[37.61605,-3.02683],[37.6207,-3.0256],[37.54888,-2.97746],[37.48546,-2.93958],[37.48642,-2.93862],[37.40945,-2.89735],[36.83038,-2.57168],[36.49814,-2.38792],[36.25125,-2.26591],[36.20354,-2.22748],[36.10465,-2.16535],[35.99623,-2.10275],[35.9962,-2.09835],[36.00014,-2.1006],[36.00005,-2.08186],[36.02666,-2.08206],[36.02666,-2.03717],[36.02246,-2.03535],[36.02128,-2.02513],[36.02454,-2.01701],[36.02745,-2.01955],[36.02864,-2.00701],[36.03128,-2.0085],[36.03464,-2.00294],[36.03191,-1.99898],[36.03377,-1.99818],[36.03555,-1.99947],[36.03643,-1.97907],[36.03952,-1.97156],[36.03841,-1.9654],[36.04113,-1.95773],[36.03856,-1.94584],[36.04195,-1.93944],[36.04245,-1.93191],[36.03963,-1.92493],[36.0366,-1.92346],[36.03698,-1.9129],[36.03299,-1.91268],[36.04252,-1.909],[36.04333,-1.90441],[36.04018,-1.90532],[36.03545,-1.90196],[36.03189,-1.90139],[36.03112,-1.89598],[36.02576,-1.8893],[36.03096,-1.88566],[36.03468,-1.88997],[36.03684,-1.88636],[36.03662,-1.8735],[36.04126,-1.87228],[36.04479,-1.87406],[36.05143,-1.86517],[36.04809,-1.85935],[36.04988,-1.85219],[36.04714,-1.84288],[36.04882,-1.83601],[36.04045,-1.82841],[36.04316,-1.82671],[36.04306,-1.82402],[36.03954,-1.82302],[36.03805,-1.81879],[36.02862,-1.82371],[36.02782,-1.81693],[36.02985,-1.81527],[36.02797,-1.8041],[36.02243,-1.80065],[36.01664,-1.80202],[36.01596,-1.79776],[36.01825,-1.79444],[36.02276,-1.7919],[36.02261,-1.78963],[36.02744,-1.7888],[36.0275,-1.77645],[36.03006,-1.7747],[36.02325,-1.7729],[36.03102,-1.76585],[36.03131,-1.75818],[36.03579,-1.76059],[36.03548,-1.75714],[36.03231,-1.75256],[36.03532,-1.7482],[36.03566,-1.73616],[36.04107,-1.7332],[36.04286,-1.72388],[36.04605,-1.72701],[36.04852,-1.72527],[36.04757,-1.71699],[36.04448,-1.71485],[36.04292,-1.70975],[36.04299,-1.70448],[36.04565,-1.70312],[36.04774,-1.69832],[36.05221,-1.69985],[36.05582,-1.70373],[36.05787,-1.69628],[36.06166,-1.69256],[36.06419,-1.69241],[36.06195,-1.68631],[36.05706,-1.6838],[36.05885,-1.68092],[36.0573,-1.67894],[36.05885,-1.67692],[36.05739,-1.67501],[36.05828,-1.66937],[36.05405,-1.66361],[36.05239,-1.66414],[36.05369,-1.65901],[36.05056,-1.65258],[36.04774,-1.65187],[36.0488,-1.64895],[36.04649,-1.64765],[36.04868,-1.64547],[36.05241,-1.64519],[36.05286,-1.63764],[36.05108,-1.63456],[36.05344,-1.634],[36.05652,-1.62924],[36.05997,-1.61474],[36.06351,-1.61451],[36.06524,-1.61262],[36.06298,-1.60712],[36.06506,-1.60799],[36.06673,-1.6062],[36.07001,-1.59599],[36.07421,-1.5895],[36.07913,-1.59235],[36.08027,-1.58066],[36.08401,-1.57851],[36.08632,-1.5713],[36.08451,-1.55874],[36.07427,-1.54082],[36.0613,-1.50613],[36.05884,-1.49222],[36.04916,-1.48595],[36.24743,-1.2772],[36.34774,-1.1685],[36.33559,-1.04078],[36.49353,-1.11513],[36.53703,-1.14882],[36.54452,-1.12073],[36.56717,-1.09437],[36.56989,-1.09651],[36.59118,-1.05789],[36.5902,-1.04348],[36.58775,-1.03648],[36.59513,-1.00591],[36.59662,-0.99125],[36.60011,-0.98717],[36.5962,-0.98566],[36.59641,-0.97863],[36.59141,-0.97929],[36.58728,-0.97214],[36.58775,-0.95869],[36.57881,-0.94057],[36.57492,-0.93798],[36.56868,-0.93921],[36.5615,-0.93285],[36.57262,-0.92569],[36.56761,-0.92198],[36.5542,-0.92017],[36.55434,-0.91462],[36.57193,-0.90448],[36.56323,-0.89992],[36.58004,-0.88645],[36.58956,-0.88295],[36.60142,-0.85735],[36.59132,-0.8428],[36.58875,-0.82177],[36.62257,-0.82529],[36.62196,-0.82154],[36.67422,-0.77283],[36.6597,-0.76671],[36.65049,-0.76879],[36.6446,-0.76697],[36.6537,-0.75864],[36.6576,-0.76189],[36.66217,-0.76198],[36.67182,-0.75262],[36.68716,-0.75805],[36.70103,-0.77542],[36.70482,-0.7782],[36.70713,-0.77775],[36.7103,-0.7839],[36.71194,-0.78431],[36.71136,-0.78672],[36.71526,-0.78923],[36.71474,-0.79082],[36.71926,-0.79531],[36.71846,-0.79701],[36.72054,-0.79943],[36.72695,-0.80542],[36.7324,-0.806],[36.73561,-0.80761],[36.73616,-0.81016],[36.74197,-0.81264],[36.75066,-0.82728],[36.7711,-0.82666],[36.779,-0.83098],[36.78192,-0.83548],[36.78425,-0.83447],[36.78876,-0.83939],[36.79201,-0.83925],[36.80253,-0.84631],[36.80603,-0.85115],[36.81042,-0.85021],[36.80919,-0.85306],[36.81418,-0.85385],[36.81579,-0.85701],[36.81858,-0.85646],[36.82291,-0.85944],[36.82512,-0.85921],[36.82701,-0.86423],[36.8316,-0.86598],[36.8317,-0.86822],[36.83613,-0.86805],[36.84047,-0.87226],[36.84267,-0.87082],[36.84938,-0.8767],[36.85924,-0.87722],[36.86163,-0.87977],[36.86035,-0.88143],[36.86408,-0.8846],[36.86758,-0.88602],[36.86944,-0.88358],[36.87281,-0.88708],[36.87511,-0.88597],[36.87794,-0.88697],[36.88021,-0.88865],[36.88048,-0.89238],[36.88607,-0.88995],[36.88827,-0.89107],[36.88967,-0.89368],[36.88846,-0.89709],[36.8931,-0.90546],[36.90117,-0.90711],[36.90301,-0.90538],[36.90348,-0.90758],[36.90813,-0.90824],[36.90739,-0.9111],[36.91097,-0.91425],[36.91143,-0.91772],[36.9161,-0.92492],[36.9189,-0.92415],[36.92373,-0.93022],[36.92796,-0.92948],[36.93198,-0.93432],[36.94305,-0.94007],[36.94402,-0.94344],[36.95118,-0.94722],[36.95202,-0.9501],[36.95518,-0.94985],[36.95784,-0.95707],[36.9618,-0.96076],[36.96538,-0.96788],[36.98072,-0.97231],[36.99139,-0.98424],[36.99625,-0.98605],[37.01724,-1.00378],[37.02303,-1.00612],[37.03277,-1.02279],[37.04608,-1.02766],[37.05153,-1.02767],[37.05556,-1.02347],[37.05942,-1.02303],[37.06214,-1.02067],[37.06256,-1.01416],[37.0603,-1.00994],[37.06124,-1.00639],[37.063,-1.00636],[37.06303,-1.00865],[37.06628,-1.01248],[37.07035,-1.01306],[37.06783,-1.01572],[37.06861,-1.01972],[37.07233,-1.0197],[37.07747,-1.02405],[37.08149,-1.02441],[37.08844,-1.02812],[37.09252,-1.02671],[37.09816,-1.03063],[37.10114,-1.02773],[37.10751,-1.02976],[37.11148,-1.03362],[37.116,-1.03495],[37.12138,-1.04527],[37.1241,-1.04747],[37.12666,-1.04463],[37.13274,-1.04214],[37.13657,-1.04455],[37.14345,-1.04281],[37.14671,-1.04354],[37.15448,-1.04726],[37.15648,-1.04334],[37.15916,-1.04561],[37.16035,-1.04305],[37.17381,-1.03833],[37.17702,-1.03083],[37.17475,-1.02997],[37.17669,-1.02747],[37.19219,-1.03672],[37.19779,-1.03478],[37.2045,-1.02891],[37.21111,-1.02763],[37.21342,-1.02924],[37.21577,-1.02353],[37.22067,-1.02063],[37.22485,-1.02098],[37.22638,-1.01691],[37.23118,-1.0118],[37.24178,-1.01907],[37.24588,-1.01893],[37.25284,-1.01388],[37.25455,-1.01486],[37.25588,-1.01331],[37.26221,-1.01314],[37.26451,-1.01169],[37.26865,-1.01891],[37.27324,-1.02103],[37.27883,-1.02736],[37.27974,-1.03082],[37.28376,-1.03299],[37.28524,-1.03718],[37.28861,-1.03845],[37.29354,-1.04451],[37.29542,-1.04445],[37.31083,-1.06153],[37.31492,-1.0585],[37.3254,-1.07264],[37.3294,-1.07152],[37.33432,-1.07668],[37.33885,-1.07378],[37.34783,-1.08623],[37.35217,-1.08722],[37.35814,-1.08568],[37.36265,-1.08936],[37.38771,-1.0533],[37.42107,-1.02991],[37.40606,-1.00804],[37.36252,-0.98373],[37.33826,-0.98125],[37.33551,-0.97649],[37.34629,-0.97661],[37.36672,-0.96408],[37.35458,-0.94741],[37.356,-0.94559],[37.35458,-0.94341],[37.34261,-0.95773],[37.33686,-0.95453],[37.33513,-0.95566],[37.33388,-0.95154],[37.32831,-0.94623],[37.33064,-0.94381],[37.32772,-0.94044],[37.31685,-0.94402],[37.31462,-0.93606],[37.32561,-0.93007],[37.32407,-0.92903],[37.32486,-0.92572],[37.32336,-0.92604],[37.31857,-0.92094],[37.31747,-0.9181],[37.31973,-0.91569],[37.30092,-0.90281],[37.2822,-0.89276],[37.25617,-0.86405],[37.25272,-0.85715],[37.24844,-0.8613],[37.24158,-0.8615],[37.2407,-0.85778],[37.22516,-0.85209],[37.23318,-0.83711],[37.25844,-0.83737],[37.2626,-0.79146],[37.26743,-0.78522],[37.27173,-0.78529],[37.27693,-0.78229],[37.28164,-0.78278],[37.28407,-0.78096],[37.28762,-0.78252],[37.29387,-0.79187],[37.29887,-0.79338],[37.30085,-0.79744],[37.30372,-0.79784],[37.30634,-0.80065],[37.30477,-0.80462],[37.306,-0.80627],[37.30515,-0.8118],[37.31034,-0.81377],[37.31317,-0.81703],[37.31233,-0.821],[37.31554,-0.82338],[37.31987,-0.8345],[37.32625,-0.83381],[37.32352,-0.83831],[37.32727,-0.84166],[37.33408,-0.84218],[37.33676,-0.84486],[37.34328,-0.8404],[37.34661,-0.84287],[37.34991,-0.84073],[37.35102,-0.84398],[37.35777,-0.84191],[37.36382,-0.84293],[37.37041,-0.84746],[37.3769,-0.8488],[37.37647,-0.85316],[37.3801,-0.85571],[37.38568,-0.85009],[37.3884,-0.85298],[37.39399,-0.85272],[37.39787,-0.8546],[37.40371,-0.84985],[37.41253,-0.84843],[37.41485,-0.85176],[37.41106,-0.85701],[37.41321,-0.85976],[37.41875,-0.86003],[37.42695,-0.86484],[37.43246,-0.86051],[37.4429,-0.86108],[37.44717,-0.86897],[37.45367,-0.87031],[37.45853,-0.86893],[37.46222,-0.87398],[37.46731,-0.87147],[37.47016,-0.8746],[37.47406,-0.87414],[37.47153,-0.884],[37.47599,-0.88741],[37.47662,-0.89096],[37.48325,-0.89302],[37.48528,-0.89752],[37.4912,-0.89908],[37.49514,-0.90245],[37.50261,-0.89895],[37.51503,-0.90195],[37.5158,-0.912],[37.51872,-0.91613],[37.53313,-0.9116],[37.53547,-0.90633],[37.53222,-0.89561],[37.5372,-0.88872],[37.54279,-0.88699],[37.54535,-0.88267],[37.55087,-0.88439],[37.55893,-0.87508],[37.56142,-0.87542],[37.56466,-0.88078],[37.57492,-0.87681],[37.58724,-0.87819],[37.58824,-0.87287],[37.5914,-0.87091],[37.59007,-0.86801],[37.58685,-0.8663],[37.58906,-0.86274],[37.59612,-0.86061],[37.60078,-0.86267],[37.60489,-0.85507],[37.6147,-0.85519],[37.61786,-0.85149],[37.62627,-0.85183],[37.6279,-0.84967],[37.62922,-0.83855],[37.63535,-0.83858],[37.64005,-0.84553],[37.64605,-0.84196],[37.64856,-0.84443],[37.65327,-0.84469],[37.65691,-0.84752],[37.66463,-0.84618],[37.66577,-0.84193],[37.67093,-0.83723],[37.67097,-0.8317],[37.67406,-0.82575],[37.6815,-0.82259],[37.67981,-0.81752],[37.68242,-0.80869],[37.68153,-0.79584],[37.68777,-0.79403],[37.69054,-0.79667],[37.69276,-0.7947],[37.6929,-0.79113],[37.69884,-0.78904],[37.69852,-0.7844],[37.70659,-0.78151],[37.71854,-0.77945],[37.72423,-0.78036],[37.73217,-0.77446],[37.74391,-0.7792],[37.74737,-0.78783],[37.74977,-0.80283],[37.75484,-0.81268],[37.75391,-0.81544],[37.75611,-0.81816],[37.75727,-0.82384],[37.76489,-0.8243],[37.7711,-0.82073],[37.77954,-0.82491],[37.78215,-0.82481],[37.78401,-0.82269],[37.78797,-0.82273],[37.791,-0.81896],[37.79635,-0.81681],[37.80557,-0.80165],[37.80792,-0.80718],[37.80843,-0.81516],[37.81903,-0.80439],[37.82858,-0.80563],[37.83356,-0.81375],[37.83692,-0.81223],[37.83815,-0.80945],[37.84484,-0.81112],[37.84597,-0.81398],[37.84303,-0.81846],[37.84748,-0.82127],[37.8475,-0.82537],[37.84555,-0.82808],[37.84908,-0.83255],[37.84082,-0.83501],[37.84152,-0.84039],[37.84467,-0.84214],[37.84103,-0.84501],[37.83731,-0.84501],[37.83654,-0.84662],[37.83819,-0.84847],[37.83648,-0.85151],[37.83099,-0.8536],[37.83303,-0.85496],[37.83296,-0.85753],[37.82986,-0.85723],[37.82837,-0.86073],[37.83182,-0.86407],[37.82616,-0.86655],[37.82737,-0.87223],[37.82377,-0.87277],[37.82571,-0.87606],[37.82156,-0.87982],[37.82195,-0.88293],[37.81982,-0.88256],[37.8216,-0.88493],[37.82212,-0.89094],[37.82428,-0.89082],[37.82247,-0.89526],[37.81845,-0.89617],[37.81826,-0.89983],[37.82838,-0.90141],[37.83216,-0.90572],[37.8369,-0.90524],[37.83671,-0.90729],[37.83308,-0.90781],[37.83311,-0.91264],[37.83864,-0.90984],[37.83753,-0.92023],[37.84273,-0.91984],[37.84047,-0.92368],[37.84384,-0.92357],[37.84431,-0.92487],[37.84159,-0.92765],[37.84696,-0.92852],[37.85116,-0.93345],[37.84895,-0.93475],[37.84884,-0.93659],[37.85132,-0.93515],[37.85233,-0.93801],[37.85016,-0.94177],[37.84682,-0.94025],[37.84603,-0.9423],[37.84875,-0.94336],[37.84629,-0.94732],[37.85146,-0.95031],[37.84914,-0.95283],[37.85394,-0.9586],[37.85415,-0.96235],[37.85271,-0.96271],[37.85106,-0.95896],[37.85068,-0.96103],[37.84449,-0.96402],[37.85321,-0.96676],[37.85717,-0.96549],[37.85957,-0.96793],[37.86404,-0.96888],[37.86224,-0.97382],[37.86775,-0.97355],[37.86803,-0.97778],[37.86228,-0.97842],[37.8622,-0.98005],[37.86412,-0.98022],[37.86548,-0.9827],[37.86089,-0.98268],[37.85885,-0.98566],[37.85396,-0.98657],[37.84957,-0.99112],[37.85031,-0.99427],[37.84622,-0.99473],[37.84703,-0.99948],[37.85124,-1.00315],[37.84908,-1.01357],[37.84878,-1.02638],[37.84629,-1.0293],[37.8483,-1.04169],[37.84369,-1.05112],[37.84047,-1.05181],[37.83612,-1.05828],[37.83195,-1.06773],[37.8278,-1.07109],[37.82606,-1.07001],[37.82057,-1.07079],[37.81879,-1.0802],[37.808,-1.09223],[37.80785,-1.0994],[37.80097,-1.11787],[37.79827,-1.11793],[37.79776,-1.12069],[37.79388,-1.12495],[37.73356,-1.08005],[37.5957,-1.08682],[37.59774,-1.13116],[37.60059,-1.13114],[37.60309,-1.13411],[37.60559,-1.14232],[37.6111,-1.14034],[37.61249,-1.14218],[37.61774,-1.14262],[37.62429,-1.14719],[37.62611,-1.152],[37.6347,-1.16152],[37.63843,-1.1685],[37.64381,-1.1835],[37.64748,-1.18859],[37.64972,-1.19694],[37.65483,-1.20019],[37.65611,-1.20571],[37.66154,-1.21037],[37.66366,-1.21583],[37.66677,-1.21643],[37.66523,-1.21885],[37.67145,-1.22451],[37.67159,-1.22666],[37.67289,-1.22616],[37.67544,-1.22907],[37.67562,-1.23138],[37.67812,-1.23322],[37.68439,-1.23408],[37.68856,-1.23953],[37.68966,-1.24174],[37.68803,-1.24541],[37.69088,-1.24691],[37.68905,-1.24839],[37.69365,-1.24932],[37.69378,-1.25741],[37.69789,-1.26552],[37.69662,-1.26801],[37.69862,-1.27086],[37.70264,-1.27174],[37.70271,-1.27519],[37.70668,-1.27921],[37.70855,-1.28906],[37.71391,-1.29042],[37.71363,-1.2985],[37.71741,-1.29917],[37.71722,-1.30315],[37.72174,-1.31215],[37.7251,-1.31349],[37.72387,-1.31689],[37.72566,-1.31972],[37.7241,-1.32226],[37.72614,-1.32356],[37.73258,-1.33596],[37.73271,-1.34132],[37.7381,-1.3418],[37.73983,-1.34764],[37.74532,-1.35118],[37.74485,-1.35646],[37.74889,-1.35772],[37.75431,-1.35473],[37.75554,-1.35726],[37.75954,-1.35485],[37.76572,-1.35452],[37.76569,-1.35741],[37.76764,-1.3566],[37.77341,-1.36051],[37.77601,-1.35995],[37.78133,-1.37175],[37.78416,-1.37068],[37.78533,-1.37541],[37.7906,-1.37598],[37.78945,-1.37721],[37.79125,-1.38161],[37.79311,-1.38181],[37.79919,-1.39197],[37.79869,-1.39607],[37.80474,-1.3935],[37.80489,-1.40278],[37.80854,-1.4164],[37.80767,-1.41814],[37.81024,-1.41987],[37.81008,-1.42384],[37.81284,-1.42664],[37.81168,-1.42929],[37.81367,-1.43389],[37.81281,-1.43878],[37.81815,-1.44167],[37.8162,-1.44398],[37.81986,-1.44611],[37.80863,-1.44802],[37.79771,-1.45557],[37.78878,-1.46531],[37.78119,-1.47064],[37.77959,-1.47826],[37.77386,-1.48644],[37.76134,-1.48812],[37.73264,-1.49608],[37.72689,-1.49333],[37.71837,-1.49271],[37.71265,-1.4884],[37.7072,-1.48878],[37.70162,-1.49087],[37.69482,-1.49779],[37.70147,-1.50798],[37.70544,-1.50658],[37.71407,-1.50986],[37.72048,-1.52266],[37.72405,-1.52401],[37.72454,-1.52845],[37.73456,-1.54441],[37.74226,-1.55313],[37.75014,-1.55407],[37.75182,-1.56231],[37.75763,-1.56986],[37.76022,-1.57622],[37.76878,-1.58318],[37.77265,-1.58349],[37.77268,-1.58715],[37.77629,-1.59084],[37.77584,-1.59404],[37.78296,-1.60472],[37.7844,-1.61148],[37.78738,-1.61281],[37.79177,-1.61997],[37.79264,-1.62612],[37.79629,-1.62719],[37.79741,-1.63143],[37.80089,-1.63452],[37.80386,-1.642],[37.80131,-1.64775],[37.80596,-1.64855],[37.80472,-1.65295],[37.80848,-1.65413],[37.81039,-1.65848],[37.81371,-1.66128],[37.82106,-1.66485],[37.82261,-1.67029],[37.82027,-1.67469],[37.81984,-1.67999],[37.82505,-1.68237],[37.831,-1.68083],[37.83054,-1.68442],[37.83237,-1.68859],[37.83761,-1.68972],[37.8364,-1.69389],[37.83806,-1.69996],[37.83479,-1.70914],[37.84245,-1.70998],[37.84544,-1.71259],[37.84499,-1.72322],[37.85074,-1.73051],[37.85087,-1.73549],[37.85451,-1.74588],[37.854,-1.75067],[37.856,-1.75404],[37.85397,-1.75719],[37.85458,-1.76376],[37.85194,-1.76454],[37.85302,-1.76628],[37.85064,-1.76927],[37.8461,-1.76647],[37.84073,-1.767],[37.83909,-1.77181],[37.84068,-1.77556],[37.83947,-1.78001],[37.84888,-1.79798],[37.86764,-1.81579],[37.88038,-1.83114],[37.8877,-1.83336],[37.89262,-1.83841],[37.89302,-1.84143],[37.88717,-1.84372],[37.88491,-1.84967],[37.88732,-1.85843],[37.88897,-1.85955],[37.89338,-1.85859],[37.9014,-1.86296],[37.89905,-1.86847],[37.90712,-1.89278],[37.90584,-1.90228],[37.90799,-1.90361],[37.91505,-1.90179],[37.91869,-1.90284],[37.91816,-1.90925],[37.91328,-1.91274],[37.91306,-1.91668],[37.91043,-1.92085],[37.91239,-1.92661],[37.90935,-1.93278],[37.91481,-1.94021],[37.9168,-1.94829],[37.91386,-1.95463],[37.91612,-1.95752],[37.92538,-1.98611],[37.93018,-1.99064],[37.92862,-1.99577],[37.93746,-2.00161],[37.93618,-2.008],[37.94117,-2.01103],[37.93898,-2.01947],[37.94327,-2.02122],[37.94395,-2.02312],[37.94244,-2.02944],[37.93901,-2.03294],[37.94417,-2.03741],[37.94772,-2.0359],[37.95111,-2.03689],[37.95538,-2.04864],[37.95446,-2.0572],[37.95935,-2.06437],[37.96038,-2.07873],[37.95792,-2.09428],[37.95977,-2.10151],[37.95655,-2.10825],[37.95731,-2.11275],[37.95373,-2.13258],[37.95865,-2.13785],[37.95879,-2.14015],[37.96306,-2.14258],[37.96522,-2.15558],[37.96477,-2.16492],[37.96656,-2.16695],[37.96981,-2.16689],[37.97424,-2.16326],[37.98281,-2.16109],[37.9907,-2.15677],[38.00934,-2.15184],[38.02052,-2.14673],[38.02232,-2.14797],[38.02447,-2.1567],[38.02766,-2.16194],[38.037,-2.16661],[38.0443,-2.16635],[38.04868,-2.16875],[38.05066,-2.17343],[38.04821,-2.18014],[38.05465,-2.18645],[38.05575,-2.19568],[38.0602,-2.20693],[38.06346,-2.21091],[38.0704,-2.21391],[38.06928,-2.21594],[38.06403,-2.21844],[38.06327,-2.22167],[38.06898,-2.22478],[38.07251,-2.25106],[38.07642,-2.25501],[38.07589,-2.26182],[38.08073,-2.26053],[38.08331,-2.26157],[38.08743,-2.27196],[38.09089,-2.27344],[38.09754,-2.273],[38.10136,-2.28154],[38.11161,-2.28625],[38.10925,-2.3004],[38.11533,-2.30264],[38.11671,-2.31333],[38.12635,-2.32158],[38.1474,-2.32107],[38.15232,-2.32776],[38.17373,-2.33813],[38.18357,-2.33781],[38.18821,-2.3397],[38.19631,-2.34888],[38.19776,-2.35319],[38.2116,-2.35574],[38.22261,-2.39932],[38.23207,-2.40195],[38.236,-2.40926],[38.24461,-2.41226],[38.24714,-2.41672],[38.25256,-2.42071],[38.25977,-2.41993],[38.26408,-2.42213],[38.27027,-2.42206],[38.27443,-2.42452],[38.28029,-2.44803],[38.28269,-2.45224],[38.28843,-2.48309],[38.29689,-2.48738],[38.29865,-2.49348],[38.30206,-2.49814],[38.3121,-2.50206],[38.31197,-2.511],[38.3171,-2.51584],[38.31718,-2.52349]],[[36.68858,-1.2764],[36.68944,-1.27892],[36.68628,-1.28242],[36.68068,-1.29651],[36.67849,-1.29762],[36.67474,-1.30482],[36.67022,-1.30358],[36.66348,-1.31729],[36.67279,-1.32191],[36.66907,-1.3236],[36.67486,-1.32784],[36.67889,-1.32598],[36.68255,-1.33495],[36.68488,-1.33483],[36.68938,-1.3471],[36.6928,-1.35065],[36.70219,-1.34948],[36.72799,-1.37246],[36.74153,-1.37944],[36.74417,-1.37855],[36.74895,-1.38236],[36.76022,-1.38223],[36.76813,-1.38651],[36.78009,-1.38394],[36.7829,-1.38683],[36.78683,-1.38481],[36.78964,-1.38584],[36.79373,-1.38295],[36.79541,-1.38342],[36.79601,-1.38592],[36.80021,-1.38504],[36.8026,-1.38641],[36.80512,-1.38437],[36.80593,-1.38701],[36.80878,-1.38571],[36.80917,-1.38313],[36.81159,-1.38434],[36.81484,-1.37974],[36.8191,-1.37892],[36.82242,-1.38327],[36.82818,-1.38545],[36.8363,-1.38644],[36.837,-1.38456],[36.83953,-1.38598],[36.84321,-1.38427],[36.84465,-1.38512],[36.84485,-1.38921],[36.84977,-1.39431],[36.85726,-1.39663],[36.86382,-1.40175],[36.86951,-1.40107],[36.87081,-1.40519],[36.87545,-1.4035],[36.88544,-1.40481],[36.89507,-1.40942],[36.89437,-1.41102],[36.89018,-1.41051],[36.88986,-1.41225],[36.93136,-1.43046],[36.94283,-1.43056],[36.95007,-1.43555],[36.95578,-1.43498],[36.95778,-1.44036],[36.96091,-1.44216],[36.96209,-1.43641],[36.9595,-1.4351],[36.95483,-1.42616],[36.94769,-1.4213],[36.9453,-1.40652],[36.94205,-1.40117],[36.93642,-1.39677],[36.93156,-1.3963],[36.9281,-1.392],[36.92272,-1.39202],[36.92104,-1.38452],[36.91454,-1.37232],[36.90561,-1.36182],[36.93392,-1.33638],[36.96041,-1.34602],[36.96577,-1.35179],[36.98357,-1.31245],[36.97384,-1.28722],[36.99481,-1.27906],[37.00194,-1.29835],[37.02596,-1.28951],[37.07562,-1.3013],[37.07571,-1.29839],[37.07233,-1.29708],[37.0724,-1.29253],[37.07595,-1.28887],[37.07707,-1.28182],[37.08234,-1.28264],[37.08496,-1.2763],[37.09719,-1.27074],[37.10045,-1.27324],[37.1037,-1.26315],[37.10157,-1.25958],[37.08627,-1.24626],[37.09484,-1.24233],[37.0882,-1.23114],[37.08029,-1.23488],[37.06271,-1.2027],[37.05765,-1.20658],[37.05349,-1.20412],[37.03791,-1.21003],[37.03349,-1.21339],[37.03074,-1.21815],[37.02281,-1.22171],[37.02217,-1.22489],[37.01725,-1.22455],[37.01649,-1.22653],[37.01452,-1.22652],[37.01288,-1.22843],[37.0127,-1.23276],[37.01067,-1.23405],[37.00401,-1.23403],[36.99512,-1.2303],[36.99145,-1.22275],[36.98641,-1.22104],[36.97741,-1.22228],[36.96935,-1.22685],[36.96117,-1.22523],[36.95679,-1.22715],[36.95314,-1.22424],[36.94899,-1.22465],[36.93762,-1.21917],[36.9314,-1.22009],[36.92253,-1.21549],[36.91552,-1.21029],[36.91242,-1.20506],[36.94178,-1.17312],[36.93311,-1.16721],[36.92682,-1.16644],[36.92404,-1.16324],[36.9207,-1.16232],[36.91963,-1.15997],[36.90248,-1.15791],[36.89777,-1.15844],[36.89342,-1.16703],[36.88772,-1.17116],[36.89433,-1.18057],[36.89636,-1.18419],[36.89502,-1.18549],[36.89895,-1.19098],[36.89023,-1.1907],[36.88575,-1.19375],[36.87248,-1.19407],[36.86287,-1.18823],[36.85972,-1.20055],[36.85556,-1.19923],[36.85065,-1.20094],[36.84925,-1.21132],[36.83892,-1.20734],[36.83411,-1.20777],[36.83015,-1.20362],[36.83326,-1.21198],[36.79102,-1.18885],[36.78408,-1.20181],[36.78444,-1.20375],[36.78744,-1.20476],[36.7835,-1.20826],[36.78452,-1.20913],[36.7783,-1.22034],[36.7716,-1.21698],[36.77006,-1.21995],[36.75673,-1.21247],[36.7467,-1.23068],[36.72918,-1.22776],[36.72773,-1.23915],[36.72543,-1.24015],[36.72554,-1.244],[36.71836,-1.25664],[36.71559,-1.25431],[36.7026,-1.25178],[36.7005,-1.25594],[36.69637,-1.2536],[36.6937,-1.25394],[36.69494,-1.25576],[36.69312,-1.25783],[36.69678,-1.26137],[36.69306,-1.26224],[36.69466,-1.26432],[36.69013,-1.26521],[36.69148,-1.27309],[36.68927,-1.27298],[36.68858,-1.2764]]]}}
