{"type":"Feature","properties":{"code":"KEN-LVB","name":"Lake Victoria Basin (Kenya)","landscape_system":"East-South Africa Highland-Lowland-Rift Valley System","countries":["Kenya"],"source_file":"LVB-2_KEN.shp","source_features_dissolved":4,"simplify_tolerance_deg":0.0005,"generated":"2026-07-21"},"bbox":[33.9499,-0.42439,35.34302,0.65574],"geometry":{"type":"Polygon","coordinates":[[[35.00989,-0.38613],[35.00933,-0.38782],[35.00701,-0.38943],[35.00723,-0.39325],[35.0046,-0.39451],[35.00297,-0.3993],[35.00104,-0.40019],[34.99789,-0.39934],[34.99301,-0.40231],[34.99009,-0.40232],[34.98805,-0.40335],[34.98678,-0.40826],[34.98374,-0.40713],[34.9822,-0.40869],[34.98133,-0.40853],[34.97515,-0.40385],[34.96815,-0.40772],[34.96678,-0.40597],[34.9638,-0.40604],[34.96458,-0.40833],[34.95949,-0.41023],[34.95741,-0.40882],[34.95622,-0.40967],[34.95382,-0.40928],[34.95252,-0.4103],[34.95069,-0.41031],[34.94862,-0.40874],[34.94601,-0.40902],[34.94535,-0.4076],[34.93861,-0.40732],[34.93589,-0.40501],[34.93218,-0.40636],[34.9296,-0.4059],[34.92975,-0.40297],[34.92881,-0.40001],[34.92986,-0.39679],[34.9267,-0.39777],[34.9258,-0.39606],[34.92307,-0.39676],[34.92162,-0.39803],[34.9141,-0.39739],[34.91453,-0.39392],[34.91323,-0.39051],[34.91536,-0.38923],[34.91452,-0.38614],[34.91621,-0.38433],[34.91513,-0.37966],[34.91175,-0.38033],[34.90984,-0.38262],[34.90673,-0.38391],[34.90065,-0.38545],[34.89751,-0.38864],[34.89548,-0.38746],[34.89437,-0.38779],[34.89081,-0.39151],[34.88968,-0.39485],[34.88849,-0.3955],[34.88705,-0.39128],[34.88483,-0.38995],[34.88346,-0.39057],[34.87933,-0.38962],[34.87785,-0.39201],[34.8709,-0.38867],[34.86688,-0.38823],[34.86452,-0.39121],[34.8623,-0.39136],[34.85836,-0.3888],[34.85952,-0.3876],[34.85928,-0.38639],[34.84394,-0.38594],[34.83894,-0.38696],[34.83825,-0.38555],[34.83465,-0.38397],[34.83329,-0.38217],[34.82478,-0.38236],[34.82202,-0.38041],[34.82457,-0.3798],[34.82524,-0.37794],[34.82494,-0.37555],[34.82132,-0.37314],[34.8229,-0.37004],[34.82232,-0.36801],[34.8229,-0.36566],[34.82025,-0.36483],[34.8177,-0.35862],[34.81057,-0.35025],[34.81138,-0.34755],[34.81103,-0.34571],[34.8096,-0.3451],[34.80758,-0.34891],[34.80447,-0.34804],[34.79931,-0.34877],[34.798,-0.34789],[34.79626,-0.34428],[34.7939,-0.34408],[34.79049,-0.34221],[34.79076,-0.34026],[34.79345,-0.33812],[34.79234,-0.33552],[34.78854,-0.33745],[34.78708,-0.33602],[34.78632,-0.33718],[34.78571,-0.33658],[34.78521,-0.33436],[34.78583,-0.33224],[34.78358,-0.33035],[34.78258,-0.32809],[34.78522,-0.32588],[34.78812,-0.32693],[34.79044,-0.32544],[34.78793,-0.32377],[34.78792,-0.32071],[34.78711,-0.31923],[34.78433,-0.31769],[34.78562,-0.31663],[34.78367,-0.31655],[34.78325,-0.315],[34.78182,-0.31539],[34.7827,-0.31677],[34.78163,-0.31748],[34.78027,-0.31525],[34.77955,-0.31167],[34.77785,-0.31125],[34.77559,-0.31198],[34.77308,-0.3087],[34.76878,-0.30657],[34.76907,-0.30553],[34.76833,-0.30445],[34.76741,-0.30636],[34.76535,-0.3076],[34.76295,-0.30599],[34.76176,-0.30776],[34.7606,-0.30794],[34.75907,-0.30493],[34.75916,-0.30242],[34.7574,-0.30094],[34.75826,-0.29209],[34.75575,-0.29053],[34.75601,-0.28839],[34.75518,-0.28562],[34.70501,-0.25275],[34.53036,-0.26665],[34.42183,-0.33083],[34.3195,-0.41675],[34.31387,-0.42036],[34.30293,-0.42398],[34.29413,-0.42431],[34.28522,-0.42254],[34.27708,-0.41809],[34.27111,-0.41213],[34.26741,-0.40507],[34.24003,-0.33414],[33.95589,-0.33414],[33.9711,-0.24735],[33.98395,-0.16556],[33.98599,-0.1501],[33.98701,-0.12846],[33.9499,-0.02254],[34.00725,-0.02219],[34.01252,-0.02236],[34.01576,-0.02387],[34.02997,-0.01349],[34.0421,0.00432],[34.0663,0.09232],[34.06603,0.09501],[34.06854,0.09891],[34.06894,0.10088],[34.07325,0.10679],[34.07352,0.1163],[34.07186,0.12441],[34.07508,0.12432],[34.08091,0.12715],[34.08423,0.12674],[34.08504,0.12997],[34.08593,0.13078],[34.08804,0.13078],[34.08997,0.12934],[34.09334,0.13495],[34.09937,0.1404],[34.10508,0.14005],[34.10273,0.13542],[34.10263,0.12978],[34.10835,0.13495],[34.1118,0.14122],[34.11503,0.15397],[34.11278,0.1535],[34.11082,0.16691],[34.11195,0.17976],[34.10511,0.19095],[34.10784,0.20002],[34.11063,0.20465],[34.10919,0.20992],[34.11338,0.21422],[34.11623,0.22303],[34.11648,0.24643],[34.11732,0.24775],[34.13287,0.2558],[34.13839,0.2614],[34.1475,0.27455],[34.14917,0.27915],[34.15862,0.29492],[34.15971,0.3014],[34.15936,0.30508],[34.1737,0.30028],[34.1765,0.2968],[34.17772,0.29353],[34.18242,0.29068],[34.18279,0.28846],[34.1846,0.28548],[34.18554,0.28063],[34.19143,0.27637],[34.2008,0.27319],[34.20272,0.27021],[34.20317,0.26497],[34.20499,0.2678],[34.20413,0.27445],[34.20591,0.27967],[34.20497,0.29023],[34.23613,0.29631],[34.24036,0.30174],[34.24704,0.31577],[34.25072,0.31754],[34.25623,0.31678],[34.25982,0.31416],[34.26573,0.31192],[34.27322,0.31346],[34.2765,0.31493],[34.28088,0.31438],[34.28502,0.31239],[34.28885,0.31179],[34.29472,0.31353],[34.29481,0.31234],[34.30886,0.31267],[34.31391,0.31186],[34.33438,0.31395],[34.34678,0.31035],[34.3585,0.30909],[34.36757,0.30687],[34.3722,0.31165],[34.3794,0.31643],[34.38291,0.32166],[34.38408,0.3272],[34.38423,0.33389],[34.38557,0.33911],[34.38482,0.34683],[34.38504,0.35473],[34.38577,0.35654],[34.3876,0.35831],[34.39327,0.36048],[34.40003,0.3659],[34.40356,0.3659],[34.4153,0.37029],[34.42012,0.3729],[34.42253,0.37563],[34.41807,0.38032],[34.41288,0.38327],[34.41177,0.38556],[34.40784,0.38953],[34.397,0.3954],[34.3956,0.39758],[34.3942,0.39781],[34.39219,0.39962],[34.38472,0.40129],[34.38065,0.40709],[34.37791,0.40921],[34.37622,0.40834],[34.36854,0.40905],[34.36613,0.40769],[34.35979,0.40982],[34.35859,0.41263],[34.35639,0.4144],[34.35047,0.42262],[34.34584,0.42722],[34.34363,0.42822],[34.34314,0.42903],[34.34474,0.43109],[34.35492,0.43951],[34.36444,0.44508],[34.36526,0.45143],[34.36819,0.46139],[34.3761,0.46493],[34.37988,0.46283],[34.38216,0.46283],[34.38313,0.46398],[34.3866,0.46516],[34.38676,0.46644],[34.38949,0.46555],[34.3912,0.47253],[34.39215,0.47239],[34.39369,0.47366],[34.39526,0.47328],[34.39567,0.47508],[34.39802,0.47559],[34.39809,0.47709],[34.39973,0.4764],[34.40086,0.47742],[34.40155,0.47713],[34.40174,0.47812],[34.40249,0.47803],[34.40472,0.48042],[34.40918,0.47985],[34.41166,0.48075],[34.41523,0.47953],[34.41572,0.48034],[34.41731,0.48029],[34.42104,0.47872],[34.42147,0.47727],[34.42412,0.47457],[34.42699,0.47367],[34.42801,0.47164],[34.42979,0.47017],[34.43149,0.47008],[34.43199,0.46904],[34.4334,0.46938],[34.4348,0.46785],[34.43604,0.46769],[34.44088,0.46896],[34.44176,0.46852],[34.44215,0.4703],[34.44437,0.47065],[34.44654,0.47295],[34.44748,0.47228],[34.45085,0.47332],[34.45463,0.47291],[34.45624,0.47357],[34.45834,0.47262],[34.46046,0.47323],[34.4604,0.47418],[34.4619,0.47387],[34.46481,0.47826],[34.46616,0.47813],[34.46778,0.47937],[34.46772,0.48077],[34.46895,0.4816],[34.46915,0.4831],[34.47125,0.48375],[34.47216,0.48507],[34.47515,0.48557],[34.47581,0.48637],[34.47654,0.48595],[34.4795,0.48801],[34.4811,0.48807],[34.48217,0.48928],[34.4831,0.48849],[34.48425,0.48897],[34.48701,0.48594],[34.49051,0.47766],[34.49389,0.47385],[34.49437,0.47104],[34.49537,0.47091],[34.4945,0.46689],[34.49537,0.46341],[34.49671,0.46254],[34.50032,0.46219],[34.50779,0.4632],[34.51561,0.45489],[34.52633,0.45222],[34.53133,0.44815],[34.53296,0.45182],[34.53425,0.45291],[34.53409,0.45384],[34.53542,0.45444],[34.53639,0.45634],[34.5373,0.45938],[34.53631,0.46082],[34.53714,0.46158],[34.53679,0.46406],[34.53794,0.46596],[34.5376,0.46709],[34.53883,0.46695],[34.53964,0.468],[34.54053,0.46753],[34.54367,0.47044],[34.54438,0.47238],[34.54535,0.47203],[34.5475,0.47294],[34.54785,0.47385],[34.54898,0.47373],[34.55075,0.47512],[34.56306,0.46289],[34.57236,0.46289],[34.57544,0.46138],[34.57742,0.46207],[34.5779,0.4606],[34.57994,0.45973],[34.57978,0.45821],[34.58121,0.45741],[34.58006,0.45456],[34.58073,0.45325],[34.57968,0.45245],[34.58093,0.44974],[34.57968,0.44549],[34.58152,0.44462],[34.58061,0.44157],[34.58073,0.43683],[34.58226,0.43465],[34.58731,0.4311],[34.58847,0.42854],[34.58775,0.42755],[34.58944,0.42523],[34.59016,0.4273],[34.59009,0.43145],[34.59273,0.43478],[34.5929,0.43801],[34.58999,0.44145],[34.59074,0.44241],[34.59011,0.44433],[34.59151,0.44677],[34.59198,0.45097],[34.59422,0.45052],[34.59539,0.44915],[34.59845,0.45017],[34.59904,0.45209],[34.60443,0.45614],[34.60615,0.45522],[34.61295,0.44813],[34.6164,0.4484],[34.61703,0.44938],[34.61557,0.45076],[34.61507,0.45283],[34.61807,0.46211],[34.62138,0.4641],[34.6273,0.4655],[34.6264,0.46765],[34.62714,0.46871],[34.62854,0.46834],[34.63155,0.46532],[34.63027,0.46131],[34.63196,0.45784],[34.63836,0.45718],[34.64278,0.45545],[34.64517,0.4558],[34.65042,0.46073],[34.65405,0.4584],[34.65713,0.45959],[34.65954,0.46521],[34.66058,0.46595],[34.66341,0.46458],[34.66648,0.46543],[34.66867,0.46773],[34.66928,0.4702],[34.67156,0.4719],[34.67201,0.47415],[34.67378,0.47646],[34.6775,0.47712],[34.67864,0.4781],[34.67864,0.48086],[34.6771,0.48669],[34.67583,0.48794],[34.67596,0.48927],[34.67906,0.49019],[34.6836,0.48884],[34.68307,0.49027],[34.68386,0.4912],[34.68907,0.49123],[34.68935,0.49551],[34.69199,0.49928],[34.69384,0.49979],[34.6937,0.50326],[34.69577,0.50722],[34.70127,0.51248],[34.70504,0.51156],[34.7065,0.50936],[34.70887,0.5091],[34.71501,0.51506],[34.71773,0.51572],[34.72087,0.51261],[34.72735,0.517],[34.72853,0.52128],[34.73404,0.52409],[34.73716,0.5362],[34.73865,0.5384],[34.74132,0.53942],[34.74182,0.54205],[34.7453,0.54268],[34.74683,0.54096],[34.74833,0.54084],[34.75055,0.54549],[34.75423,0.54634],[34.75453,0.54926],[34.75706,0.5517],[34.75984,0.55262],[34.75953,0.55681],[34.76559,0.56236],[34.76308,0.56575],[34.76404,0.56892],[34.77021,0.56967],[34.7728,0.57204],[34.77334,0.57414],[34.77567,0.57557],[34.77821,0.57857],[34.78162,0.57974],[34.78311,0.58192],[34.78806,0.58127],[34.79126,0.58512],[34.80109,0.59143],[34.80478,0.59268],[34.80895,0.59155],[34.81006,0.59209],[34.81013,0.59427],[34.80365,0.59904],[34.79942,0.60433],[34.80231,0.60716],[34.80294,0.61114],[34.80536,0.61192],[34.80859,0.61152],[34.81469,0.62087],[34.81971,0.62375],[34.82303,0.62317],[34.83228,0.63095],[34.83308,0.63351],[34.83302,0.63873],[34.83596,0.64214],[34.8326,0.65143],[34.8347,0.65162],[34.83789,0.65476],[34.84146,0.65569],[34.89762,0.60548],[34.85208,0.55181],[34.87071,0.53812],[34.8759,0.53263],[34.88825,0.52599],[34.90705,0.50967],[34.90838,0.49587],[34.92411,0.48128],[34.94567,0.44278],[34.95659,0.42001],[34.95528,0.37587],[34.94867,0.35833],[34.93705,0.36483],[34.93734,0.36197],[34.94212,0.32811],[34.95238,0.30432],[34.97734,0.25299],[34.97848,0.24593],[34.96066,0.24505],[34.95647,0.24578],[34.94321,0.21307],[34.92899,0.21361],[34.92028,0.18611],[34.916,0.17745],[34.91856,0.1744],[34.92059,0.17392],[34.91412,0.16027],[34.90112,0.15784],[34.89839,0.15546],[34.89332,0.15377],[34.88292,0.14806],[34.88199,0.14252],[34.87255,0.13761],[34.86453,0.12826],[34.85965,0.12557],[34.85679,0.11325],[34.8592,0.10906],[34.85908,0.10444],[34.85722,0.09947],[34.85789,0.09433],[34.85986,0.08841],[34.85806,0.08536],[34.85513,0.08415],[34.85315,0.07796],[34.84861,0.07451],[34.84827,0.07137],[34.8468,0.06885],[34.84946,0.06514],[34.83957,0.05112],[34.83804,0.03944],[34.836,0.03646],[34.83426,0.03649],[34.83271,0.03544],[34.83014,0.0357],[34.82874,0.03487],[34.82548,0.03563],[34.82362,0.0386],[34.8206,0.03915],[34.8168,0.03815],[34.80928,0.03344],[34.80854,0.03168],[34.81018,0.02861],[34.80887,0.02759],[34.80428,0.02635],[34.79852,0.02999],[34.79843,0.02799],[34.79333,0.02647],[34.79115,0.02409],[34.78967,0.02388],[34.78988,0.02197],[34.78615,0.01762],[34.78394,0.01878],[34.78348,0.01709],[34.7826,0.0175],[34.78111,0.01671],[34.78008,0.01386],[34.77851,0.01243],[34.77856,0.0111],[34.77748,0.01131],[34.77632,0.01012],[34.77473,0.01038],[34.77496,0.00977],[34.77213,0.00862],[34.76997,0.00582],[34.76935,0.00646],[34.76666,0.00624],[34.76283,0.00336],[34.76145,0.00467],[34.76097,0.00765],[34.75969,0.00841],[34.75981,0.0145],[34.75429,0.0151],[34.75129,0.01186],[34.74748,0.01124],[34.74736,0.00917],[34.74189,0.00981],[34.7411,0.00927],[34.73946,0.00375],[34.74437,-0.00525],[34.74488,-0.01226],[34.74821,-0.01145],[34.74971,-0.01464],[34.74955,-0.01602],[34.74657,-0.01694],[34.74952,-0.02277],[34.7503,-0.02704],[34.75217,-0.0287],[34.758,-0.01941],[34.76152,-0.01688],[34.76294,-0.01228],[34.76432,-0.01047],[34.77076,-0.01166],[34.77304,-0.0102],[34.77546,-0.01004],[34.77588,-0.01108],[34.78075,-0.0125],[34.78291,-0.00646],[34.78476,-0.00452],[34.78623,-0.00107],[34.78933,0.00058],[34.80397,0.01511],[34.80634,0.01604],[34.80808,0.01546],[34.80951,0.01599],[34.81241,0.01979],[34.81648,0.02244],[34.81858,0.02541],[34.81905,0.02753],[34.8314,0.03012],[34.81005,-2e-05],[34.80988,-0.00225],[34.80797,-0.00499],[34.81002,-0.0059],[34.81023,-0.00821],[34.80617,-0.01097],[34.80809,-0.01558],[34.82762,-0.02177],[34.88049,-0.0203],[34.89116,-0.01884],[34.90895,-0.02221],[34.92199,-0.0196],[34.91948,-0.02688],[34.92325,-0.03016],[34.93397,-0.0297],[34.95058,-0.0245],[34.95443,-0.02432],[34.95237,-0.02036],[34.95684,-0.01987],[34.96407,-0.02628],[34.97829,-0.01815],[34.98844,-0.01759],[34.98853,-0.01314],[35.00755,-0.02275],[35.00715,-0.04773],[35.05947,-0.04781],[35.06045,-0.04983],[35.05935,-0.05276],[35.06176,-0.05254],[35.06618,-0.06258],[35.06564,-0.05977],[35.0743,-0.04883],[35.07977,-0.04576],[35.08103,-0.04638],[35.08265,-0.04557],[35.08355,-0.04295],[35.08672,-0.04336],[35.08969,-0.03891],[35.09259,-0.03845],[35.09376,-0.03213],[35.09509,-0.03022],[35.09431,-0.02922],[35.09581,-0.02389],[35.0989,-0.02299],[35.09925,-0.0212],[35.10106,-0.02151],[35.10097,-0.01968],[35.10263,-0.01892],[35.10356,-0.01692],[35.10233,-0.01616],[35.10188,-0.01426],[35.10335,-0.01392],[35.10244,-0.0129],[35.10238,-0.01012],[35.10135,-0.00926],[35.10149,-0.00824],[35.10292,-0.00819],[35.10292,-0.00602],[35.10238,-0.00512],[35.10135,-0.00552],[35.10173,-0.00329],[35.10047,-0.00134],[35.10192,0.00181],[35.10587,5e-05],[35.14604,-0.02782],[35.14737,-0.02718],[35.14763,-0.02834],[35.14956,-0.02887],[35.14999,-0.03034],[35.15108,-0.03072],[35.15022,-0.0326],[35.15253,-0.03232],[35.15506,-0.03015],[35.15867,-0.03094],[35.15946,-0.0281],[35.16164,-0.02622],[35.16148,-0.02406],[35.16657,-0.02603],[35.16669,-0.02484],[35.16893,-0.02511],[35.16952,-0.02396],[35.17197,-0.02361],[35.17366,-0.02211],[35.17683,-0.02211],[35.1774,-0.02116],[35.17754,-0.02273],[35.17944,-0.02389],[35.17971,-0.02304],[35.18118,-0.02299],[35.18113,-0.02101],[35.1828,-0.02308],[35.18582,-0.02208],[35.18796,-0.02273],[35.19039,-0.02132],[35.1917,-0.02199],[35.19198,-0.01985],[35.19401,-0.01942],[35.19519,-0.02089],[35.19605,-0.02001],[35.19696,-0.02063],[35.19974,-0.02009],[35.20259,-0.02292],[35.20448,-0.02318],[35.20645,-0.02185],[35.20678,-0.02323],[35.21021,-0.02584],[35.21245,-0.02496],[35.21276,-0.02653],[35.21495,-0.02653],[35.21642,-0.02815],[35.21649,-0.02901],[35.21552,-0.0296],[35.21647,-0.0306],[35.21887,-0.03115],[35.22092,-0.02977],[35.22151,-0.03101],[35.22073,-0.03174],[35.22092,-0.03405],[35.2268,-0.06092],[35.22631,-0.10294],[35.23489,-0.11393],[35.25362,-0.11434],[35.27123,-0.14726],[35.27295,-0.14658],[35.27512,-0.1421],[35.27724,-0.1399],[35.27872,-0.14022],[35.2961,-0.17006],[35.3236,-0.17006],[35.33069,-0.17071],[35.331,-0.18643],[35.3364,-0.20285],[35.34302,-0.23167],[35.34202,-0.23252],[35.342,-0.23395],[35.33788,-0.23486],[35.33693,-0.23614],[35.33576,-0.23574],[35.33521,-0.23652],[35.33162,-0.23683],[35.32039,-0.24223],[35.31851,-0.24214],[35.31592,-0.24342],[35.31308,-0.24299],[35.31261,-0.24159],[35.3084,-0.23785],[35.30626,-0.23419],[35.30462,-0.23395],[35.3014,-0.23502],[35.29974,-0.2321],[35.29819,-0.23331],[35.29507,-0.23176],[35.294,-0.23198],[35.29276,-0.23074],[35.28767,-0.23134],[35.28605,-0.23031],[35.28489,-0.23145],[35.27893,-0.23151],[35.27792,-0.23217],[35.27615,-0.23136],[35.27506,-0.23214],[35.2731,-0.23122],[35.27216,-0.2325],[35.26957,-0.2316],[35.26876,-0.22943],[35.2659,-0.22919],[35.26483,-0.2271],[35.26397,-0.22691],[35.26338,-0.22853],[35.26081,-0.22386],[35.26162,-0.22275],[35.26131,-0.22025],[35.2635,-0.21868],[35.26257,-0.21711],[35.26026,-0.21713],[35.25886,-0.21594],[35.25726,-0.21618],[35.2561,-0.21316],[35.25405,-0.21301],[35.25293,-0.21144],[35.25317,-0.21018],[35.25058,-0.20861],[35.25081,-0.20668],[35.24871,-0.2078],[35.24931,-0.20562],[35.24733,-0.20472],[35.24793,-0.20312],[35.24915,-0.2025],[35.24567,-0.19798],[35.24606,-0.19657],[35.24494,-0.19676],[35.24426,-0.19873],[35.24252,-0.19806],[35.24082,-0.1941],[35.23856,-0.19546],[35.23683,-0.19549],[35.23733,-0.19342],[35.23623,-0.19281],[35.23597,-0.19108],[35.23145,-0.18877],[35.2304,-0.18898],[35.22992,-0.19013],[35.22661,-0.19102],[35.22175,-0.18801],[35.22114,-0.18917],[35.21805,-0.18839],[35.22023,-0.18687],[35.21906,-0.18407],[35.21939,-0.18324],[35.21759,-0.18153],[35.21895,-0.18044],[35.21786,-0.17789],[35.21803,-0.17537],[35.21563,-0.17453],[35.21617,-0.17259],[35.21519,-0.17144],[35.21536,-0.16899],[35.21231,-0.1668],[35.21022,-0.16772],[35.21093,-0.16585],[35.2055,-0.16431],[35.20506,-0.16312],[35.20371,-0.16292],[35.20341,-0.16202],[35.20453,-0.16083],[35.20413,-0.1599],[35.20142,-0.16066],[35.2012,-0.15924],[35.1979,-0.15662],[35.19195,-0.15724],[35.18867,-0.15599],[35.18814,-0.15441],[35.186,-0.15352],[35.18458,-0.15489],[35.18505,-0.15609],[35.18652,-0.1568],[35.18472,-0.15784],[35.18398,-0.15974],[35.18078,-0.15857],[35.17754,-0.15865],[35.1754,-0.15713],[35.17339,-0.1568],[35.17025,-0.15694],[35.16706,-0.1597],[35.16616,-0.15849],[35.16806,-0.1568],[35.16747,-0.15605],[35.16566,-0.15742],[35.16399,-0.15625],[35.16349,-0.1574],[35.16187,-0.15732],[35.16183,-0.1588],[35.15604,-0.16026],[35.15366,-0.15815],[35.15063,-0.15821],[35.14964,-0.15691],[35.14805,-0.15722],[35.1466,-0.15625],[35.14331,-0.15658],[35.13968,-0.15537],[35.13908,-0.15561],[35.14009,-0.15665],[35.13825,-0.15715],[35.13716,-0.15645],[35.13654,-0.15317],[35.13501,-0.15239],[35.13403,-0.14975],[35.13049,-0.14885],[35.13148,-0.15097],[35.13021,-0.15154],[35.12853,-0.14929],[35.12167,-0.16305],[35.10329,-0.19565],[35.09387,-0.1987],[35.0874,-0.19936],[35.07193,-0.20324],[35.06344,-0.2115],[35.05735,-0.23127],[35.05609,-0.24598],[35.05651,-0.24907],[35.05492,-0.25669],[35.05523,-0.26292],[35.05216,-0.27094],[35.05242,-0.27503],[35.0503,-0.29145],[35.0469,-0.29659],[35.02913,-0.31213],[35.02446,-0.3175],[35.01637,-0.32255],[35.00731,-0.32655],[35.00726,-0.32738],[35.00788,-0.32733],[35.0067,-0.32999],[35.00733,-0.33032],[35.00808,-0.32953],[35.0083,-0.33065],[35.00764,-0.33119],[35.00591,-0.33077],[35.00611,-0.33204],[35.00484,-0.33225],[35.00574,-0.33454],[35.00498,-0.33641],[35.00583,-0.33646],[35.0064,-0.33787],[35.00537,-0.33919],[35.00611,-0.34081],[35.00586,-0.34315],[35.00497,-0.34469],[35.00396,-0.34467],[35.00591,-0.34853],[35.00438,-0.35061],[35.00455,-0.35297],[35.00592,-0.35473],[35.00677,-0.37006],[35.00841,-0.3727],[35.0086,-0.37679],[35.01062,-0.38541],[35.00989,-0.38613]]]}}
