{"type":"Feature","properties":{"code":"PER-PCL","name":"Pucallpa - Ucayali","landscape_system":"Amazon","countries":["Peru"],"source_file":"aoiPCL_PER.shp","source_features_dissolved":12,"simplify_tolerance_deg":0.0005,"generated":"2026-07-21","pending_confirmation":true},"bbox":[-75.94789,-9.41844,-74.32246,-7.95005],"geometry":{"type":"Polygon","coordinates":[[[-75.76006,-9.22809],[-75.76186,-9.22464],[-75.76192,-9.22191],[-75.76351,-9.22019],[-75.76379,-9.2171],[-75.76784,-9.21831],[-75.77175,-9.2206],[-75.77254,-9.21981],[-75.77507,-9.21973],[-75.77593,-9.21743],[-75.78429,-9.20801],[-75.78949,-9.208],[-75.79136,-9.20541],[-75.79613,-9.20267],[-75.79568,-9.19449],[-75.79675,-9.19082],[-75.79522,-9.18552],[-75.79581,-9.18195],[-75.79868,-9.17873],[-75.79951,-9.17227],[-75.80095,-9.17028],[-75.80111,-9.16494],[-75.79963,-9.16173],[-75.8018,-9.1569],[-75.80245,-9.15178],[-75.80459,-9.14894],[-75.80616,-9.14006],[-75.80779,-9.13776],[-75.80779,-9.13565],[-75.80922,-9.13297],[-75.81384,-9.12903],[-75.81614,-9.12424],[-75.82152,-9.11897],[-75.82093,-9.11476],[-75.8216,-9.11131],[-75.81957,-9.10787],[-75.81946,-9.10385],[-75.82023,-9.10279],[-75.82013,-9.10059],[-75.822,-9.0988],[-75.82186,-9.09695],[-75.82502,-9.09005],[-75.83086,-9.08971],[-75.83423,-9.0863],[-75.83642,-9.08618],[-75.83787,-9.08489],[-75.83932,-9.07758],[-75.84082,-9.07393],[-75.83857,-9.07043],[-75.8389,-9.06797],[-75.83788,-9.06194],[-75.84382,-9.05869],[-75.84965,-9.05114],[-75.85341,-9.05191],[-75.85852,-9.05151],[-75.86004,-9.05006],[-75.86317,-9.0438],[-75.8631,-9.04106],[-75.86602,-9.0386],[-75.86657,-9.03569],[-75.87262,-9.0335],[-75.87475,-9.0316],[-75.87575,-9.02947],[-75.87647,-9.02405],[-75.87898,-9.01763],[-75.88307,-9.01287],[-75.88424,-9.01036],[-75.88756,-9.01012],[-75.89186,-9.00202],[-75.8945,-8.98371],[-75.89017,-8.98181],[-75.88571,-8.9811],[-75.88487,-8.98015],[-75.88449,-8.97405],[-75.88377,-8.97273],[-75.88521,-8.97046],[-75.88532,-8.9677],[-75.88844,-8.96279],[-75.88806,-8.95801],[-75.88986,-8.95573],[-75.88937,-8.94963],[-75.89105,-8.94723],[-75.89259,-8.93849],[-75.89653,-8.92807],[-75.89496,-8.92473],[-75.89712,-8.92365],[-75.89904,-8.91886],[-75.90252,-8.91681],[-75.90312,-8.9155],[-75.90034,-8.91191],[-75.90262,-8.90832],[-75.9031,-8.90568],[-75.90249,-8.90449],[-75.90272,-8.9009],[-75.90127,-8.89815],[-75.90601,-8.89812],[-75.90688,-8.89691],[-75.91051,-8.89633],[-75.9108,-8.89247],[-75.91206,-8.88914],[-75.91118,-8.88489],[-75.91532,-8.87788],[-75.91837,-8.87506],[-75.92096,-8.86896],[-75.92267,-8.86034],[-75.9218,-8.8588],[-75.92241,-8.85322],[-75.92524,-8.85075],[-75.92788,-8.84454],[-75.92694,-8.83616],[-75.92785,-8.8334],[-75.9275,-8.82898],[-75.92882,-8.82725],[-75.9292,-8.81743],[-75.92729,-8.81341],[-75.92877,-8.80801],[-75.92546,-8.7986],[-75.92534,-8.79579],[-75.92325,-8.79131],[-75.92165,-8.78081],[-75.92591,-8.77172],[-75.93017,-8.76694],[-75.93149,-8.76131],[-75.93661,-8.75464],[-75.93884,-8.74677],[-75.939,-8.74171],[-75.94003,-8.73775],[-75.94388,-8.73107],[-75.94495,-8.72653],[-75.94789,-8.72251],[-75.94433,-8.70982],[-75.93971,-8.70656],[-75.93212,-8.69693],[-75.92549,-8.69775],[-75.9234,-8.69443],[-75.91675,-8.68732],[-75.91078,-8.6782],[-75.90928,-8.67792],[-75.90553,-8.67977],[-75.90085,-8.67771],[-75.89767,-8.67004],[-75.89509,-8.66882],[-75.89132,-8.66022],[-75.87879,-8.65565],[-75.87544,-8.65566],[-75.87116,-8.65291],[-75.86735,-8.65309],[-75.86031,-8.6507],[-75.8569,-8.65086],[-75.85349,-8.64916],[-75.84531,-8.65498],[-75.83367,-8.65216],[-75.83097,-8.65016],[-75.82923,-8.64605],[-75.82432,-8.64223],[-75.82142,-8.63831],[-75.8168,-8.63602],[-75.81718,-8.63382],[-75.82073,-8.62864],[-75.82092,-8.62711],[-75.81772,-8.61726],[-75.81358,-8.61258],[-75.81236,-8.60771],[-75.80616,-8.6058],[-75.80153,-8.60274],[-75.80076,-8.59968],[-75.79931,-8.59921],[-75.79825,-8.59557],[-75.79507,-8.59299],[-75.79448,-8.58773],[-75.79246,-8.58563],[-75.79234,-8.5774],[-75.7908,-8.57453],[-75.79069,-8.57003],[-75.78493,-8.56238],[-75.78396,-8.56018],[-75.78453,-8.5576],[-75.78395,-8.55645],[-75.78001,-8.55349],[-75.77855,-8.54804],[-75.77825,-8.54373],[-75.78035,-8.53791],[-75.779,-8.53368],[-75.78216,-8.52544],[-75.78447,-8.5217],[-75.78945,-8.51901],[-75.79262,-8.51537],[-75.79589,-8.51469],[-75.79922,-8.51216],[-75.793,-8.51154],[-75.7904,-8.50934],[-75.7852,-8.50725],[-75.78221,-8.50371],[-75.78427,-8.50026],[-75.78754,-8.49719],[-75.78734,-8.49585],[-75.78455,-8.49433],[-75.78263,-8.4949],[-75.77897,-8.49357],[-75.77225,-8.49598],[-75.77013,-8.49809],[-75.76898,-8.4978],[-75.76647,-8.49427],[-75.76407,-8.49293],[-75.76069,-8.48739],[-75.75819,-8.48806],[-75.75251,-8.48587],[-75.7353,-8.48495],[-75.72489,-8.487],[-75.71646,-8.48689],[-75.71588,-8.48508],[-75.71751,-8.48044],[-75.7175,-8.47598],[-75.71441,-8.47101],[-75.71422,-8.46919],[-75.71527,-8.46814],[-75.71527,-8.46689],[-75.71219,-8.46422],[-75.71324,-8.46],[-75.70883,-8.45455],[-75.70814,-8.44651],[-75.70534,-8.44087],[-75.70216,-8.43925],[-75.69167,-8.42884],[-75.68732,-8.42329],[-75.67716,-8.42215],[-75.67196,-8.41819],[-75.65818,-8.41513],[-75.64813,-8.40975],[-75.64512,-8.40889],[-75.63407,-8.40802],[-75.6184,-8.40829],[-75.59906,-8.41198],[-75.59512,-8.41586],[-75.59341,-8.41906],[-75.5908,-8.42031],[-75.58828,-8.42357],[-75.58953,-8.42687],[-75.58873,-8.42816],[-75.58894,-8.43015],[-75.58814,-8.43214],[-75.58595,-8.43244],[-75.58445,-8.43403],[-75.58346,-8.44119],[-75.58217,-8.44198],[-75.57738,-8.44169],[-75.57448,-8.4405],[-75.57358,-8.4417],[-75.57354,-8.44355],[-75.57229,-8.44458],[-75.5652,-8.44419],[-75.55861,-8.44192],[-75.55032,-8.43577],[-75.54922,-8.43299],[-75.54642,-8.43239],[-75.53873,-8.43221],[-75.53275,-8.43321],[-75.53175,-8.4341],[-75.53185,-8.43788],[-75.52896,-8.43977],[-75.52727,-8.43997],[-75.52627,-8.43928],[-75.52646,-8.43709],[-75.51553,-8.43254],[-75.51084,-8.43204],[-75.48579,-8.43734],[-75.48209,-8.43725],[-75.4799,-8.43536],[-75.477,-8.43537],[-75.47521,-8.43616],[-75.47341,-8.43925],[-75.47122,-8.44084],[-75.47122,-8.44342],[-75.46544,-8.44691],[-75.46314,-8.44711],[-75.46029,-8.4492],[-75.45859,-8.44891],[-75.45759,-8.4498],[-75.4534,-8.4506],[-75.44891,-8.45001],[-75.44592,-8.45101],[-75.44082,-8.44773],[-75.43922,-8.44764],[-75.43823,-8.44873],[-75.43893,-8.44982],[-75.43554,-8.45221],[-75.43224,-8.45102],[-75.43044,-8.44844],[-75.42755,-8.44785],[-75.42645,-8.45103],[-75.42515,-8.45123],[-75.42386,-8.45272],[-75.42083,-8.45253],[-75.41956,-8.45153],[-75.41886,-8.44984],[-75.42016,-8.44587],[-75.41941,-8.44321],[-75.42065,-8.44239],[-75.42395,-8.44248],[-75.43242,-8.43492],[-75.43601,-8.42945],[-75.4395,-8.42607],[-75.4394,-8.42438],[-75.44339,-8.42239],[-75.44818,-8.42188],[-75.44958,-8.42099],[-75.45157,-8.4182],[-75.45236,-8.41204],[-75.45795,-8.41183],[-75.46014,-8.40955],[-75.46144,-8.40666],[-75.46133,-8.4013],[-75.46222,-8.39702],[-75.46382,-8.39384],[-75.4707,-8.38966],[-75.47419,-8.38965],[-75.47718,-8.38637],[-75.47628,-8.38398],[-75.48067,-8.3804],[-75.48146,-8.37782],[-75.48056,-8.37533],[-75.48136,-8.37205],[-75.48095,-8.36907],[-75.47937,-8.36739],[-75.47995,-8.3643],[-75.48174,-8.36291],[-75.48164,-8.36191],[-75.47745,-8.35705],[-75.47785,-8.35258],[-75.47965,-8.35094],[-75.48267,-8.34548],[-75.48368,-8.34476],[-75.48729,-8.34561],[-75.48902,-8.34403],[-75.49435,-8.34618],[-75.49882,-8.34589],[-75.50257,-8.34301],[-75.50444,-8.34014],[-75.50876,-8.33841],[-75.51005,-8.33482],[-75.50673,-8.33195],[-75.49779,-8.33139],[-75.49384,-8.32865],[-75.4964,-8.32293],[-75.49488,-8.31947],[-75.49288,-8.31888],[-75.4913,-8.31729],[-75.49134,-8.31215],[-75.4923,-8.31004],[-75.49691,-8.30577],[-75.49613,-8.30044],[-75.5002,-8.29527],[-75.50288,-8.28941],[-75.50155,-8.28616],[-75.49903,-8.28299],[-75.49653,-8.2753],[-75.48845,-8.2641],[-75.47496,-8.25627],[-75.47168,-8.25257],[-75.4731,-8.24746],[-75.47315,-8.24429],[-75.47107,-8.24095],[-75.46806,-8.23856],[-75.46722,-8.23615],[-75.46175,-8.23143],[-75.45881,-8.23052],[-75.45925,-8.22381],[-75.45737,-8.22123],[-75.45881,-8.21756],[-75.45708,-8.21577],[-75.45556,-8.21132],[-75.45297,-8.21007],[-75.45047,-8.20702],[-75.4486,-8.20261],[-75.4408,-8.19826],[-75.43768,-8.19497],[-75.43807,-8.19351],[-75.43701,-8.18787],[-75.43907,-8.18319],[-75.4368,-8.18221],[-75.4362,-8.18065],[-75.43924,-8.17487],[-75.43728,-8.17338],[-75.43692,-8.17179],[-75.43218,-8.1693],[-75.42978,-8.16652],[-75.42606,-8.16722],[-75.42421,-8.17001],[-75.41811,-8.17098],[-75.4102,-8.16889],[-75.4041,-8.16986],[-75.39813,-8.16847],[-75.39421,-8.16583],[-75.39118,-8.16253],[-75.38965,-8.15406],[-75.39013,-8.15255],[-75.38873,-8.15052],[-75.38676,-8.15006],[-75.3841,-8.14765],[-75.37615,-8.13878],[-75.36855,-8.13889],[-75.35821,-8.1343],[-75.35388,-8.13347],[-75.34554,-8.12941],[-75.34227,-8.12945],[-75.33049,-8.13376],[-75.32917,-8.13509],[-75.32848,-8.13868],[-75.32353,-8.13931],[-75.316,-8.13607],[-75.31061,-8.13605],[-75.30706,-8.13179],[-75.30255,-8.12971],[-75.2978,-8.12632],[-75.28789,-8.12549],[-75.28682,-8.12717],[-75.28509,-8.12733],[-75.28403,-8.12937],[-75.2796,-8.13177],[-75.27397,-8.13235],[-75.2715,-8.13656],[-75.26674,-8.13601],[-75.26297,-8.14112],[-75.26092,-8.14503],[-75.26049,-8.1476],[-75.25918,-8.14769],[-75.25836,-8.14937],[-75.25116,-8.15019],[-75.24728,-8.15477],[-75.24388,-8.15552],[-75.23952,-8.15113],[-75.23662,-8.15015],[-75.23541,-8.1505],[-75.23451,-8.14955],[-75.23361,-8.14484],[-75.23568,-8.1401],[-75.234,-8.13959],[-75.2274,-8.1323],[-75.21457,-8.12714],[-75.2124,-8.12393],[-75.21113,-8.11871],[-75.20954,-8.11624],[-75.20896,-8.11147],[-75.21011,-8.10962],[-75.2097,-8.10623],[-75.21188,-8.10325],[-75.21249,-8.10048],[-75.209,-8.10059],[-75.20755,-8.09876],[-75.20509,-8.09819],[-75.20438,-8.08887],[-75.20166,-8.08736],[-75.19885,-8.08755],[-75.19719,-8.08684],[-75.19294,-8.08136],[-75.19058,-8.08047],[-75.18932,-8.07904],[-75.1882,-8.07215],[-75.1959,-8.05269],[-75.19482,-8.05124],[-75.19152,-8.05038],[-75.19051,-8.04906],[-75.19089,-8.04424],[-75.18632,-8.03568],[-75.18727,-8.02334],[-75.1857,-8.01844],[-75.183,-8.01552],[-75.17884,-8.01378],[-75.17497,-8.01338],[-75.16824,-8.00546],[-75.15535,-8.00397],[-75.14943,-8.00182],[-75.14673,-7.99735],[-75.14606,-7.98194],[-75.14411,-7.97909],[-75.1212,-7.9789],[-75.09222,-7.97368],[-75.07056,-7.96047],[-75.03335,-7.95005],[-75.02339,-7.95777],[-75.01596,-7.96521],[-75.00553,-7.97015],[-74.98226,-7.96899],[-74.96314,-7.99415],[-74.9534,-8.01271],[-74.94645,-8.0211],[-74.93357,-8.03165],[-74.93103,-8.03818],[-74.92902,-8.04121],[-74.90791,-8.0662],[-74.90194,-8.0751],[-74.89644,-8.08127],[-74.89176,-8.08384],[-74.88793,-8.0842],[-74.8844,-8.0839],[-74.86588,-8.07693],[-74.84038,-8.05835],[-74.83557,-8.05704],[-74.82484,-8.05784],[-74.81931,-8.05748],[-74.7877,-8.04679],[-74.77903,-8.04238],[-74.77126,-8.03606],[-74.76778,-8.03049],[-74.76391,-8.02082],[-74.76057,-8.01641],[-74.72794,-7.98101],[-74.72253,-7.9793],[-74.71462,-7.98016],[-74.71128,-7.979],[-74.69113,-7.96184],[-74.6808,-7.96414],[-74.66261,-7.96382],[-74.65553,-7.96502],[-74.65099,-7.96702],[-74.64979,-7.97084],[-74.65233,-7.97467],[-74.67024,-7.98269],[-74.68278,-7.98619],[-74.68728,-7.98851],[-74.69146,-7.99203],[-74.69326,-7.99478],[-74.69611,-8.00096],[-74.69649,-8.01046],[-74.69592,-8.01967],[-74.6925,-8.03069],[-74.68813,-8.03696],[-74.67636,-8.04515],[-74.66764,-8.04981],[-74.6575,-8.05286],[-74.63879,-8.05407],[-74.61925,-8.05197],[-74.61293,-8.052],[-74.60663,-8.05376],[-74.59964,-8.05975],[-74.59787,-8.06343],[-74.59722,-8.06851],[-74.59899,-8.07641],[-74.60502,-8.08805],[-74.6206,-8.10672],[-74.62495,-8.11079],[-74.63128,-8.11938],[-74.6396,-8.12721],[-74.64381,-8.13265],[-74.64829,-8.14042],[-74.65187,-8.14877],[-74.65411,-8.16062],[-74.65493,-8.17537],[-74.65455,-8.18204],[-74.65256,-8.18812],[-74.64747,-8.18967],[-74.63867,-8.18915],[-74.63036,-8.18566],[-74.62045,-8.17857],[-74.61262,-8.17644],[-74.60681,-8.17719],[-74.60217,-8.17932],[-74.60031,-8.18156],[-74.59743,-8.19397],[-74.59297,-8.19985],[-74.57862,-8.20882],[-74.56715,-8.21433],[-74.54959,-8.22967],[-74.53711,-8.2445],[-74.5345,-8.25257],[-74.53029,-8.25808],[-74.52404,-8.26392],[-74.51276,-8.27264],[-74.52413,-8.2801],[-74.53073,-8.29672],[-74.51957,-8.3099],[-74.51361,-8.32871],[-74.48845,-8.35391],[-74.46691,-8.41639],[-74.45638,-8.40738],[-74.45296,-8.4067],[-74.44883,-8.40711],[-74.44285,-8.40958],[-74.43592,-8.41422],[-74.42781,-8.42032],[-74.42451,-8.42448],[-74.42254,-8.43203],[-74.42421,-8.45845],[-74.41975,-8.48628],[-74.41561,-8.49593],[-74.40741,-8.50566],[-74.40076,-8.51183],[-74.3835,-8.52202],[-74.37636,-8.52381],[-74.37119,-8.52376],[-74.3681,-8.52282],[-74.36542,-8.52323],[-74.32246,-8.53177],[-74.32872,-8.53527],[-74.3399,-8.5398],[-74.35336,-8.54893],[-74.35953,-8.55223],[-74.3766,-8.55628],[-74.39262,-8.56245],[-74.40466,-8.56542],[-74.41923,-8.57167],[-74.42322,-8.57439],[-74.42387,-8.58021],[-74.41779,-8.61887],[-74.42038,-8.62475],[-74.42586,-8.63232],[-74.43377,-8.64991],[-74.43607,-8.65692],[-74.44298,-8.66984],[-74.44836,-8.68912],[-74.45204,-8.69509],[-74.46425,-8.70653],[-74.48594,-8.72464],[-74.52535,-8.74932],[-74.52779,-8.71097],[-74.53612,-8.62986],[-74.54139,-8.60858],[-74.54375,-8.5937],[-74.54713,-8.58457],[-74.55694,-8.57307],[-74.57757,-8.55379],[-74.58975,-8.54872],[-74.61782,-8.54872],[-74.63033,-8.55041],[-74.64419,-8.55413],[-74.66415,-8.56191],[-74.68693,-8.57839],[-74.79753,-8.63171],[-74.84715,-8.66152],[-74.84682,-8.67039],[-74.84191,-8.67638],[-74.84078,-8.67907],[-74.84155,-8.68227],[-74.84641,-8.6879],[-74.84798,-8.69198],[-74.84869,-8.7028],[-74.84651,-8.71351],[-74.8492,-8.7194],[-74.85042,-8.72433],[-74.85056,-8.75689],[-74.8522,-8.76309],[-74.86043,-8.77522],[-74.86534,-8.78095],[-74.89574,-8.80476],[-74.90633,-8.81629],[-74.91131,-8.82328],[-74.94071,-8.85789],[-74.95447,-8.86357],[-74.95639,-8.86607],[-74.96274,-8.86851],[-74.97898,-8.87165],[-74.98876,-8.8715],[-75.00095,-8.8693],[-75.005,-8.86973],[-75.00624,-8.8658],[-75.00833,-8.86344],[-75.01198,-8.86238],[-75.01473,-8.8605],[-75.01949,-8.8605],[-75.0224,-8.85853],[-75.02383,-8.85926],[-75.02622,-8.86329],[-75.0321,-8.86738],[-75.03953,-8.86848],[-75.0437,-8.86747],[-75.04708,-8.86836],[-75.04984,-8.8705],[-75.05379,-8.87569],[-75.05793,-8.87789],[-75.06181,-8.87871],[-75.06322,-8.88127],[-75.06471,-8.88228],[-75.06737,-8.88141],[-75.06934,-8.87541],[-75.07294,-8.87312],[-75.07562,-8.87398],[-75.07848,-8.8735],[-75.08844,-8.87627],[-75.09611,-8.87671],[-75.104,-8.88026],[-75.10794,-8.87986],[-75.1076,-8.88177],[-75.10887,-8.88257],[-75.11884,-8.8798],[-75.12092,-8.87986],[-75.12259,-8.88095],[-75.12285,-8.88443],[-75.11986,-8.89324],[-75.12055,-8.89963],[-75.1201,-8.901],[-75.11866,-8.90145],[-75.12008,-8.90434],[-75.11943,-8.90718],[-75.11762,-8.91139],[-75.11569,-8.91268],[-75.11544,-8.91453],[-75.1135,-8.91648],[-75.11292,-8.91928],[-75.10961,-8.92032],[-75.10841,-8.92229],[-75.10995,-8.92377],[-75.1094,-8.92701],[-75.11045,-8.92953],[-75.11775,-8.9314],[-75.12065,-8.93664],[-75.12272,-8.93594],[-75.12559,-8.93689],[-75.12907,-8.93585],[-75.13089,-8.93974],[-75.13341,-8.94159],[-75.13485,-8.94597],[-75.13253,-8.95184],[-75.12901,-8.95246],[-75.12694,-8.95447],[-75.12446,-8.95318],[-75.1235,-8.95719],[-75.12011,-8.9607],[-75.12002,-8.96275],[-75.1214,-8.96433],[-75.11942,-8.96886],[-75.12131,-8.97258],[-75.12026,-8.97577],[-75.12236,-8.97808],[-75.12177,-8.97963],[-75.11958,-8.98118],[-75.11972,-8.98348],[-75.12112,-8.98524],[-75.12576,-8.98733],[-75.12818,-8.98736],[-75.12981,-8.98594],[-75.13453,-8.98876],[-75.13623,-8.98779],[-75.13756,-8.98836],[-75.13679,-8.99125],[-75.14009,-8.99433],[-75.13851,-8.99802],[-75.13921,-8.9995],[-75.14238,-8.99957],[-75.14566,-8.99761],[-75.14731,-8.998],[-75.14939,-9.00028],[-75.15231,-8.99874],[-75.15435,-8.99913],[-75.15533,-9.00332],[-75.15467,-9.00427],[-75.15681,-9.01031],[-75.16158,-9.00909],[-75.17386,-9.01158],[-75.17453,-9.01253],[-75.17372,-9.01611],[-75.17548,-9.01618],[-75.1763,-9.02064],[-75.17571,-9.02473],[-75.17086,-9.02715],[-75.16563,-9.02832],[-75.16387,-9.03139],[-75.16269,-9.03205],[-75.1624,-9.03395],[-75.16667,-9.03505],[-75.16976,-9.03856],[-75.17035,-9.04133],[-75.17241,-9.04199],[-75.17638,-9.04155],[-75.17991,-9.0444],[-75.18066,-9.04737],[-75.18305,-9.04754],[-75.18364,-9.049],[-75.18548,-9.04886],[-75.18659,-9.05061],[-75.18885,-9.05193],[-75.18959,-9.05456],[-75.19187,-9.05412],[-75.19282,-9.05485],[-75.19305,-9.05602],[-75.19489,-9.05719],[-75.1954,-9.0607],[-75.19445,-9.06253],[-75.19496,-9.06326],[-75.19842,-9.06252],[-75.20055,-9.06289],[-75.20121,-9.06384],[-75.19997,-9.06611],[-75.20048,-9.06727],[-75.19967,-9.06837],[-75.19607,-9.06954],[-75.19467,-9.07313],[-75.19607,-9.0759],[-75.20108,-9.07722],[-75.2049,-9.08029],[-75.20608,-9.08555],[-75.20535,-9.08782],[-75.20609,-9.09323],[-75.20844,-9.09703],[-75.20741,-9.09842],[-75.20528,-9.09937],[-75.20646,-9.10134],[-75.20845,-9.10178],[-75.20977,-9.10324],[-75.21337,-9.10178],[-75.21566,-9.10331],[-75.22139,-9.10477],[-75.22662,-9.10301],[-75.23044,-9.10338],[-75.23579,-9.09979],[-75.24058,-9.10015],[-75.2419,-9.10212],[-75.24065,-9.10659],[-75.23521,-9.11048],[-75.23551,-9.11405],[-75.2347,-9.11712],[-75.23323,-9.11675],[-75.23176,-9.11844],[-75.23264,-9.12048],[-75.23169,-9.12297],[-75.23346,-9.12487],[-75.2339,-9.12882],[-75.2325,-9.13094],[-75.23184,-9.1343],[-75.22942,-9.13452],[-75.22905,-9.1365],[-75.23067,-9.14125],[-75.22854,-9.14432],[-75.22803,-9.14622],[-75.22875,-9.1477],[-75.2203,-9.15127],[-75.21648,-9.15508],[-75.21634,-9.15807],[-75.21479,-9.16114],[-75.21553,-9.16655],[-75.21244,-9.17007],[-75.21289,-9.17226],[-75.21193,-9.17643],[-75.21443,-9.17767],[-75.21914,-9.17825],[-75.22091,-9.18008],[-75.22069,-9.18315],[-75.22261,-9.19002],[-75.23122,-9.20025],[-75.23138,-9.20486],[-75.233,-9.20932],[-75.2422,-9.22093],[-75.24895,-9.22656],[-75.25426,-9.22963],[-75.25669,-9.23248],[-75.26669,-9.23218],[-75.27192,-9.23342],[-75.27251,-9.23722],[-75.27185,-9.23978],[-75.27016,-9.24117],[-75.26891,-9.24373],[-75.26811,-9.25001],[-75.26853,-9.25273],[-75.2721,-9.26039],[-75.27227,-9.26804],[-75.27401,-9.27044],[-75.27651,-9.27197],[-75.27902,-9.27627],[-75.28577,-9.27828],[-75.28838,-9.28287],[-75.29262,-9.28344],[-75.30014,-9.28994],[-75.30245,-9.28956],[-75.3039,-9.29071],[-75.30332,-9.29367],[-75.30429,-9.29702],[-75.31393,-9.30209],[-75.31903,-9.29366],[-75.33406,-9.28876],[-75.33647,-9.28982],[-75.33782,-9.29192],[-75.34061,-9.29393],[-75.34071,-9.29498],[-75.34457,-9.29574],[-75.34428,-9.29814],[-75.34843,-9.30024],[-75.34843,-9.30292],[-75.34949,-9.30454],[-75.35244,-9.30515],[-75.35782,-9.30782],[-75.36457,-9.30586],[-75.37215,-9.31023],[-75.37618,-9.30889],[-75.3773,-9.30765],[-75.38049,-9.30798],[-75.38323,-9.30727],[-75.3906,-9.3013],[-75.39314,-9.30016],[-75.39611,-9.29963],[-75.40129,-9.30177],[-75.40475,-9.30148],[-75.40685,-9.30048],[-75.40958,-9.29657],[-75.41849,-9.29261],[-75.42104,-9.29303],[-75.42809,-9.29636],[-75.43609,-9.29525],[-75.44046,-9.29729],[-75.45197,-9.29634],[-75.45164,-9.29885],[-75.45361,-9.30155],[-75.45322,-9.30741],[-75.45403,-9.30862],[-75.45618,-9.31942],[-75.45625,-9.325],[-75.46072,-9.33189],[-75.46436,-9.33545],[-75.46674,-9.34101],[-75.4705,-9.34406],[-75.47283,-9.34836],[-75.48141,-9.35967],[-75.48408,-9.36702],[-75.48669,-9.37133],[-75.49439,-9.37735],[-75.50293,-9.37996],[-75.50596,-9.38199],[-75.50967,-9.38315],[-75.51796,-9.38217],[-75.52167,-9.38332],[-75.52596,-9.38652],[-75.53328,-9.38854],[-75.53864,-9.39347],[-75.55056,-9.39626],[-75.56247,-9.40118],[-75.56514,-9.40101],[-75.57449,-9.40272],[-75.57966,-9.40222],[-75.5822,-9.4028],[-75.58455,-9.40551],[-75.58631,-9.40628],[-75.58952,-9.40637],[-75.59441,-9.40791],[-75.59812,-9.41227],[-75.60066,-9.41381],[-75.60339,-9.41245],[-75.60455,-9.40964],[-75.6067,-9.40857],[-75.60757,-9.40712],[-75.61138,-9.40614],[-75.61226,-9.40769],[-75.61236,-9.41186],[-75.61666,-9.41408],[-75.62407,-9.41232],[-75.62514,-9.41096],[-75.63002,-9.41086],[-75.6348,-9.41307],[-75.64349,-9.41277],[-75.64886,-9.4145],[-75.65227,-9.41469],[-75.65559,-9.41662],[-75.66252,-9.41806],[-75.67045,-9.41794],[-75.67046,-9.41451],[-75.6685,-9.40899],[-75.66871,-9.40554],[-75.6713,-9.40202],[-75.67195,-9.39707],[-75.67093,-9.39355],[-75.67113,-9.38587],[-75.67409,-9.38256],[-75.67835,-9.38133],[-75.68072,-9.37537],[-75.68339,-9.37386],[-75.68563,-9.36976],[-75.68844,-9.36911],[-75.69025,-9.3676],[-75.69307,-9.36752],[-75.69501,-9.36393],[-75.6937,-9.36077],[-75.69406,-9.35862],[-75.69326,-9.35646],[-75.69037,-9.35381],[-75.68862,-9.34937],[-75.69761,-9.34597],[-75.69855,-9.34382],[-75.69833,-9.34131],[-75.70569,-9.33627],[-75.70684,-9.33311],[-75.70661,-9.32823],[-75.70791,-9.32398],[-75.71093,-9.31867],[-75.7115,-9.31565],[-75.71078,-9.314],[-75.71604,-9.30796],[-75.71531,-9.3033],[-75.71797,-9.29855],[-75.7171,-9.29676],[-75.71746,-9.29504],[-75.71644,-9.29066],[-75.71817,-9.28786],[-75.71708,-9.28456],[-75.72024,-9.27723],[-75.72385,-9.27564],[-75.7258,-9.27578],[-75.72905,-9.27348],[-75.7297,-9.27376],[-75.73035,-9.27261],[-75.72969,-9.27017],[-75.73041,-9.26795],[-75.73474,-9.26708],[-75.74019,-9.26383],[-75.74293,-9.25986],[-75.74378,-9.25569],[-75.74349,-9.25217],[-75.74457,-9.24959],[-75.74976,-9.24426],[-75.75481,-9.2426],[-75.75957,-9.23886],[-75.76396,-9.23785],[-75.76412,-9.23684],[-75.7592,-9.23204],[-75.76021,-9.2311],[-75.76006,-9.22809]]]}}
