{"type":"Feature","properties":{"code":"COL-CUM","name":"Cumbal (Narino)","landscape_system":"Amazon","countries":["Colombia"],"source_file":"aoiCUM_COL.shp","source_features_dissolved":9,"simplify_tolerance_deg":0.0,"generated":"2026-07-21"},"bbox":[-78.0702,0.83856,-77.7535,1.07838],"geometry":{"type":"Polygon","coordinates":[[[-77.77476,0.90995],[-77.77379,0.90753],[-77.77156,0.90432],[-77.77065,0.9034],[-77.77002,0.90093],[-77.76871,0.89858],[-77.76706,0.89668],[-77.76688,0.89427],[-77.76666,0.89134],[-77.76671,0.89037],[-77.76938,0.89054],[-77.77133,0.89163],[-77.77321,0.89163],[-77.77681,0.89123],[-77.77863,0.89071],[-77.77909,0.88841],[-77.77838,0.88437],[-77.77753,0.88214],[-77.77581,0.8802],[-77.77553,0.87834],[-77.77353,0.87626],[-77.77011,0.87425],[-77.76797,0.87296],[-77.76562,0.87159],[-77.7639,0.87066],[-77.7618,0.87072],[-77.75972,0.86642],[-77.76072,0.86556],[-77.76186,0.86383],[-77.76172,0.86232],[-77.76051,0.86103],[-77.76008,0.85658],[-77.75844,0.85551],[-77.75837,0.85342],[-77.75616,0.85112],[-77.7558,0.85098],[-77.75423,0.8507],[-77.75464,0.84953],[-77.7539,0.84826],[-77.7535,0.84746],[-77.75373,0.8466],[-77.75418,0.84619],[-77.75475,0.84516],[-77.75527,0.84361],[-77.75538,0.84281],[-77.75544,0.84171],[-77.75578,0.84074],[-77.75686,0.84005],[-77.75806,0.8389],[-77.75937,0.83856],[-77.76114,0.83976],[-77.76097,0.84154],[-77.76274,0.84166],[-77.76405,0.84194],[-77.76611,0.84028],[-77.76707,0.83873],[-77.76816,0.83999],[-77.76947,0.84005],[-77.77056,0.8397],[-77.77232,0.83976],[-77.77267,0.84079],[-77.77272,0.84177],[-77.77512,0.84177],[-77.7762,0.84079],[-77.77775,0.8405],[-77.77888,0.84039],[-77.78048,0.84096],[-77.78191,0.84211],[-77.78235,0.84322],[-77.78285,0.84433],[-77.78349,0.84533],[-77.78434,0.84631],[-77.78639,0.84655],[-77.78966,0.8463],[-77.79161,0.8465],[-77.79462,0.84686],[-77.79547,0.84867],[-77.7959,0.85093],[-77.79626,0.85391],[-77.79647,0.85574],[-77.79597,0.85788],[-77.79765,0.86272],[-77.7984,0.86451],[-77.79983,0.86645],[-77.80097,0.86717],[-77.80251,0.86814],[-77.80338,0.86868],[-77.80495,0.86886],[-77.80598,0.86875],[-77.80676,0.86891],[-77.80704,0.86955],[-77.80708,0.87039],[-77.80764,0.87096],[-77.80883,0.87135],[-77.80985,0.87122],[-77.81405,0.87042],[-77.81633,0.86877],[-77.81889,0.8682],[-77.82282,0.8682],[-77.82802,0.86762],[-77.83522,0.86604],[-77.8385,0.86503],[-77.84257,0.8641],[-77.84777,0.86381],[-77.85212,0.86101],[-77.85593,0.85942],[-77.85942,0.85827],[-77.86206,0.85805],[-77.86413,0.85712],[-77.86627,0.85547],[-77.86805,0.85345],[-77.87004,0.85188],[-77.8719,0.8518],[-77.87297,0.85446],[-77.87375,0.85683],[-77.87418,0.85783],[-77.87767,0.85926],[-77.88174,0.85898],[-77.88459,0.85812],[-77.88659,0.85776],[-77.88844,0.85804],[-77.89108,0.85984],[-77.89372,0.86084],[-77.89643,0.86106],[-77.8985,0.86084],[-77.9005,0.86084],[-77.9037,0.86156],[-77.90613,0.86285],[-77.90705,0.86464],[-77.90855,0.86751],[-77.90984,0.87096],[-77.91062,0.87376],[-77.91155,0.87519],[-77.91447,0.87541],[-77.9174,0.87541],[-77.91918,0.8772],[-77.92004,0.87869],[-77.92252,0.8808],[-77.92404,0.88472],[-77.92404,0.88673],[-77.92737,0.88683],[-77.93117,0.88702],[-77.93231,0.88912],[-77.93374,0.89017],[-77.93545,0.88998],[-77.93706,0.89256],[-77.93859,0.89352],[-77.94011,0.89467],[-77.94239,0.89486],[-77.94486,0.89505],[-77.94714,0.8962],[-77.94876,0.89582],[-77.94971,0.89544],[-77.95152,0.89611],[-77.95266,0.89744],[-77.95399,0.89811],[-77.95523,0.89916],[-77.9558,0.90108],[-77.95694,0.90213],[-77.95884,0.90232],[-77.9596,0.90261],[-77.96074,0.90299],[-77.96188,0.90318],[-77.96283,0.90328],[-77.96302,0.90414],[-77.96331,0.9051],[-77.96512,0.90567],[-77.9673,0.90548],[-77.96854,0.90538],[-77.96968,0.90538],[-77.97206,0.90548],[-77.97377,0.90739],[-77.97415,0.90892],[-77.97529,0.91026],[-77.97662,0.91112],[-77.97795,0.91218],[-77.97919,0.91265],[-77.9808,0.91265],[-77.98204,0.91313],[-77.9829,0.91457],[-77.98214,0.91801],[-77.98128,0.91993],[-77.97833,0.92204],[-77.977,0.9229],[-77.97529,0.92223],[-77.97358,0.92242],[-77.97282,0.92328],[-77.97187,0.92376],[-77.97035,0.92328],[-77.96731,0.92156],[-77.96588,0.92079],[-77.96483,0.92012],[-77.96398,0.9206],[-77.96208,0.92117],[-77.9597,0.92127],[-77.95837,0.92099],[-77.95637,0.9228],[-77.95504,0.92376],[-77.95428,0.92539],[-77.954,0.92749],[-77.95381,0.92845],[-77.95095,0.93225],[-77.95181,0.93333],[-77.9539,0.93257],[-77.95504,0.93199],[-77.95637,0.93142],[-77.95723,0.9296],[-77.95885,0.9297],[-77.96065,0.93075],[-77.96198,0.93161],[-77.96332,0.93256],[-77.96427,0.93323],[-77.96503,0.93448],[-77.96522,0.93591],[-77.96522,0.93725],[-77.96541,0.9385],[-77.96826,0.93878],[-77.9694,0.93955],[-77.97102,0.94041],[-77.97263,0.94108],[-77.97482,0.94041],[-77.97682,0.93907],[-77.97796,0.93888],[-77.97939,0.93888],[-77.98071,0.93916],[-77.98205,0.93955],[-77.98359,0.94146],[-77.98473,0.94366],[-77.98634,0.94423],[-77.98967,0.94605],[-77.9911,0.94758],[-77.9931,0.94863],[-77.99595,0.9493],[-77.99699,0.95026],[-77.99785,0.95208],[-77.99814,0.95523],[-77.99852,0.95791],[-78.00013,0.95945],[-78.00213,0.96012],[-78.00365,0.96241],[-78.00384,0.96557],[-78.00574,0.96652],[-78.00546,0.96796],[-78.00489,0.97007],[-78.00489,0.97227],[-78.00556,0.9737],[-78.00755,0.97495],[-78.00955,0.97523],[-78.01269,0.9738],[-78.01535,0.97073],[-78.01887,0.96777],[-78.02115,0.96556],[-78.02362,0.96355],[-78.02552,0.96193],[-78.02847,0.95877],[-78.03112,0.95657],[-78.03455,0.9558],[-78.03778,0.95666],[-78.04111,0.95656],[-78.04529,0.95704],[-78.04862,0.95828],[-78.05062,0.95953],[-78.05062,0.96221],[-78.05062,0.96728],[-78.05033,0.97321],[-78.05062,0.97675],[-78.05309,0.978],[-78.05794,0.97818],[-78.06085,0.97839],[-78.06341,0.97868],[-78.06537,0.98038],[-78.06607,0.98158],[-78.06668,0.98265],[-78.0648,0.98454],[-78.06326,0.98714],[-78.06189,0.98922],[-78.06103,0.99112],[-78.06018,0.9932],[-78.06018,0.99322],[-78.06069,0.99579],[-78.0619,0.99821],[-78.06328,0.99994],[-78.06328,1.00201],[-78.06363,1.00392],[-78.06517,1.00582],[-78.06621,1.0072],[-78.06621,1.00859],[-78.0669,1.01291],[-78.0669,1.01293],[-78.06674,1.01533],[-78.06484,1.01706],[-78.0639,1.01912],[-78.06382,1.01931],[-78.06382,1.01934],[-78.06382,1.02087],[-78.06382,1.02364],[-78.06538,1.02934],[-78.06727,1.03124],[-78.06882,1.03297],[-78.06968,1.0347],[-78.0702,1.03677],[-78.07019,1.03679],[-78.06917,1.03885],[-78.06797,1.0411],[-78.06574,1.04301],[-78.06505,1.04491],[-78.06505,1.04494],[-78.06505,1.04768],[-78.0654,1.04993],[-78.06644,1.05235],[-78.06643,1.05237],[-78.06575,1.05512],[-78.06576,1.05513],[-78.06575,1.05514],[-78.0639,1.05809],[-78.06016,1.06031],[-78.04595,1.05406],[-78.04513,1.05241],[-78.04349,1.04944],[-78.0445,1.04849],[-78.04563,1.04586],[-78.0426,1.04418],[-78.04213,1.04233],[-78.04206,1.04035],[-78.03951,1.04113],[-78.03796,1.04299],[-78.03589,1.04287],[-78.03505,1.04071],[-78.03357,1.04024],[-78.03113,1.04083],[-78.02929,1.03988],[-78.0278,1.03838],[-78.02572,1.03856],[-78.02436,1.04137],[-78.02341,1.04407],[-78.02258,1.04503],[-78.01877,1.04742],[-78.01741,1.04879],[-78.01557,1.05067],[-78.01593,1.05203],[-78.01778,1.05347],[-78.019,1.05469],[-78.0195,1.05641],[-78.01957,1.0582],[-78.01778,1.06007],[-78.01615,1.06273],[-78.01479,1.06545],[-78.01372,1.06723],[-78.00893,1.07022],[-78.00425,1.07091],[-77.99946,1.07008],[-77.99453,1.06539],[-77.99114,1.06312],[-77.98538,1.06263],[-77.98214,1.06119],[-77.97767,1.06263],[-77.97197,1.06139],[-77.96788,1.06062],[-77.96056,1.06369],[-77.95362,1.06608],[-77.94839,1.06857],[-77.94458,1.07049],[-77.93897,1.07183],[-77.93175,1.07356],[-77.92293,1.07709],[-77.91735,1.07838],[-77.91207,1.07572],[-77.9075,1.07371],[-77.90294,1.07213],[-77.89964,1.07238],[-77.8958,1.07277],[-77.89409,1.07372],[-77.89181,1.07239],[-77.8901,1.07143],[-77.88661,1.06971],[-77.8853,1.06899],[-77.88221,1.06779],[-77.87971,1.06576],[-77.87686,1.06349],[-77.87579,1.06265],[-77.8746,1.06313],[-77.87246,1.06564],[-77.87115,1.06624],[-77.86889,1.06589],[-77.86699,1.0678],[-77.86557,1.06816],[-77.8639,1.0666],[-77.86153,1.06577],[-77.86034,1.06517],[-77.85784,1.06577],[-77.85642,1.06577],[-77.85547,1.06541],[-77.85428,1.06541],[-77.85333,1.06553],[-77.85238,1.06613],[-77.85083,1.06733],[-77.84929,1.06649],[-77.84822,1.06445],[-77.84715,1.06086],[-77.84619,1.05955],[-77.84429,1.05919],[-77.84203,1.05847],[-77.84097,1.058],[-77.84001,1.05704],[-77.83954,1.05405],[-77.83954,1.05201],[-77.83882,1.04998],[-77.83823,1.04747],[-77.83882,1.04591],[-77.83941,1.04412],[-77.83811,1.04244],[-77.83716,1.04053],[-77.83525,1.03993],[-77.83335,1.03934],[-77.83193,1.03862],[-77.83002,1.03706],[-77.82955,1.03383],[-77.83002,1.03156],[-77.82943,1.02953],[-77.82776,1.02797],[-77.82646,1.02785],[-77.82479,1.02702],[-77.82349,1.02582],[-77.82307,1.02421],[-77.8223,1.02289],[-77.82147,1.02229],[-77.82004,1.02139],[-77.8204,1.01924],[-77.82039,1.01601],[-77.82081,1.01374],[-77.81903,1.01266],[-77.81814,1.01231],[-77.81653,1.01224],[-77.81534,1.01224],[-77.81368,1.01141],[-77.81261,1.01075],[-77.81171,1.01021],[-77.81094,1.00866],[-77.81076,1.0068],[-77.80981,1.00484],[-77.80674,1.00419],[-77.80546,1.0034],[-77.80403,1.00226],[-77.80289,1.00147],[-77.80118,1.00039],[-77.80054,0.99795],[-77.80018,0.99644],[-77.79954,0.99522],[-77.79954,0.99329],[-77.79961,0.99164],[-77.79954,0.98977],[-77.79996,0.98848],[-77.80168,0.98776],[-77.8041,0.98733],[-77.80688,0.98697],[-77.80895,0.98517],[-77.81016,0.98324],[-77.81244,0.98036],[-77.81401,0.97886],[-77.81879,0.97749],[-77.82136,0.97577],[-77.82278,0.97512],[-77.82532,0.97361],[-77.82703,0.9716],[-77.83002,0.96902],[-77.83059,0.96514],[-77.8286,0.96284],[-77.82589,0.9594],[-77.82083,0.95529],[-77.81541,0.95423],[-77.80728,0.94983],[-77.80412,0.94877],[-77.8026,0.94563],[-77.80016,0.94276],[-77.79855,0.94169],[-77.7973,0.9396],[-77.79606,0.93714],[-77.79356,0.93439],[-77.79154,0.9323],[-77.79124,0.93044],[-77.79089,0.92907],[-77.78993,0.92805],[-77.7878,0.92745],[-77.78673,0.92584],[-77.78435,0.92386],[-77.7828,0.92381],[-77.7812,0.92195],[-77.77858,0.921],[-77.77662,0.92046],[-77.7749,0.92004],[-77.77353,0.91675],[-77.77408,0.91598],[-77.77447,0.91328],[-77.77482,0.91184],[-77.77476,0.90995]],[[-77.79429,0.89759],[-77.79273,0.89903],[-77.7912,0.89932],[-77.7884,0.89965],[-77.78888,0.90066],[-77.78925,0.9019],[-77.78807,0.90224],[-77.78678,0.90363],[-77.78508,0.90616],[-77.7846,0.90683],[-77.78384,0.9088],[-77.78384,0.90961],[-77.78417,0.91143],[-77.78465,0.91162],[-77.78554,0.91162],[-77.79116,0.91162],[-77.7923,0.91181],[-77.79344,0.91243],[-77.79572,0.91161],[-77.7981,0.91056],[-77.79753,0.9097],[-77.79691,0.90884],[-77.79634,0.90802],[-77.79587,0.9074],[-77.7953,0.90674],[-77.79477,0.90616],[-77.79496,0.90516],[-77.79591,0.90448],[-77.79729,0.90367],[-77.7971,0.90276],[-77.79682,0.90118],[-77.7972,0.89999],[-77.79824,0.89962],[-77.799,0.89941],[-77.79815,0.89884],[-77.79738,0.89807],[-77.79686,0.89726],[-77.79638,0.89602],[-77.79576,0.8957],[-77.79429,0.89759]],[[-77.90495,0.94609],[-77.90419,0.94346],[-77.90524,0.9471],[-77.90495,0.94609]]]}}
