{"type":"Feature","properties":{"code":"ETH-OG","name":"Omo-Gibe Basin","landscape_system":"East-South Africa Highland-Lowland-Rift Valley System","countries":["Ethiopia"],"source_file":"Omo_Gibe_LL_ETH.shp","source_features_dissolved":1,"simplify_tolerance_deg":0.001,"generated":"2026-07-21"},"bbox":[34.95333,4.43102,38.41284,9.36914],"geometry":{"type":"Polygon","coordinates":[[[36.66319,5.80191],[36.66359,5.8147],[36.66643,5.81861],[36.67772,5.82036],[36.6832,5.82012],[36.68771,5.81786],[36.70467,5.8044],[36.71219,5.7965],[36.71669,5.79384],[36.72737,5.79155],[36.73551,5.7846],[36.73992,5.77487],[36.73954,5.75844],[36.74346,5.75131],[36.73525,5.73917],[36.73093,5.73656],[36.7201,5.73624],[36.69812,5.72033],[36.67509,5.67141],[36.67011,5.6703],[36.66231,5.66249],[36.66038,5.65238],[36.65585,5.64957],[36.6496,5.65039],[36.6459,5.64876],[36.64604,5.63744],[36.64842,5.63275],[36.65799,5.62753],[36.66579,5.62002],[36.68967,5.60727],[36.71125,5.6066],[36.71516,5.60295],[36.71548,5.59741],[36.71278,5.5931],[36.70892,5.5891],[36.7041,5.58799],[36.70032,5.57204],[36.70087,5.56671],[36.7048,5.56307],[36.71563,5.56309],[36.71904,5.55896],[36.71998,5.54742],[36.7193,5.54237],[36.71526,5.54097],[36.68762,5.54154],[36.67951,5.53458],[36.67918,5.52361],[36.68887,5.52133],[36.69302,5.51747],[36.69435,5.51252],[36.69389,5.50155],[36.68638,5.48774],[36.6869,5.46587],[36.68336,5.46185],[36.67254,5.46181],[36.66093,5.45056],[36.65064,5.44714],[36.64715,5.44314],[36.65463,5.40625],[36.65465,5.36824],[36.65732,5.36375],[36.66558,5.36051],[36.66594,5.35475],[36.662,5.35327],[36.65482,5.34604],[36.65486,5.33519],[36.65101,5.33146],[36.64549,5.33171],[36.64113,5.32893],[36.6355,5.31945],[36.63288,5.3091],[36.6335,5.29267],[36.62918,5.29136],[36.62597,5.28709],[36.62255,5.24926],[36.62741,5.23968],[36.6366,5.23394],[36.66385,5.23416],[36.67006,5.22772],[36.69165,5.22678],[36.70713,5.22121],[36.7123,5.21268],[36.72849,5.21271],[36.74335,5.20656],[36.75089,5.19898],[36.75285,5.19396],[36.75298,5.18317],[36.76466,5.17167],[36.76895,5.16896],[36.77449,5.16927],[36.7759,5.15876],[36.78128,5.14919],[36.7824,5.13818],[36.77951,5.13411],[36.7747,5.13101],[36.76959,5.12917],[36.75872,5.12907],[36.75381,5.12654],[36.75058,5.12225],[36.74925,5.11697],[36.7497,5.10598],[36.74725,5.10158],[36.72424,5.07855],[36.72502,5.05619],[36.72289,5.05293],[36.71156,5.05353],[36.70714,5.05086],[36.69554,5.02648],[36.69967,5.00545],[36.6998,4.97826],[36.69791,4.95569],[36.69559,4.95177],[36.67937,4.95082],[36.67756,4.94582],[36.67746,4.93483],[36.68058,4.92458],[36.69585,4.90913],[36.69694,4.90318],[36.70612,4.89404],[36.71024,4.88748],[36.71189,4.88173],[36.70786,4.86447],[36.70379,4.85706],[36.69725,4.85375],[36.68169,4.85205],[36.6612,4.85609],[36.64484,4.8511],[36.63999,4.83055],[36.64089,4.80919],[36.63603,4.79356],[36.63112,4.79108],[36.62378,4.7812],[36.6222,4.76476],[36.62229,4.73847],[36.61743,4.72449],[36.61831,4.7056],[36.61588,4.69819],[36.60771,4.69324],[36.60122,4.67514],[36.59398,4.63568],[36.59651,4.61515],[36.60559,4.59218],[36.61057,4.57166],[36.6098,4.55605],[36.61969,4.53883],[36.6231,4.49447],[36.63053,4.4756],[36.6314,4.45917],[36.62854,4.45263],[36.61458,4.45272],[36.57988,4.4457],[36.49769,4.44409],[36.31776,4.43334],[36.23723,4.43102],[36.18574,4.43222],[36.13828,4.43615],[36.09746,4.44245],[36.05814,4.45184],[36.02749,4.46213],[36.00328,4.47444],[35.97886,4.49208],[35.95437,4.51535],[35.91642,4.56207],[35.83383,4.68599],[35.81109,4.7163],[35.80147,4.72649],[35.82646,4.95079],[35.84228,4.95162],[35.87719,4.94781],[35.88183,4.94481],[35.89129,4.93386],[35.90777,4.93339],[35.92377,4.93056],[35.9291,4.93109],[35.94306,4.93942],[35.95119,4.94658],[35.95345,4.95266],[35.95675,4.99031],[35.95287,5.006],[35.94792,5.04884],[35.94577,5.05382],[35.9152,5.08471],[35.91048,5.08637],[35.88345,5.08633],[35.88037,5.091],[35.88395,5.09306],[35.88663,5.09747],[35.90112,5.12677],[35.90214,5.1367],[35.90106,5.14168],[35.87788,5.16459],[35.86885,5.17009],[35.86648,5.17695],[35.86822,5.18584],[35.86645,5.19822],[35.8572,5.21036],[35.85173,5.2125],[35.84543,5.21783],[35.84315,5.2212],[35.84141,5.22964],[35.83399,5.24368],[35.83441,5.27128],[35.8541,5.2911],[35.8627,5.30472],[35.86957,5.3122],[35.86866,5.31991],[35.86637,5.3244],[35.8462,5.34114],[35.84135,5.34284],[35.83043,5.34224],[35.82441,5.34445],[35.81702,5.35117],[35.81498,5.35128],[35.81462,5.35304],[35.79596,5.35284],[35.78643,5.35945],[35.78248,5.35943],[35.77921,5.35655],[35.7709,5.35627],[35.76665,5.35765],[35.75925,5.36606],[35.7566,5.37826],[35.74617,5.38157],[35.72927,5.38062],[35.72517,5.39234],[35.72056,5.39592],[35.68272,5.39677],[35.65035,5.39941],[35.64507,5.39799],[35.63898,5.39148],[35.62567,5.39157],[35.62279,5.394],[35.62102,5.40694],[35.61705,5.40861],[35.60463,5.40572],[35.59838,5.41075],[35.59322,5.42254],[35.58314,5.42764],[35.5644,5.41899],[35.55817,5.41952],[35.5508,5.42285],[35.54001,5.43067],[35.52927,5.43061],[35.52194,5.42606],[35.50892,5.42823],[35.49877,5.42367],[35.48916,5.42248],[35.48071,5.41792],[35.46441,5.40149],[35.43793,5.385],[35.42777,5.38213],[35.41429,5.37247],[35.41205,5.36849],[35.40187,5.35975],[35.39245,5.35496],[35.38149,5.35225],[35.36251,5.35746],[35.2874,5.43526],[35.24189,5.48829],[35.19361,5.5594],[35.15447,5.62398],[35.09299,5.73171],[35.07161,5.77583],[35.06594,5.79286],[35.07939,5.81351],[35.07247,5.84844],[35.07016,5.87578],[35.0702,5.91674],[35.07263,5.92966],[35.05105,6.01959],[35.03493,6.02115],[35.01849,6.02553],[35.00311,6.03948],[34.99566,6.05237],[35.00055,6.07829],[35.00049,6.0873],[34.99819,6.09235],[34.98853,6.09677],[34.97204,6.1079],[34.97078,6.12421],[34.96562,6.13261],[34.96502,6.13711],[34.96979,6.17935],[34.97539,6.18784],[34.97648,6.19291],[34.97635,6.20979],[34.96314,6.23388],[34.96191,6.24682],[34.95961,6.2513],[34.95449,6.25464],[34.95333,6.258],[34.9561,6.2659],[34.95365,6.28952],[34.95759,6.29236],[34.9723,6.29361],[34.97794,6.29647],[34.98354,6.30326],[34.98742,6.31399],[34.98943,6.30534],[34.98966,6.29309],[34.98731,6.28419],[34.99166,6.26014],[35.00113,6.23332],[35.00109,6.21698],[35.00319,6.21245],[35.01106,6.20465],[35.02052,6.20249],[35.02694,6.18144],[35.02719,6.1598],[35.02969,6.15494],[35.07205,6.11317],[35.07695,6.11076],[35.08775,6.11075],[35.09303,6.10908],[35.10223,6.09679],[35.11285,6.09617],[35.12344,6.09922],[35.12482,6.10367],[35.14034,6.11855],[35.14533,6.11637],[35.14621,6.10576],[35.14866,6.10137],[35.16421,6.08618],[35.17872,6.07892],[35.18899,6.07547],[35.20523,6.07509],[35.22078,6.07923],[35.24786,6.07923],[35.25306,6.07714],[35.25477,6.07266],[35.26216,6.06491],[35.27298,6.06498],[35.28031,6.06751],[35.2807,6.07249],[35.29167,6.07226],[35.30738,6.07571],[35.32205,6.08258],[35.34127,6.10156],[35.34099,6.10727],[35.34483,6.10881],[35.36502,6.10581],[35.36652,6.10173],[35.38487,6.10191],[35.38979,6.10419],[35.39427,6.1075],[35.39605,6.11766],[35.40039,6.12112],[35.41827,6.13353],[35.42869,6.13498],[35.43836,6.13996],[35.45603,6.15247],[35.46643,6.17743],[35.47552,6.183],[35.48327,6.19073],[35.48528,6.20072],[35.49348,6.2075],[35.51521,6.20726],[35.52489,6.20326],[35.52666,6.19877],[35.53189,6.19674],[35.54271,6.19681],[35.56,6.21415],[35.57002,6.23925],[35.57157,6.25018],[35.56737,6.25154],[35.56523,6.25642],[35.56338,6.26736],[35.56463,6.27788],[35.57413,6.28338],[35.58568,6.2947],[35.59115,6.2945],[35.60079,6.29912],[35.623,6.32342],[35.62597,6.33316],[35.62551,6.36075],[35.6275,6.36588],[35.63197,6.36728],[35.63579,6.37733],[35.63569,6.38286],[35.63169,6.39245],[35.63144,6.39941],[35.64116,6.40177],[35.66771,6.42896],[35.67125,6.43292],[35.67119,6.44378],[35.67342,6.44875],[35.68929,6.46373],[35.69956,6.46598],[35.71599,6.46499],[35.72537,6.46075],[35.72743,6.45651],[35.76372,6.44466],[35.80139,6.44396],[35.80252,6.43881],[35.81067,6.43155],[35.83681,6.41222],[35.85137,6.40499],[35.85917,6.3975],[35.87,6.39757],[35.8739,6.39958],[35.87398,6.41077],[35.87555,6.41621],[35.88356,6.42162],[35.8854,6.43176],[35.90084,6.44728],[35.90581,6.44837],[35.90569,6.4733],[35.90297,6.48376],[35.90142,6.5058],[35.90253,6.51008],[35.90752,6.51167],[35.91168,6.51552],[35.91299,6.53151],[35.91173,6.53649],[35.90754,6.54032],[35.8923,6.54445],[35.88932,6.54857],[35.88422,6.56427],[35.88284,6.57535],[35.88861,6.58162],[35.89109,6.59824],[35.88925,6.60753],[35.88398,6.60927],[35.88304,6.62528],[35.90507,6.64722],[35.91062,6.64693],[35.91882,6.65382],[35.91882,6.67544],[35.9215,6.68593],[35.92209,6.69688],[35.92652,6.69816],[35.94176,6.71369],[35.94741,6.72285],[35.94709,6.74456],[35.951,6.76021],[35.9504,6.7708],[35.94097,6.77627],[35.93339,6.78419],[35.9232,6.78606],[35.91867,6.796],[35.91779,6.81755],[35.90579,6.82865],[35.8876,6.84048],[35.87588,6.85193],[35.87064,6.85284],[35.8586,6.8514],[35.8557,6.85386],[35.8561,6.88155],[35.85494,6.88704],[35.85273,6.89195],[35.84811,6.8932],[35.84553,6.89814],[35.84522,6.90896],[35.84227,6.91939],[35.83922,6.9239],[35.83412,6.92485],[35.8339,6.95736],[35.83931,6.96665],[35.84752,6.97377],[35.85255,6.97565],[35.86355,6.97536],[35.8685,6.977],[35.8704,6.98208],[35.8694,6.98735],[35.86101,6.99388],[35.85549,6.9936],[35.84773,7.00114],[35.84231,7.00914],[35.83156,7.0117],[35.82073,7.01201],[35.81587,7.01464],[35.81437,7.01876],[35.78172,7.01856],[35.77175,7.02237],[35.76993,7.02607],[35.76421,7.02538],[35.74905,7.01935],[35.74445,7.01645],[35.74339,7.01132],[35.73933,7.00817],[35.72028,6.99729],[35.71431,6.99629],[35.70503,7.00495],[35.70316,7.00959],[35.70295,7.0367],[35.70027,7.04136],[35.69949,7.04676],[35.71312,7.07004],[35.71479,7.09145],[35.7202,7.10068],[35.72999,7.10498],[35.74092,7.1047],[35.75192,7.10732],[35.75391,7.11131],[35.7531,7.11722],[35.7553,7.12179],[35.76305,7.12953],[35.77269,7.13415],[35.78363,7.13385],[35.78872,7.13524],[35.79879,7.1402],[35.80081,7.14999],[35.80535,7.15309],[35.81578,7.15608],[35.84375,7.15699],[35.8488,7.15849],[35.85189,7.16178],[35.85435,7.17844],[35.86564,7.19015],[35.87303,7.2046],[35.88033,7.21254],[35.88658,7.22742],[35.8865,7.24375],[35.88411,7.25456],[35.86829,7.26757],[35.86774,7.27828],[35.87075,7.28887],[35.8753,7.29019],[35.879,7.2942],[35.911,7.3378],[35.91029,7.34383],[35.91437,7.3451],[35.92591,7.34439],[35.93077,7.34593],[35.94227,7.35779],[35.94329,7.36278],[35.93942,7.36426],[35.93962,7.36998],[35.93175,7.3772],[35.91548,7.37638],[35.89947,7.3733],[35.85057,7.37288],[35.84228,7.37946],[35.84103,7.3839],[35.83002,7.38346],[35.81999,7.38726],[35.80895,7.39891],[35.80881,7.4098],[35.80637,7.41485],[35.80163,7.41591],[35.7965,7.40746],[35.78109,7.40156],[35.77019,7.40147],[35.766,7.39822],[35.76494,7.39334],[35.75997,7.39073],[35.75464,7.39058],[35.74462,7.39435],[35.72877,7.39745],[35.70781,7.39723],[35.70387,7.40087],[35.69289,7.40048],[35.68802,7.40182],[35.68441,7.40625],[35.67978,7.40822],[35.6688,7.4072],[35.65866,7.40403],[35.64282,7.40756],[35.6211,7.40745],[35.60781,7.39233],[35.60287,7.39644],[35.60674,7.40143],[35.6063,7.418],[35.61119,7.41912],[35.63787,7.44628],[35.6425,7.45596],[35.64227,7.46144],[35.63719,7.47098],[35.63469,7.48149],[35.63434,7.52487],[35.64067,7.53971],[35.65168,7.55164],[35.68537,7.56931],[35.70673,7.57191],[35.7103,7.57537],[35.71195,7.58042],[35.71692,7.58182],[35.77711,7.58138],[35.78104,7.58415],[35.78675,7.5938],[35.79492,7.60035],[35.8169,7.60017],[35.82206,7.61006],[35.82217,7.61398],[35.82934,7.61403],[35.83258,7.61027],[35.85563,7.61102],[35.86583,7.61459],[35.87655,7.62516],[35.88404,7.63919],[35.88673,7.65121],[35.89054,7.65507],[35.89031,7.66057],[35.8929,7.66493],[35.91989,7.6915],[35.94165,7.69164],[35.9578,7.69477],[35.9738,7.69531],[35.97493,7.69019],[35.97885,7.68609],[35.9836,7.68444],[36.01612,7.68409],[36.02996,7.67447],[36.03447,7.675],[36.05249,7.68814],[36.07568,7.71072],[36.08637,7.71106],[36.08894,7.71605],[36.08923,7.73235],[36.10186,7.7213],[36.10741,7.72164],[36.11256,7.72715],[36.11794,7.7288],[36.12953,7.74017],[36.13866,7.74585],[36.14997,7.75772],[36.15996,7.75987],[36.1667,7.76839],[36.17626,7.78791],[36.18052,7.79096],[36.2024,7.78993],[36.20748,7.78793],[36.20883,7.78339],[36.21365,7.78064],[36.24082,7.78033],[36.25133,7.78313],[36.26222,7.78392],[36.26332,7.78863],[36.26762,7.79199],[36.28271,7.79836],[36.31013,7.79862],[36.31399,7.80035],[36.30723,7.81553],[36.30607,7.83162],[36.3216,7.84687],[36.33061,7.85304],[36.34693,7.85359],[36.36162,7.84873],[36.37722,7.83336],[36.37837,7.82838],[36.38287,7.82544],[36.38823,7.82434],[36.39922,7.8241],[36.40969,7.82652],[36.4248,7.83324],[36.42918,7.83937],[36.45092,7.8395],[36.45674,7.83407],[36.4619,7.82461],[36.46555,7.81439],[36.46562,7.80354],[36.47736,7.79254],[36.49386,7.79261],[36.49523,7.79688],[36.50556,7.80066],[36.5107,7.7993],[36.51991,7.79363],[36.53698,7.78004],[36.54204,7.7706],[36.54224,7.74893],[36.54991,7.73454],[36.56058,7.72275],[36.56025,7.70074],[36.56411,7.69918],[36.58048,7.71599],[36.58538,7.71751],[36.59467,7.71203],[36.59985,7.71035],[36.605,7.71097],[36.61091,7.72017],[36.61031,7.73714],[36.61279,7.74028],[36.6191,7.73998],[36.6406,7.71751],[36.67244,7.72373],[36.68241,7.72819],[36.69403,7.7396],[36.71577,7.73963],[36.73713,7.74362],[36.73856,7.73947],[36.74909,7.73632],[36.79249,7.73666],[36.79348,7.74187],[36.81594,7.75729],[36.82363,7.76517],[36.8504,7.76599],[36.85151,7.77114],[36.85919,7.77919],[36.86408,7.78054],[36.88596,7.78036],[36.88891,7.78446],[36.89363,7.80033],[36.89361,7.82761],[36.89248,7.83268],[36.88724,7.83446],[36.8824,7.84881],[36.87854,7.86438],[36.87834,7.88605],[36.87063,7.90047],[36.86636,7.90347],[36.86079,7.90312],[36.85677,7.90663],[36.84933,7.92112],[36.84924,7.93212],[36.85585,7.94103],[36.85693,7.94664],[36.85498,7.95031],[36.85097,7.95291],[36.84675,7.96319],[36.84495,7.97381],[36.84519,7.98471],[36.85504,8.02646],[36.856,8.03728],[36.85939,8.0476],[36.86313,8.05151],[36.86921,8.05096],[36.87105,8.05449],[36.87006,8.07146],[36.87721,8.0976],[36.87744,8.11383],[36.88297,8.12959],[36.88714,8.13164],[36.89294,8.13104],[36.9015,8.13706],[36.91118,8.16223],[36.91631,8.16358],[36.91887,8.16778],[36.92092,8.17869],[36.92087,8.18967],[36.9168,8.19642],[36.92296,8.19847],[36.93309,8.21139],[36.9442,8.24199],[36.94617,8.25291],[36.94552,8.25804],[36.94163,8.25958],[36.94141,8.29293],[36.94377,8.29762],[36.94829,8.30111],[36.95831,8.3033],[36.96251,8.30719],[36.96361,8.31217],[36.96321,8.3448],[36.9678,8.34614],[36.97213,8.35634],[36.97429,8.36686],[36.97375,8.38321],[36.98959,8.41759],[36.99184,8.42823],[36.99172,8.44992],[36.99546,8.45276],[36.99586,8.4583],[37.0004,8.46104],[37.01138,8.46114],[37.02149,8.46509],[37.03663,8.48088],[37.04668,8.48302],[37.04996,8.48734],[37.0531,8.50335],[37.05281,8.53072],[37.05875,8.53701],[37.06351,8.54696],[37.06756,8.5627],[37.07479,8.5711],[37.07209,8.58106],[37.06861,8.61343],[37.06724,8.657],[37.06497,8.66013],[37.06016,8.66261],[37.05678,8.67855],[37.05469,8.68333],[37.05021,8.68685],[37.04842,8.69154],[37.04882,8.70258],[37.03013,8.72194],[37.03031,8.73284],[37.03446,8.74864],[37.037,8.75349],[37.04202,8.75452],[37.04496,8.75897],[37.04467,8.76451],[37.04093,8.76839],[37.03579,8.76937],[37.03391,8.77445],[37.03008,8.77596],[37.01545,8.77548],[37.01472,8.78626],[37.00965,8.80172],[37.00658,8.80632],[36.99642,8.80827],[36.98078,8.8237],[36.97897,8.82819],[36.98218,8.83268],[36.98283,8.83809],[36.98043,8.84261],[36.97226,8.85003],[36.96362,8.86979],[36.94653,8.88315],[36.93486,8.88714],[36.93457,8.90957],[36.93101,8.91986],[36.93147,8.92518],[36.93418,8.93005],[36.93919,8.93109],[36.94212,8.93549],[36.9415,8.94638],[36.9379,8.96266],[36.93863,8.96701],[36.94332,8.96883],[36.94574,8.97945],[36.94536,8.99038],[36.94201,9.00053],[36.94106,9.02216],[36.93099,9.04148],[36.92178,9.05502],[36.9118,9.05723],[36.9062,9.0666],[36.90411,9.07721],[36.90465,9.10995],[36.90173,9.11444],[36.88544,9.11482],[36.88029,9.11715],[36.87896,9.12185],[36.88955,9.13237],[36.89494,9.14191],[36.8969,9.14692],[36.89671,9.15797],[36.90678,9.15969],[36.91843,9.15831],[36.9263,9.15092],[36.93157,9.1522],[36.93347,9.15706],[36.93186,9.17478],[36.93387,9.17997],[36.93287,9.18722],[36.92682,9.19961],[36.92452,9.2212],[36.93416,9.2461],[36.93028,9.2585],[36.93945,9.27097],[36.94596,9.27371],[36.95189,9.28185],[36.95398,9.2959],[36.94899,9.31208],[36.95165,9.32235],[36.95651,9.32832],[36.96359,9.32674],[36.97614,9.31979],[36.99354,9.31935],[36.99765,9.32372],[36.99782,9.32822],[37.0029,9.33787],[37.01831,9.34214],[37.01959,9.34683],[37.02431,9.34815],[37.02664,9.35327],[37.02662,9.36416],[37.02989,9.36843],[37.04621,9.3685],[37.06094,9.36494],[37.06522,9.35935],[37.07466,9.35403],[37.07798,9.34993],[37.07811,9.33907],[37.08583,9.32467],[37.09008,9.32136],[37.1109,9.31472],[37.11826,9.3069],[37.11795,9.30133],[37.12901,9.2896],[37.13454,9.28978],[37.14684,9.27962],[37.15391,9.25883],[37.1682,9.26219],[37.17279,9.26104],[37.17223,9.24411],[37.1753,9.2418],[37.19275,9.24315],[37.20265,9.23862],[37.20586,9.2321],[37.20808,9.21999],[37.21147,9.21715],[37.21732,9.21756],[37.2223,9.21527],[37.23847,9.20051],[37.23763,9.18348],[37.23851,9.17869],[37.24176,9.17532],[37.25282,9.17165],[37.26387,9.1702],[37.27495,9.17058],[37.2837,9.17401],[37.28651,9.16948],[37.28642,9.15849],[37.28253,9.14853],[37.28248,9.14299],[37.30937,9.1164],[37.31974,9.11302],[37.3277,9.10594],[37.37155,9.10659],[37.37613,9.10449],[37.38011,9.10048],[37.38458,9.09004],[37.39766,9.08087],[37.40826,9.08014],[37.41617,9.07227],[37.41792,9.06749],[37.41746,9.06172],[37.42053,9.05941],[37.43157,9.05969],[37.44633,9.05273],[37.45037,9.04908],[37.45409,9.03886],[37.45419,9.01705],[37.45865,9.01582],[37.46561,9.00764],[37.46538,9.0021],[37.46167,8.99819],[37.46127,8.99245],[37.46358,8.98778],[37.47393,8.97486],[37.47853,8.97271],[37.48418,8.97318],[37.48901,8.9717],[37.49306,8.96767],[37.49478,8.96295],[37.49434,8.95734],[37.50045,8.94883],[37.50546,8.94771],[37.50981,8.95099],[37.51458,8.95002],[37.51877,8.94605],[37.52023,8.94114],[37.5184,8.92298],[37.52084,8.91466],[37.53094,8.91315],[37.54338,8.91498],[37.54968,8.92151],[37.57658,8.92648],[37.59937,8.92572],[37.60479,8.9246],[37.60809,8.92182],[37.6075,8.90502],[37.61119,8.90113],[37.60501,8.89723],[37.59393,8.89759],[37.5785,8.88266],[37.57854,8.86102],[37.57317,8.86004],[37.57088,8.85184],[37.56526,8.84203],[37.55454,8.84199],[37.54515,8.83044],[37.54004,8.82317],[37.54308,8.81124],[37.53153,8.80651],[37.52812,8.8018],[37.52644,8.79327],[37.50075,8.78549],[37.49174,8.78631],[37.47653,8.78067],[37.47883,8.77112],[37.48961,8.75706],[37.49119,8.74525],[37.4989,8.73461],[37.51538,8.7343],[37.53042,8.73062],[37.534,8.73329],[37.53903,8.73438],[37.54269,8.74895],[37.54631,8.75258],[37.56361,8.75215],[37.56903,8.75048],[37.58227,8.73484],[37.5877,8.73482],[37.59643,8.72883],[37.59864,8.71318],[37.60555,8.70469],[37.60988,8.702],[37.62636,8.70241],[37.63661,8.69902],[37.64127,8.69917],[37.64301,8.70383],[37.65378,8.70646],[37.65915,8.70598],[37.66192,8.70209],[37.66394,8.70167],[37.67805,8.71025],[37.68021,8.71678],[37.68367,8.71664],[37.68498,8.72091],[37.68982,8.72361],[37.7008,8.72396],[37.70553,8.72629],[37.70728,8.73672],[37.71219,8.73918],[37.71742,8.73854],[37.71887,8.73385],[37.72936,8.73044],[37.75104,8.72764],[37.76736,8.72884],[37.77189,8.7318],[37.77297,8.7368],[37.78464,8.74837],[37.79399,8.75378],[37.80542,8.76553],[37.80973,8.76827],[37.81531,8.76799],[37.82017,8.77648],[37.82772,8.7845],[37.83243,8.78638],[37.84833,8.78667],[37.84969,8.79177],[37.85747,8.79962],[37.86248,8.80069],[37.86872,8.80645],[37.86972,8.81157],[37.87234,8.8089],[37.87747,8.81168],[37.8911,8.81216],[37.91045,8.80872],[37.9175,8.80349],[37.92415,8.78602],[37.92457,8.77925],[37.94288,8.77955],[37.94983,8.77562],[37.96051,8.77364],[37.9693,8.76743],[37.9719,8.76308],[37.97173,8.74671],[37.97515,8.73639],[37.98272,8.72863],[37.99206,8.71523],[38.01337,8.71388],[38.03286,8.70396],[38.04828,8.68877],[38.04438,8.66773],[38.04468,8.65649],[38.04856,8.65499],[38.04834,8.64927],[38.05227,8.64562],[38.07409,8.64567],[38.07908,8.64344],[38.09889,8.6247],[38.09999,8.61985],[38.10496,8.61732],[38.11537,8.61579],[38.12714,8.60414],[38.13234,8.57797],[38.12123,8.56624],[38.12222,8.56103],[38.12691,8.55877],[38.13795,8.5592],[38.1431,8.55769],[38.15951,8.54347],[38.16923,8.53829],[38.1908,8.53732],[38.19553,8.53481],[38.20425,8.52776],[38.20621,8.51769],[38.21801,8.50611],[38.22303,8.50503],[38.22592,8.50049],[38.22773,8.48437],[38.2305,8.47918],[38.23444,8.47589],[38.25092,8.47621],[38.25811,8.47029],[38.26283,8.4696],[38.27722,8.46286],[38.30963,8.45746],[38.31591,8.45513],[38.32219,8.44681],[38.3269,8.44318],[38.34102,8.44008],[38.35357,8.43464],[38.36246,8.42815],[38.37923,8.40398],[38.40146,8.38632],[38.40316,8.38271],[38.41012,8.3776],[38.41267,8.37312],[38.41284,8.36751],[38.4113,8.36247],[38.4062,8.36076],[38.40277,8.35719],[38.40107,8.34107],[38.39849,8.33621],[38.39076,8.32846],[38.3907,8.29595],[38.3755,8.28079],[38.36461,8.28068],[38.36146,8.2763],[38.36205,8.27041],[38.34606,8.27022],[38.34134,8.26835],[38.33341,8.26049],[38.33281,8.2499],[38.326,8.24188],[38.32071,8.23233],[38.31622,8.23006],[38.30606,8.23399],[38.30052,8.23396],[38.28689,8.22485],[38.28431,8.20939],[38.27365,8.19043],[38.26358,8.17811],[38.2675,8.16798],[38.26801,8.16196],[38.26357,8.16091],[38.25158,8.16198],[38.2484,8.15977],[38.24921,8.1537],[38.24786,8.14861],[38.24378,8.1447],[38.23881,8.14342],[38.2359,8.13912],[38.23478,8.11786],[38.22404,8.11691],[38.20855,8.11161],[38.18409,8.09974],[38.16472,8.0807],[38.15036,8.07244],[38.1474,8.06891],[38.14769,8.06325],[38.14506,8.05858],[38.13023,8.04254],[38.12669,8.03231],[38.11561,8.02051],[38.11035,8.01091],[38.1057,8.00881],[38.09467,8.00919],[38.08484,8.00453],[38.08243,8.00006],[38.08247,7.99471],[38.08655,7.96776],[38.08539,7.94077],[38.06698,7.92066],[38.0625,7.91835],[38.05703,7.91839],[38.04547,7.90676],[38.04281,7.9023],[38.04303,7.89683],[38.01586,7.89686],[38.01064,7.89566],[37.99433,7.88109],[37.99196,7.87664],[37.99217,7.84945],[37.9803,7.83855],[37.97472,7.83888],[37.9595,7.82372],[37.95964,7.81337],[37.96734,7.8032],[37.96738,7.78956],[37.96056,7.78272],[37.95516,7.75271],[37.94973,7.74043],[37.9429,7.73632],[37.91419,7.73761],[37.90601,7.72804],[37.86913,7.71567],[37.84866,7.70471],[37.83777,7.68832],[37.8223,7.67844],[37.81876,7.66147],[37.81317,7.65186],[37.80379,7.64951],[37.80452,7.61674],[37.81379,7.61071],[37.83017,7.61072],[37.83499,7.60926],[37.85358,7.58919],[37.85534,7.5787],[37.85535,7.54069],[37.86717,7.52234],[37.87209,7.52037],[37.87385,7.51665],[37.87382,7.50539],[37.87249,7.50017],[37.86749,7.4982],[37.85134,7.49816],[37.85193,7.47063],[37.84119,7.45871],[37.83095,7.45505],[37.81472,7.45458],[37.81176,7.45012],[37.81204,7.43376],[37.80236,7.41434],[37.79755,7.39325],[37.79016,7.38767],[37.79065,7.36012],[37.7868,7.3571],[37.78651,7.34597],[37.78108,7.34484],[37.77922,7.34],[37.7803,7.32366],[37.78473,7.30212],[37.78625,7.29699],[37.7898,7.29328],[37.79528,7.29189],[37.81163,7.29214],[37.81661,7.29022],[37.82632,7.28519],[37.84725,7.26788],[37.85225,7.26684],[37.85314,7.26529],[37.8744,7.2845],[37.88648,7.28453],[37.9,7.27392],[37.90858,7.25337],[37.90862,7.23422],[37.89873,7.21292],[37.90162,7.19306],[37.89244,7.17105],[37.89117,7.10578],[37.86359,7.05819],[37.83526,7.02975],[37.83246,7.01526],[37.83244,6.98032],[37.83016,6.95933],[37.80373,6.93129],[37.79874,6.93022],[37.79159,6.91216],[37.78798,6.90853],[37.78075,6.90489],[37.78031,6.89952],[37.77649,6.88943],[37.76564,6.87755],[37.75681,6.84588],[37.75288,6.84361],[37.75126,6.82872],[37.75217,6.7958],[37.76349,6.78643],[37.76264,6.78076],[37.75646,6.76567],[37.74698,6.73454],[37.73274,6.71831],[37.72132,6.69996],[37.70912,6.68854],[37.71969,6.67016],[37.72005,6.65929],[37.70367,6.63112],[37.69859,6.62999],[37.69549,6.62589],[37.67783,6.59202],[37.66657,6.58023],[37.66465,6.57017],[37.64148,6.54701],[37.63657,6.54595],[37.62969,6.53118],[37.63367,6.52154],[37.63366,6.50515],[37.63282,6.49984],[37.62629,6.48488],[37.61904,6.48122],[37.61938,6.46843],[37.6163,6.46428],[37.61512,6.45934],[37.61533,6.43202],[37.62322,6.41189],[37.63869,6.39654],[37.64346,6.3946],[37.64439,6.39044],[37.64025,6.38714],[37.61305,6.38724],[37.6088,6.38417],[37.60661,6.3792],[37.60507,6.36307],[37.60045,6.35329],[37.59606,6.3508],[37.58592,6.35475],[37.58104,6.35285],[37.57657,6.3429],[37.57597,6.33758],[37.58009,6.32192],[37.57916,6.31661],[37.57299,6.30759],[37.55153,6.30645],[37.54361,6.30014],[37.53334,6.297],[37.53193,6.29277],[37.50468,6.29288],[37.49684,6.28567],[37.48757,6.28021],[37.48013,6.2721],[37.46777,6.27098],[37.4667,6.266],[37.45519,6.25418],[37.45043,6.25259],[37.43944,6.25291],[37.43169,6.24551],[37.43172,6.23466],[37.4239,6.22732],[37.41307,6.2272],[37.4099,6.22288],[37.41026,6.21731],[37.38753,6.19453],[37.37673,6.19646],[37.37413,6.20057],[37.37052,6.20256],[37.36472,6.20227],[37.36022,6.19945],[37.35925,6.1944],[37.34456,6.18731],[37.33902,6.18761],[37.33108,6.18059],[37.32102,6.16767],[37.31992,6.1584],[37.3098,6.15522],[37.2867,6.13229],[37.28368,6.12812],[37.28402,6.12256],[37.28045,6.11857],[37.27636,6.11718],[37.27671,6.11125],[37.27281,6.10758],[37.25114,6.10761],[37.22841,6.13137],[37.2238,6.1333],[37.21267,6.13251],[37.20718,6.1348],[37.19919,6.13463],[37.1874,6.13707],[37.16881,6.1367],[37.15859,6.13356],[37.14464,6.13227],[37.13223,6.1344],[37.12414,6.14337],[37.12625,6.16107],[37.13176,6.18156],[37.13355,6.20018],[37.13816,6.21323],[37.14341,6.21915],[37.14772,6.22785],[37.15319,6.25951],[37.15123,6.26759],[37.14575,6.27638],[37.14627,6.29284],[37.14507,6.29802],[37.14219,6.30271],[37.13426,6.30992],[37.1287,6.3099],[37.12448,6.30656],[37.12443,6.30114],[37.12237,6.29657],[37.10695,6.28108],[37.10211,6.27999],[37.0924,6.26039],[37.09112,6.2499],[37.07754,6.23353],[37.07227,6.23419],[37.05798,6.2419],[37.03942,6.26167],[37.03755,6.26671],[37.03724,6.27736],[37.03228,6.27993],[37.02129,6.2801],[37.0159,6.28755],[37.01092,6.28647],[37.00698,6.28249],[37.00478,6.27262],[36.99994,6.26998],[36.97281,6.26935],[36.9459,6.24257],[36.94381,6.23664],[36.92029,6.22315],[36.90459,6.20822],[36.89185,6.17818],[36.88871,6.174],[36.86815,6.16576],[36.85245,6.16446],[36.83145,6.17006],[36.81588,6.17532],[36.79635,6.18501],[36.79502,6.18954],[36.78451,6.19268],[36.77372,6.19272],[36.76691,6.19977],[36.76595,6.1946],[36.76129,6.19233],[36.75584,6.19238],[36.74045,6.17693],[36.73786,6.17258],[36.73821,6.15621],[36.74182,6.14628],[36.73821,6.13624],[36.74199,6.10583],[36.73676,6.10495],[36.7224,6.09719],[36.7207,6.09211],[36.71679,6.09068],[36.70234,6.09102],[36.70266,6.08547],[36.6809,6.0549],[36.67244,6.0391],[36.67063,6.02502],[36.66373,6.01751],[36.66698,6.00579],[36.66813,5.98658],[36.66181,5.9668],[36.66005,5.94384],[36.66435,5.93452],[36.67052,5.92601],[36.67057,5.91319],[36.66499,5.9081],[36.65866,5.8926],[36.65043,5.88562],[36.63294,5.86126],[36.64943,5.82652],[36.6462,5.81382],[36.64863,5.80529],[36.66319,5.80191]]]}}
