{"type":"FeatureCollection","name":"MFL Living Landscapes - canonical delineations","features":[{"type":"Feature","properties":{"code":"COL-CUM","name":"Cumbal (Narino)","landscape_system":"Amazon","countries":["Colombia"],"source_file":"aoiCUM_COL.shp","source_features_dissolved":9,"simplify_tolerance_deg":0.0,"generated":"2026-09-29","source":"Nine veredas of the Cumbal indigenous reserve area (Tasmag, Quilismal, Boyera, Cuaical, Cuaspud Grande, Llano de Piedras, Cuetial, Guan, San Martin-Miraflores), layer 'Cumbal_veredas_wgs84' compiled by Javier Ochoa (CIP). Original source to be confirmed.","license":"other","license_url":null,"attribution":"Vereda boundaries compiled by J. Ochoa (CIP) for the CGIAR Science Program on Multifunctional Landscapes; original source to be confirmed."},"bbox":[-78.0702,0.83856,-77.7535,1.07838],"geometry":{"type":"Polygon","coordinates":[[[-77.77476,0.90995],[-77.77379,0.90753],[-77.77156,0.90432],[-77.77065,0.9034],[-77.77002,0.90093],[-77.76871,0.89858],[-77.76706,0.89668],[-77.76688,0.89427],[-77.76666,0.89134],[-77.76671,0.89037],[-77.76938,0.89054],[-77.77133,0.89163],[-77.77321,0.89163],[-77.77681,0.89123],[-77.77863,0.89071],[-77.77909,0.88841],[-77.77838,0.88437],[-77.77753,0.88214],[-77.77581,0.8802],[-77.77553,0.87834],[-77.77353,0.87626],[-77.77011,0.87425],[-77.76797,0.87296],[-77.76562,0.87159],[-77.7639,0.87066],[-77.7618,0.87072],[-77.75972,0.86642],[-77.76072,0.86556],[-77.76186,0.86383],[-77.76172,0.86232],[-77.76051,0.86103],[-77.76008,0.85658],[-77.75844,0.85551],[-77.75837,0.85342],[-77.75616,0.85112],[-77.7558,0.85098],[-77.75423,0.8507],[-77.75464,0.84953],[-77.7539,0.84826],[-77.7535,0.84746],[-77.75373,0.8466],[-77.75418,0.84619],[-77.75475,0.84516],[-77.75527,0.84361],[-77.75538,0.84281],[-77.75544,0.84171],[-77.75578,0.84074],[-77.75686,0.84005],[-77.75806,0.8389],[-77.75937,0.83856],[-77.76114,0.83976],[-77.76097,0.84154],[-77.76274,0.84166],[-77.76405,0.84194],[-77.76611,0.84028],[-77.76707,0.83873],[-77.76816,0.83999],[-77.76947,0.84005],[-77.77056,0.8397],[-77.77232,0.83976],[-77.77267,0.84079],[-77.77272,0.84177],[-77.77512,0.84177],[-77.7762,0.84079],[-77.77775,0.8405],[-77.77888,0.84039],[-77.78048,0.84096],[-77.78191,0.84211],[-77.78235,0.84322],[-77.78285,0.84433],[-77.78349,0.84533],[-77.78434,0.84631],[-77.78639,0.84655],[-77.78966,0.8463],[-77.79161,0.8465],[-77.79462,0.84686],[-77.79547,0.84867],[-77.7959,0.85093],[-77.79626,0.85391],[-77.79647,0.85574],[-77.79597,0.85788],[-77.79765,0.86272],[-77.7984,0.86451],[-77.79983,0.86645],[-77.80097,0.86717],[-77.80251,0.86814],[-77.80338,0.86868],[-77.80495,0.86886],[-77.80598,0.86875],[-77.80676,0.86891],[-77.80704,0.86955],[-77.80708,0.87039],[-77.80764,0.87096],[-77.80883,0.87135],[-77.80985,0.87122],[-77.81405,0.87042],[-77.81633,0.86877],[-77.81889,0.8682],[-77.82282,0.8682],[-77.82802,0.86762],[-77.83522,0.86604],[-77.8385,0.86503],[-77.84257,0.8641],[-77.84777,0.86381],[-77.85212,0.86101],[-77.85593,0.85942],[-77.85942,0.85827],[-77.86206,0.85805],[-77.86413,0.85712],[-77.86627,0.85547],[-77.86805,0.85345],[-77.87004,0.85188],[-77.8719,0.8518],[-77.87297,0.85446],[-77.87375,0.85683],[-77.87418,0.85783],[-77.87767,0.85926],[-77.88174,0.85898],[-77.88459,0.85812],[-77.88659,0.85776],[-77.88844,0.85804],[-77.89108,0.85984],[-77.89372,0.86084],[-77.89643,0.86106],[-77.8985,0.86084],[-77.9005,0.86084],[-77.9037,0.86156],[-77.90613,0.86285],[-77.90705,0.86464],[-77.90855,0.86751],[-77.90984,0.87096],[-77.91062,0.87376],[-77.91155,0.87519],[-77.91447,0.87541],[-77.9174,0.87541],[-77.91918,0.8772],[-77.92004,0.87869],[-77.92252,0.8808],[-77.92404,0.88472],[-77.92404,0.88673],[-77.92737,0.88683],[-77.93117,0.88702],[-77.93231,0.88912],[-77.93374,0.89017],[-77.93545,0.88998],[-77.93706,0.89256],[-77.93859,0.89352],[-77.94011,0.89467],[-77.94239,0.89486],[-77.94486,0.89505],[-77.94714,0.8962],[-77.94876,0.89582],[-77.94971,0.89544],[-77.95152,0.89611],[-77.95266,0.89744],[-77.95399,0.89811],[-77.95523,0.89916],[-77.9558,0.90108],[-77.95694,0.90213],[-77.95884,0.90232],[-77.9596,0.90261],[-77.96074,0.90299],[-77.96188,0.90318],[-77.96283,0.90328],[-77.96302,0.90414],[-77.96331,0.9051],[-77.96512,0.90567],[-77.9673,0.90548],[-77.96854,0.90538],[-77.96968,0.90538],[-77.97206,0.90548],[-77.97377,0.90739],[-77.97415,0.90892],[-77.97529,0.91026],[-77.97662,0.91112],[-77.97795,0.91218],[-77.97919,0.91265],[-77.9808,0.91265],[-77.98204,0.91313],[-77.9829,0.91457],[-77.98214,0.91801],[-77.98128,0.91993],[-77.97833,0.92204],[-77.977,0.9229],[-77.97529,0.92223],[-77.97358,0.92242],[-77.97282,0.92328],[-77.97187,0.92376],[-77.97035,0.92328],[-77.96731,0.92156],[-77.96588,0.92079],[-77.96483,0.92012],[-77.96398,0.9206],[-77.96208,0.92117],[-77.9597,0.92127],[-77.95837,0.92099],[-77.95637,0.9228],[-77.95504,0.92376],[-77.95428,0.92539],[-77.954,0.92749],[-77.95381,0.92845],[-77.95095,0.93225],[-77.95181,0.93333],[-77.9539,0.93257],[-77.95504,0.93199],[-77.95637,0.93142],[-77.95723,0.9296],[-77.95885,0.9297],[-77.96065,0.93075],[-77.96198,0.93161],[-77.96332,0.93256],[-77.96427,0.93323],[-77.96503,0.93448],[-77.96522,0.93591],[-77.96522,0.93725],[-77.96541,0.9385],[-77.96826,0.93878],[-77.9694,0.93955],[-77.97102,0.94041],[-77.97263,0.94108],[-77.97482,0.94041],[-77.97682,0.93907],[-77.97796,0.93888],[-77.97939,0.93888],[-77.98071,0.93916],[-77.98205,0.93955],[-77.98359,0.94146],[-77.98473,0.94366],[-77.98634,0.94423],[-77.98967,0.94605],[-77.9911,0.94758],[-77.9931,0.94863],[-77.99595,0.9493],[-77.99699,0.95026],[-77.99785,0.95208],[-77.99814,0.95523],[-77.99852,0.95791],[-78.00013,0.95945],[-78.00213,0.96012],[-78.00365,0.96241],[-78.00384,0.96557],[-78.00574,0.96652],[-78.00546,0.96796],[-78.00489,0.97007],[-78.00489,0.97227],[-78.00556,0.9737],[-78.00755,0.97495],[-78.00955,0.97523],[-78.01269,0.9738],[-78.01535,0.97073],[-78.01887,0.96777],[-78.02115,0.96556],[-78.02362,0.96355],[-78.02552,0.96193],[-78.02847,0.95877],[-78.03112,0.95657],[-78.03455,0.9558],[-78.03778,0.95666],[-78.04111,0.95656],[-78.04529,0.95704],[-78.04862,0.95828],[-78.05062,0.95953],[-78.05062,0.96221],[-78.05062,0.96728],[-78.05033,0.97321],[-78.05062,0.97675],[-78.05309,0.978],[-78.05794,0.97818],[-78.06085,0.97839],[-78.06341,0.97868],[-78.06537,0.98038],[-78.06607,0.98158],[-78.06668,0.98265],[-78.0648,0.98454],[-78.06326,0.98714],[-78.06189,0.98922],[-78.06103,0.99112],[-78.06018,0.9932],[-78.06018,0.99322],[-78.06069,0.99579],[-78.0619,0.99821],[-78.06328,0.99994],[-78.06328,1.00201],[-78.06363,1.00392],[-78.06517,1.00582],[-78.06621,1.0072],[-78.06621,1.00859],[-78.0669,1.01291],[-78.0669,1.01293],[-78.06674,1.01533],[-78.06484,1.01706],[-78.0639,1.01912],[-78.06382,1.01931],[-78.06382,1.01934],[-78.06382,1.02087],[-78.06382,1.02364],[-78.06538,1.02934],[-78.06727,1.03124],[-78.06882,1.03297],[-78.06968,1.0347],[-78.0702,1.03677],[-78.07019,1.03679],[-78.06917,1.03885],[-78.06797,1.0411],[-78.06574,1.04301],[-78.06505,1.04491],[-78.06505,1.04494],[-78.06505,1.04768],[-78.0654,1.04993],[-78.06644,1.05235],[-78.06643,1.05237],[-78.06575,1.05512],[-78.06576,1.05513],[-78.06575,1.05514],[-78.0639,1.05809],[-78.06016,1.06031],[-78.04595,1.05406],[-78.04513,1.05241],[-78.04349,1.04944],[-78.0445,1.04849],[-78.04563,1.04586],[-78.0426,1.04418],[-78.04213,1.04233],[-78.04206,1.04035],[-78.03951,1.04113],[-78.03796,1.04299],[-78.03589,1.04287],[-78.03505,1.04071],[-78.03357,1.04024],[-78.03113,1.04083],[-78.02929,1.03988],[-78.0278,1.03838],[-78.02572,1.03856],[-78.02436,1.04137],[-78.02341,1.04407],[-78.02258,1.04503],[-78.01877,1.04742],[-78.01741,1.04879],[-78.01557,1.05067],[-78.01593,1.05203],[-78.01778,1.05347],[-78.019,1.05469],[-78.0195,1.05641],[-78.01957,1.0582],[-78.01778,1.06007],[-78.01615,1.06273],[-78.01479,1.06545],[-78.01372,1.06723],[-78.00893,1.07022],[-78.00425,1.07091],[-77.99946,1.07008],[-77.99453,1.06539],[-77.99114,1.06312],[-77.98538,1.06263],[-77.98214,1.06119],[-77.97767,1.06263],[-77.97197,1.06139],[-77.96788,1.06062],[-77.96056,1.06369],[-77.95362,1.06608],[-77.94839,1.06857],[-77.94458,1.07049],[-77.93897,1.07183],[-77.93175,1.07356],[-77.92293,1.07709],[-77.91735,1.07838],[-77.91207,1.07572],[-77.9075,1.07371],[-77.90294,1.07213],[-77.89964,1.07238],[-77.8958,1.07277],[-77.89409,1.07372],[-77.89181,1.07239],[-77.8901,1.07143],[-77.88661,1.06971],[-77.8853,1.06899],[-77.88221,1.06779],[-77.87971,1.06576],[-77.87686,1.06349],[-77.87579,1.06265],[-77.8746,1.06313],[-77.87246,1.06564],[-77.87115,1.06624],[-77.86889,1.06589],[-77.86699,1.0678],[-77.86557,1.06816],[-77.8639,1.0666],[-77.86153,1.06577],[-77.86034,1.06517],[-77.85784,1.06577],[-77.85642,1.06577],[-77.85547,1.06541],[-77.85428,1.06541],[-77.85333,1.06553],[-77.85238,1.06613],[-77.85083,1.06733],[-77.84929,1.06649],[-77.84822,1.06445],[-77.84715,1.06086],[-77.84619,1.05955],[-77.84429,1.05919],[-77.84203,1.05847],[-77.84097,1.058],[-77.84001,1.05704],[-77.83954,1.05405],[-77.83954,1.05201],[-77.83882,1.04998],[-77.83823,1.04747],[-77.83882,1.04591],[-77.83941,1.04412],[-77.83811,1.04244],[-77.83716,1.04053],[-77.83525,1.03993],[-77.83335,1.03934],[-77.83193,1.03862],[-77.83002,1.03706],[-77.82955,1.03383],[-77.83002,1.03156],[-77.82943,1.02953],[-77.82776,1.02797],[-77.82646,1.02785],[-77.82479,1.02702],[-77.82349,1.02582],[-77.82307,1.02421],[-77.8223,1.02289],[-77.82147,1.02229],[-77.82004,1.02139],[-77.8204,1.01924],[-77.82039,1.01601],[-77.82081,1.01374],[-77.81903,1.01266],[-77.81814,1.01231],[-77.81653,1.01224],[-77.81534,1.01224],[-77.81368,1.01141],[-77.81261,1.01075],[-77.81171,1.01021],[-77.81094,1.00866],[-77.81076,1.0068],[-77.80981,1.00484],[-77.80674,1.00419],[-77.80546,1.0034],[-77.80403,1.00226],[-77.80289,1.00147],[-77.80118,1.00039],[-77.80054,0.99795],[-77.80018,0.99644],[-77.79954,0.99522],[-77.79954,0.99329],[-77.79961,0.99164],[-77.79954,0.98977],[-77.79996,0.98848],[-77.80168,0.98776],[-77.8041,0.98733],[-77.80688,0.98697],[-77.80895,0.98517],[-77.81016,0.98324],[-77.81244,0.98036],[-77.81401,0.97886],[-77.81879,0.97749],[-77.82136,0.97577],[-77.82278,0.97512],[-77.82532,0.97361],[-77.82703,0.9716],[-77.83002,0.96902],[-77.83059,0.96514],[-77.8286,0.96284],[-77.82589,0.9594],[-77.82083,0.95529],[-77.81541,0.95423],[-77.80728,0.94983],[-77.80412,0.94877],[-77.8026,0.94563],[-77.80016,0.94276],[-77.79855,0.94169],[-77.7973,0.9396],[-77.79606,0.93714],[-77.79356,0.93439],[-77.79154,0.9323],[-77.79124,0.93044],[-77.79089,0.92907],[-77.78993,0.92805],[-77.7878,0.92745],[-77.78673,0.92584],[-77.78435,0.92386],[-77.7828,0.92381],[-77.7812,0.92195],[-77.77858,0.921],[-77.77662,0.92046],[-77.7749,0.92004],[-77.77353,0.91675],[-77.77408,0.91598],[-77.77447,0.91328],[-77.77482,0.91184],[-77.77476,0.90995]],[[-77.79429,0.89759],[-77.79273,0.89903],[-77.7912,0.89932],[-77.7884,0.89965],[-77.78888,0.90066],[-77.78925,0.9019],[-77.78807,0.90224],[-77.78678,0.90363],[-77.78508,0.90616],[-77.7846,0.90683],[-77.78384,0.9088],[-77.78384,0.90961],[-77.78417,0.91143],[-77.78465,0.91162],[-77.78554,0.91162],[-77.79116,0.91162],[-77.7923,0.91181],[-77.79344,0.91243],[-77.79572,0.91161],[-77.7981,0.91056],[-77.79753,0.9097],[-77.79691,0.90884],[-77.79634,0.90802],[-77.79587,0.9074],[-77.7953,0.90674],[-77.79477,0.90616],[-77.79496,0.90516],[-77.79591,0.90448],[-77.79729,0.90367],[-77.7971,0.90276],[-77.79682,0.90118],[-77.7972,0.89999],[-77.79824,0.89962],[-77.799,0.89941],[-77.79815,0.89884],[-77.79738,0.89807],[-77.79686,0.89726],[-77.79638,0.89602],[-77.79576,0.8957],[-77.79429,0.89759]],[[-77.90495,0.94609],[-77.90419,0.94346],[-77.90524,0.9471],[-77.90495,0.94609]]]}},{"type":"Feature","properties":{"code":"PER-PCL","name":"Pucallpa - Ucayali","landscape_system":"Amazon","countries":["Peru"],"source_file":"aoiPCL_PER.shp","source_features_dissolved":12,"simplify_tolerance_deg":0.0005,"generated":"2026-09-29","source":"INEI referential census district limits (cartography of the V Censo Nacional Economico 2022; 'Distrital' layer, ide.inei.gob.pe): 11 whole districts of Coronel Portillo and Padre Abad provinces (Ucayali) and a clipped part of Calleria.","license":"other","license_url":null,"attribution":"Contains referential census district limits of the Instituto Nacional de Estadistica e Informatica (INEI), Peru (ide.inei.gob.pe); the limits are referential and have no demarcation value. Changes: districts dissolved into one outline, Calleria clipped, simplified. No licence is stated by INEI (to be confirmed).","pending_confirmation":true},"bbox":[-75.94789,-9.41844,-74.32246,-7.95005],"geometry":{"type":"Polygon","coordinates":[[[-75.76006,-9.22809],[-75.76186,-9.22464],[-75.76192,-9.22191],[-75.76351,-9.22019],[-75.76379,-9.2171],[-75.76784,-9.21831],[-75.77175,-9.2206],[-75.77254,-9.21981],[-75.77507,-9.21973],[-75.77593,-9.21743],[-75.78429,-9.20801],[-75.78949,-9.208],[-75.79136,-9.20541],[-75.79613,-9.20267],[-75.79568,-9.19449],[-75.79675,-9.19082],[-75.79522,-9.18552],[-75.79581,-9.18195],[-75.79868,-9.17873],[-75.79951,-9.17227],[-75.80095,-9.17028],[-75.80111,-9.16494],[-75.79963,-9.16173],[-75.8018,-9.1569],[-75.80245,-9.15178],[-75.80459,-9.14894],[-75.80616,-9.14006],[-75.80779,-9.13776],[-75.80779,-9.13565],[-75.80922,-9.13297],[-75.81384,-9.12903],[-75.81614,-9.12424],[-75.82152,-9.11897],[-75.82093,-9.11476],[-75.8216,-9.11131],[-75.81957,-9.10787],[-75.81946,-9.10385],[-75.82023,-9.10279],[-75.82013,-9.10059],[-75.822,-9.0988],[-75.82186,-9.09695],[-75.82502,-9.09005],[-75.83086,-9.08971],[-75.83423,-9.0863],[-75.83642,-9.08618],[-75.83787,-9.08489],[-75.83932,-9.07758],[-75.84082,-9.07393],[-75.83857,-9.07043],[-75.8389,-9.06797],[-75.83788,-9.06194],[-75.84382,-9.05869],[-75.84965,-9.05114],[-75.85341,-9.05191],[-75.85852,-9.05151],[-75.86004,-9.05006],[-75.86317,-9.0438],[-75.8631,-9.04106],[-75.86602,-9.0386],[-75.86657,-9.03569],[-75.87262,-9.0335],[-75.87475,-9.0316],[-75.87575,-9.02947],[-75.87647,-9.02405],[-75.87898,-9.01763],[-75.88307,-9.01287],[-75.88424,-9.01036],[-75.88756,-9.01012],[-75.89186,-9.00202],[-75.8945,-8.98371],[-75.89017,-8.98181],[-75.88571,-8.9811],[-75.88487,-8.98015],[-75.88449,-8.97405],[-75.88377,-8.97273],[-75.88521,-8.97046],[-75.88532,-8.9677],[-75.88844,-8.96279],[-75.88806,-8.95801],[-75.88986,-8.95573],[-75.88937,-8.94963],[-75.89105,-8.94723],[-75.89259,-8.93849],[-75.89653,-8.92807],[-75.89496,-8.92473],[-75.89712,-8.92365],[-75.89904,-8.91886],[-75.90252,-8.91681],[-75.90312,-8.9155],[-75.90034,-8.91191],[-75.90262,-8.90832],[-75.9031,-8.90568],[-75.90249,-8.90449],[-75.90272,-8.9009],[-75.90127,-8.89815],[-75.90601,-8.89812],[-75.90688,-8.89691],[-75.91051,-8.89633],[-75.9108,-8.89247],[-75.91206,-8.88914],[-75.91118,-8.88489],[-75.91532,-8.87788],[-75.91837,-8.87506],[-75.92096,-8.86896],[-75.92267,-8.86034],[-75.9218,-8.8588],[-75.92241,-8.85322],[-75.92524,-8.85075],[-75.92788,-8.84454],[-75.92694,-8.83616],[-75.92785,-8.8334],[-75.9275,-8.82898],[-75.92882,-8.82725],[-75.9292,-8.81743],[-75.92729,-8.81341],[-75.92877,-8.80801],[-75.92546,-8.7986],[-75.92534,-8.79579],[-75.92325,-8.79131],[-75.92165,-8.78081],[-75.92591,-8.77172],[-75.93017,-8.76694],[-75.93149,-8.76131],[-75.93661,-8.75464],[-75.93884,-8.74677],[-75.939,-8.74171],[-75.94003,-8.73775],[-75.94388,-8.73107],[-75.94495,-8.72653],[-75.94789,-8.72251],[-75.94433,-8.70982],[-75.93971,-8.70656],[-75.93212,-8.69693],[-75.92549,-8.69775],[-75.9234,-8.69443],[-75.91675,-8.68732],[-75.91078,-8.6782],[-75.90928,-8.67792],[-75.90553,-8.67977],[-75.90085,-8.67771],[-75.89767,-8.67004],[-75.89509,-8.66882],[-75.89132,-8.66022],[-75.87879,-8.65565],[-75.87544,-8.65566],[-75.87116,-8.65291],[-75.86735,-8.65309],[-75.86031,-8.6507],[-75.8569,-8.65086],[-75.85349,-8.64916],[-75.84531,-8.65498],[-75.83367,-8.65216],[-75.83097,-8.65016],[-75.82923,-8.64605],[-75.82432,-8.64223],[-75.82142,-8.63831],[-75.8168,-8.63602],[-75.81718,-8.63382],[-75.82073,-8.62864],[-75.82092,-8.62711],[-75.81772,-8.61726],[-75.81358,-8.61258],[-75.81236,-8.60771],[-75.80616,-8.6058],[-75.80153,-8.60274],[-75.80076,-8.59968],[-75.79931,-8.59921],[-75.79825,-8.59557],[-75.79507,-8.59299],[-75.79448,-8.58773],[-75.79246,-8.58563],[-75.79234,-8.5774],[-75.7908,-8.57453],[-75.79069,-8.57003],[-75.78493,-8.56238],[-75.78396,-8.56018],[-75.78453,-8.5576],[-75.78395,-8.55645],[-75.78001,-8.55349],[-75.77855,-8.54804],[-75.77825,-8.54373],[-75.78035,-8.53791],[-75.779,-8.53368],[-75.78216,-8.52544],[-75.78447,-8.5217],[-75.78945,-8.51901],[-75.79262,-8.51537],[-75.79589,-8.51469],[-75.79922,-8.51216],[-75.793,-8.51154],[-75.7904,-8.50934],[-75.7852,-8.50725],[-75.78221,-8.50371],[-75.78427,-8.50026],[-75.78754,-8.49719],[-75.78734,-8.49585],[-75.78455,-8.49433],[-75.78263,-8.4949],[-75.77897,-8.49357],[-75.77225,-8.49598],[-75.77013,-8.49809],[-75.76898,-8.4978],[-75.76647,-8.49427],[-75.76407,-8.49293],[-75.76069,-8.48739],[-75.75819,-8.48806],[-75.75251,-8.48587],[-75.7353,-8.48495],[-75.72489,-8.487],[-75.71646,-8.48689],[-75.71588,-8.48508],[-75.71751,-8.48044],[-75.7175,-8.47598],[-75.71441,-8.47101],[-75.71422,-8.46919],[-75.71527,-8.46814],[-75.71527,-8.46689],[-75.71219,-8.46422],[-75.71324,-8.46],[-75.70883,-8.45455],[-75.70814,-8.44651],[-75.70534,-8.44087],[-75.70216,-8.43925],[-75.69167,-8.42884],[-75.68732,-8.42329],[-75.67716,-8.42215],[-75.67196,-8.41819],[-75.65818,-8.41513],[-75.64813,-8.40975],[-75.64512,-8.40889],[-75.63407,-8.40802],[-75.6184,-8.40829],[-75.59906,-8.41198],[-75.59512,-8.41586],[-75.59341,-8.41906],[-75.5908,-8.42031],[-75.58828,-8.42357],[-75.58953,-8.42687],[-75.58873,-8.42816],[-75.58894,-8.43015],[-75.58814,-8.43214],[-75.58595,-8.43244],[-75.58445,-8.43403],[-75.58346,-8.44119],[-75.58217,-8.44198],[-75.57738,-8.44169],[-75.57448,-8.4405],[-75.57358,-8.4417],[-75.57354,-8.44355],[-75.57229,-8.44458],[-75.5652,-8.44419],[-75.55861,-8.44192],[-75.55032,-8.43577],[-75.54922,-8.43299],[-75.54642,-8.43239],[-75.53873,-8.43221],[-75.53275,-8.43321],[-75.53175,-8.4341],[-75.53185,-8.43788],[-75.52896,-8.43977],[-75.52727,-8.43997],[-75.52627,-8.43928],[-75.52646,-8.43709],[-75.51553,-8.43254],[-75.51084,-8.43204],[-75.48579,-8.43734],[-75.48209,-8.43725],[-75.4799,-8.43536],[-75.477,-8.43537],[-75.47521,-8.43616],[-75.47341,-8.43925],[-75.47122,-8.44084],[-75.47122,-8.44342],[-75.46544,-8.44691],[-75.46314,-8.44711],[-75.46029,-8.4492],[-75.45859,-8.44891],[-75.45759,-8.4498],[-75.4534,-8.4506],[-75.44891,-8.45001],[-75.44592,-8.45101],[-75.44082,-8.44773],[-75.43922,-8.44764],[-75.43823,-8.44873],[-75.43893,-8.44982],[-75.43554,-8.45221],[-75.43224,-8.45102],[-75.43044,-8.44844],[-75.42755,-8.44785],[-75.42645,-8.45103],[-75.42515,-8.45123],[-75.42386,-8.45272],[-75.42083,-8.45253],[-75.41956,-8.45153],[-75.41886,-8.44984],[-75.42016,-8.44587],[-75.41941,-8.44321],[-75.42065,-8.44239],[-75.42395,-8.44248],[-75.43242,-8.43492],[-75.43601,-8.42945],[-75.4395,-8.42607],[-75.4394,-8.42438],[-75.44339,-8.42239],[-75.44818,-8.42188],[-75.44958,-8.42099],[-75.45157,-8.4182],[-75.45236,-8.41204],[-75.45795,-8.41183],[-75.46014,-8.40955],[-75.46144,-8.40666],[-75.46133,-8.4013],[-75.46222,-8.39702],[-75.46382,-8.39384],[-75.4707,-8.38966],[-75.47419,-8.38965],[-75.47718,-8.38637],[-75.47628,-8.38398],[-75.48067,-8.3804],[-75.48146,-8.37782],[-75.48056,-8.37533],[-75.48136,-8.37205],[-75.48095,-8.36907],[-75.47937,-8.36739],[-75.47995,-8.3643],[-75.48174,-8.36291],[-75.48164,-8.36191],[-75.47745,-8.35705],[-75.47785,-8.35258],[-75.47965,-8.35094],[-75.48267,-8.34548],[-75.48368,-8.34476],[-75.48729,-8.34561],[-75.48902,-8.34403],[-75.49435,-8.34618],[-75.49882,-8.34589],[-75.50257,-8.34301],[-75.50444,-8.34014],[-75.50876,-8.33841],[-75.51005,-8.33482],[-75.50673,-8.33195],[-75.49779,-8.33139],[-75.49384,-8.32865],[-75.4964,-8.32293],[-75.49488,-8.31947],[-75.49288,-8.31888],[-75.4913,-8.31729],[-75.49134,-8.31215],[-75.4923,-8.31004],[-75.49691,-8.30577],[-75.49613,-8.30044],[-75.5002,-8.29527],[-75.50288,-8.28941],[-75.50155,-8.28616],[-75.49903,-8.28299],[-75.49653,-8.2753],[-75.48845,-8.2641],[-75.47496,-8.25627],[-75.47168,-8.25257],[-75.4731,-8.24746],[-75.47315,-8.24429],[-75.47107,-8.24095],[-75.46806,-8.23856],[-75.46722,-8.23615],[-75.46175,-8.23143],[-75.45881,-8.23052],[-75.45925,-8.22381],[-75.45737,-8.22123],[-75.45881,-8.21756],[-75.45708,-8.21577],[-75.45556,-8.21132],[-75.45297,-8.21007],[-75.45047,-8.20702],[-75.4486,-8.20261],[-75.4408,-8.19826],[-75.43768,-8.19497],[-75.43807,-8.19351],[-75.43701,-8.18787],[-75.43907,-8.18319],[-75.4368,-8.18221],[-75.4362,-8.18065],[-75.43924,-8.17487],[-75.43728,-8.17338],[-75.43692,-8.17179],[-75.43218,-8.1693],[-75.42978,-8.16652],[-75.42606,-8.16722],[-75.42421,-8.17001],[-75.41811,-8.17098],[-75.4102,-8.16889],[-75.4041,-8.16986],[-75.39813,-8.16847],[-75.39421,-8.16583],[-75.39118,-8.16253],[-75.38965,-8.15406],[-75.39013,-8.15255],[-75.38873,-8.15052],[-75.38676,-8.15006],[-75.3841,-8.14765],[-75.37615,-8.13878],[-75.36855,-8.13889],[-75.35821,-8.1343],[-75.35388,-8.13347],[-75.34554,-8.12941],[-75.34227,-8.12945],[-75.33049,-8.13376],[-75.32917,-8.13509],[-75.32848,-8.13868],[-75.32353,-8.13931],[-75.316,-8.13607],[-75.31061,-8.13605],[-75.30706,-8.13179],[-75.30255,-8.12971],[-75.2978,-8.12632],[-75.28789,-8.12549],[-75.28682,-8.12717],[-75.28509,-8.12733],[-75.28403,-8.12937],[-75.2796,-8.13177],[-75.27397,-8.13235],[-75.2715,-8.13656],[-75.26674,-8.13601],[-75.26297,-8.14112],[-75.26092,-8.14503],[-75.26049,-8.1476],[-75.25918,-8.14769],[-75.25836,-8.14937],[-75.25116,-8.15019],[-75.24728,-8.15477],[-75.24388,-8.15552],[-75.23952,-8.15113],[-75.23662,-8.15015],[-75.23541,-8.1505],[-75.23451,-8.14955],[-75.23361,-8.14484],[-75.23568,-8.1401],[-75.234,-8.13959],[-75.2274,-8.1323],[-75.21457,-8.12714],[-75.2124,-8.12393],[-75.21113,-8.11871],[-75.20954,-8.11624],[-75.20896,-8.11147],[-75.21011,-8.10962],[-75.2097,-8.10623],[-75.21188,-8.10325],[-75.21249,-8.10048],[-75.209,-8.10059],[-75.20755,-8.09876],[-75.20509,-8.09819],[-75.20438,-8.08887],[-75.20166,-8.08736],[-75.19885,-8.08755],[-75.19719,-8.08684],[-75.19294,-8.08136],[-75.19058,-8.08047],[-75.18932,-8.07904],[-75.1882,-8.07215],[-75.1959,-8.05269],[-75.19482,-8.05124],[-75.19152,-8.05038],[-75.19051,-8.04906],[-75.19089,-8.04424],[-75.18632,-8.03568],[-75.18727,-8.02334],[-75.1857,-8.01844],[-75.183,-8.01552],[-75.17884,-8.01378],[-75.17497,-8.01338],[-75.16824,-8.00546],[-75.15535,-8.00397],[-75.14943,-8.00182],[-75.14673,-7.99735],[-75.14606,-7.98194],[-75.14411,-7.97909],[-75.1212,-7.9789],[-75.09222,-7.97368],[-75.07056,-7.96047],[-75.03335,-7.95005],[-75.02339,-7.95777],[-75.01596,-7.96521],[-75.00553,-7.97015],[-74.98226,-7.96899],[-74.96314,-7.99415],[-74.9534,-8.01271],[-74.94645,-8.0211],[-74.93357,-8.03165],[-74.93103,-8.03818],[-74.92902,-8.04121],[-74.90791,-8.0662],[-74.90194,-8.0751],[-74.89644,-8.08127],[-74.89176,-8.08384],[-74.88793,-8.0842],[-74.8844,-8.0839],[-74.86588,-8.07693],[-74.84038,-8.05835],[-74.83557,-8.05704],[-74.82484,-8.05784],[-74.81931,-8.05748],[-74.7877,-8.04679],[-74.77903,-8.04238],[-74.77126,-8.03606],[-74.76778,-8.03049],[-74.76391,-8.02082],[-74.76057,-8.01641],[-74.72794,-7.98101],[-74.72253,-7.9793],[-74.71462,-7.98016],[-74.71128,-7.979],[-74.69113,-7.96184],[-74.6808,-7.96414],[-74.66261,-7.96382],[-74.65553,-7.96502],[-74.65099,-7.96702],[-74.64979,-7.97084],[-74.65233,-7.97467],[-74.67024,-7.98269],[-74.68278,-7.98619],[-74.68728,-7.98851],[-74.69146,-7.99203],[-74.69326,-7.99478],[-74.69611,-8.00096],[-74.69649,-8.01046],[-74.69592,-8.01967],[-74.6925,-8.03069],[-74.68813,-8.03696],[-74.67636,-8.04515],[-74.66764,-8.04981],[-74.6575,-8.05286],[-74.63879,-8.05407],[-74.61925,-8.05197],[-74.61293,-8.052],[-74.60663,-8.05376],[-74.59964,-8.05975],[-74.59787,-8.06343],[-74.59722,-8.06851],[-74.59899,-8.07641],[-74.60502,-8.08805],[-74.6206,-8.10672],[-74.62495,-8.11079],[-74.63128,-8.11938],[-74.6396,-8.12721],[-74.64381,-8.13265],[-74.64829,-8.14042],[-74.65187,-8.14877],[-74.65411,-8.16062],[-74.65493,-8.17537],[-74.65455,-8.18204],[-74.65256,-8.18812],[-74.64747,-8.18967],[-74.63867,-8.18915],[-74.63036,-8.18566],[-74.62045,-8.17857],[-74.61262,-8.17644],[-74.60681,-8.17719],[-74.60217,-8.17932],[-74.60031,-8.18156],[-74.59743,-8.19397],[-74.59297,-8.19985],[-74.57862,-8.20882],[-74.56715,-8.21433],[-74.54959,-8.22967],[-74.53711,-8.2445],[-74.5345,-8.25257],[-74.53029,-8.25808],[-74.52404,-8.26392],[-74.51276,-8.27264],[-74.52413,-8.2801],[-74.53073,-8.29672],[-74.51957,-8.3099],[-74.51361,-8.32871],[-74.48845,-8.35391],[-74.46691,-8.41639],[-74.45638,-8.40738],[-74.45296,-8.4067],[-74.44883,-8.40711],[-74.44285,-8.40958],[-74.43592,-8.41422],[-74.42781,-8.42032],[-74.42451,-8.42448],[-74.42254,-8.43203],[-74.42421,-8.45845],[-74.41975,-8.48628],[-74.41561,-8.49593],[-74.40741,-8.50566],[-74.40076,-8.51183],[-74.3835,-8.52202],[-74.37636,-8.52381],[-74.37119,-8.52376],[-74.3681,-8.52282],[-74.36542,-8.52323],[-74.32246,-8.53177],[-74.32872,-8.53527],[-74.3399,-8.5398],[-74.35336,-8.54893],[-74.35953,-8.55223],[-74.3766,-8.55628],[-74.39262,-8.56245],[-74.40466,-8.56542],[-74.41923,-8.57167],[-74.42322,-8.57439],[-74.42387,-8.58021],[-74.41779,-8.61887],[-74.42038,-8.62475],[-74.42586,-8.63232],[-74.43377,-8.64991],[-74.43607,-8.65692],[-74.44298,-8.66984],[-74.44836,-8.68912],[-74.45204,-8.69509],[-74.46425,-8.70653],[-74.48594,-8.72464],[-74.52535,-8.74932],[-74.52779,-8.71097],[-74.53612,-8.62986],[-74.54139,-8.60858],[-74.54375,-8.5937],[-74.54713,-8.58457],[-74.55694,-8.57307],[-74.57757,-8.55379],[-74.58975,-8.54872],[-74.61782,-8.54872],[-74.63033,-8.55041],[-74.64419,-8.55413],[-74.66415,-8.56191],[-74.68693,-8.57839],[-74.79753,-8.63171],[-74.84715,-8.66152],[-74.84682,-8.67039],[-74.84191,-8.67638],[-74.84078,-8.67907],[-74.84155,-8.68227],[-74.84641,-8.6879],[-74.84798,-8.69198],[-74.84869,-8.7028],[-74.84651,-8.71351],[-74.8492,-8.7194],[-74.85042,-8.72433],[-74.85056,-8.75689],[-74.8522,-8.76309],[-74.86043,-8.77522],[-74.86534,-8.78095],[-74.89574,-8.80476],[-74.90633,-8.81629],[-74.91131,-8.82328],[-74.94071,-8.85789],[-74.95447,-8.86357],[-74.95639,-8.86607],[-74.96274,-8.86851],[-74.97898,-8.87165],[-74.98876,-8.8715],[-75.00095,-8.8693],[-75.005,-8.86973],[-75.00624,-8.8658],[-75.00833,-8.86344],[-75.01198,-8.86238],[-75.01473,-8.8605],[-75.01949,-8.8605],[-75.0224,-8.85853],[-75.02383,-8.85926],[-75.02622,-8.86329],[-75.0321,-8.86738],[-75.03953,-8.86848],[-75.0437,-8.86747],[-75.04708,-8.86836],[-75.04984,-8.8705],[-75.05379,-8.87569],[-75.05793,-8.87789],[-75.06181,-8.87871],[-75.06322,-8.88127],[-75.06471,-8.88228],[-75.06737,-8.88141],[-75.06934,-8.87541],[-75.07294,-8.87312],[-75.07562,-8.87398],[-75.07848,-8.8735],[-75.08844,-8.87627],[-75.09611,-8.87671],[-75.104,-8.88026],[-75.10794,-8.87986],[-75.1076,-8.88177],[-75.10887,-8.88257],[-75.11884,-8.8798],[-75.12092,-8.87986],[-75.12259,-8.88095],[-75.12285,-8.88443],[-75.11986,-8.89324],[-75.12055,-8.89963],[-75.1201,-8.901],[-75.11866,-8.90145],[-75.12008,-8.90434],[-75.11943,-8.90718],[-75.11762,-8.91139],[-75.11569,-8.91268],[-75.11544,-8.91453],[-75.1135,-8.91648],[-75.11292,-8.91928],[-75.10961,-8.92032],[-75.10841,-8.92229],[-75.10995,-8.92377],[-75.1094,-8.92701],[-75.11045,-8.92953],[-75.11775,-8.9314],[-75.12065,-8.93664],[-75.12272,-8.93594],[-75.12559,-8.93689],[-75.12907,-8.93585],[-75.13089,-8.93974],[-75.13341,-8.94159],[-75.13485,-8.94597],[-75.13253,-8.95184],[-75.12901,-8.95246],[-75.12694,-8.95447],[-75.12446,-8.95318],[-75.1235,-8.95719],[-75.12011,-8.9607],[-75.12002,-8.96275],[-75.1214,-8.96433],[-75.11942,-8.96886],[-75.12131,-8.97258],[-75.12026,-8.97577],[-75.12236,-8.97808],[-75.12177,-8.97963],[-75.11958,-8.98118],[-75.11972,-8.98348],[-75.12112,-8.98524],[-75.12576,-8.98733],[-75.12818,-8.98736],[-75.12981,-8.98594],[-75.13453,-8.98876],[-75.13623,-8.98779],[-75.13756,-8.98836],[-75.13679,-8.99125],[-75.14009,-8.99433],[-75.13851,-8.99802],[-75.13921,-8.9995],[-75.14238,-8.99957],[-75.14566,-8.99761],[-75.14731,-8.998],[-75.14939,-9.00028],[-75.15231,-8.99874],[-75.15435,-8.99913],[-75.15533,-9.00332],[-75.15467,-9.00427],[-75.15681,-9.01031],[-75.16158,-9.00909],[-75.17386,-9.01158],[-75.17453,-9.01253],[-75.17372,-9.01611],[-75.17548,-9.01618],[-75.1763,-9.02064],[-75.17571,-9.02473],[-75.17086,-9.02715],[-75.16563,-9.02832],[-75.16387,-9.03139],[-75.16269,-9.03205],[-75.1624,-9.03395],[-75.16667,-9.03505],[-75.16976,-9.03856],[-75.17035,-9.04133],[-75.17241,-9.04199],[-75.17638,-9.04155],[-75.17991,-9.0444],[-75.18066,-9.04737],[-75.18305,-9.04754],[-75.18364,-9.049],[-75.18548,-9.04886],[-75.18659,-9.05061],[-75.18885,-9.05193],[-75.18959,-9.05456],[-75.19187,-9.05412],[-75.19282,-9.05485],[-75.19305,-9.05602],[-75.19489,-9.05719],[-75.1954,-9.0607],[-75.19445,-9.06253],[-75.19496,-9.06326],[-75.19842,-9.06252],[-75.20055,-9.06289],[-75.20121,-9.06384],[-75.19997,-9.06611],[-75.20048,-9.06727],[-75.19967,-9.06837],[-75.19607,-9.06954],[-75.19467,-9.07313],[-75.19607,-9.0759],[-75.20108,-9.07722],[-75.2049,-9.08029],[-75.20608,-9.08555],[-75.20535,-9.08782],[-75.20609,-9.09323],[-75.20844,-9.09703],[-75.20741,-9.09842],[-75.20528,-9.09937],[-75.20646,-9.10134],[-75.20845,-9.10178],[-75.20977,-9.10324],[-75.21337,-9.10178],[-75.21566,-9.10331],[-75.22139,-9.10477],[-75.22662,-9.10301],[-75.23044,-9.10338],[-75.23579,-9.09979],[-75.24058,-9.10015],[-75.2419,-9.10212],[-75.24065,-9.10659],[-75.23521,-9.11048],[-75.23551,-9.11405],[-75.2347,-9.11712],[-75.23323,-9.11675],[-75.23176,-9.11844],[-75.23264,-9.12048],[-75.23169,-9.12297],[-75.23346,-9.12487],[-75.2339,-9.12882],[-75.2325,-9.13094],[-75.23184,-9.1343],[-75.22942,-9.13452],[-75.22905,-9.1365],[-75.23067,-9.14125],[-75.22854,-9.14432],[-75.22803,-9.14622],[-75.22875,-9.1477],[-75.2203,-9.15127],[-75.21648,-9.15508],[-75.21634,-9.15807],[-75.21479,-9.16114],[-75.21553,-9.16655],[-75.21244,-9.17007],[-75.21289,-9.17226],[-75.21193,-9.17643],[-75.21443,-9.17767],[-75.21914,-9.17825],[-75.22091,-9.18008],[-75.22069,-9.18315],[-75.22261,-9.19002],[-75.23122,-9.20025],[-75.23138,-9.20486],[-75.233,-9.20932],[-75.2422,-9.22093],[-75.24895,-9.22656],[-75.25426,-9.22963],[-75.25669,-9.23248],[-75.26669,-9.23218],[-75.27192,-9.23342],[-75.27251,-9.23722],[-75.27185,-9.23978],[-75.27016,-9.24117],[-75.26891,-9.24373],[-75.26811,-9.25001],[-75.26853,-9.25273],[-75.2721,-9.26039],[-75.27227,-9.26804],[-75.27401,-9.27044],[-75.27651,-9.27197],[-75.27902,-9.27627],[-75.28577,-9.27828],[-75.28838,-9.28287],[-75.29262,-9.28344],[-75.30014,-9.28994],[-75.30245,-9.28956],[-75.3039,-9.29071],[-75.30332,-9.29367],[-75.30429,-9.29702],[-75.31393,-9.30209],[-75.31903,-9.29366],[-75.33406,-9.28876],[-75.33647,-9.28982],[-75.33782,-9.29192],[-75.34061,-9.29393],[-75.34071,-9.29498],[-75.34457,-9.29574],[-75.34428,-9.29814],[-75.34843,-9.30024],[-75.34843,-9.30292],[-75.34949,-9.30454],[-75.35244,-9.30515],[-75.35782,-9.30782],[-75.36457,-9.30586],[-75.37215,-9.31023],[-75.37618,-9.30889],[-75.3773,-9.30765],[-75.38049,-9.30798],[-75.38323,-9.30727],[-75.3906,-9.3013],[-75.39314,-9.30016],[-75.39611,-9.29963],[-75.40129,-9.30177],[-75.40475,-9.30148],[-75.40685,-9.30048],[-75.40958,-9.29657],[-75.41849,-9.29261],[-75.42104,-9.29303],[-75.42809,-9.29636],[-75.43609,-9.29525],[-75.44046,-9.29729],[-75.45197,-9.29634],[-75.45164,-9.29885],[-75.45361,-9.30155],[-75.45322,-9.30741],[-75.45403,-9.30862],[-75.45618,-9.31942],[-75.45625,-9.325],[-75.46072,-9.33189],[-75.46436,-9.33545],[-75.46674,-9.34101],[-75.4705,-9.34406],[-75.47283,-9.34836],[-75.48141,-9.35967],[-75.48408,-9.36702],[-75.48669,-9.37133],[-75.49439,-9.37735],[-75.50293,-9.37996],[-75.50596,-9.38199],[-75.50967,-9.38315],[-75.51796,-9.38217],[-75.52167,-9.38332],[-75.52596,-9.38652],[-75.53328,-9.38854],[-75.53864,-9.39347],[-75.55056,-9.39626],[-75.56247,-9.40118],[-75.56514,-9.40101],[-75.57449,-9.40272],[-75.57966,-9.40222],[-75.5822,-9.4028],[-75.58455,-9.40551],[-75.58631,-9.40628],[-75.58952,-9.40637],[-75.59441,-9.40791],[-75.59812,-9.41227],[-75.60066,-9.41381],[-75.60339,-9.41245],[-75.60455,-9.40964],[-75.6067,-9.40857],[-75.60757,-9.40712],[-75.61138,-9.40614],[-75.61226,-9.40769],[-75.61236,-9.41186],[-75.61666,-9.41408],[-75.62407,-9.41232],[-75.62514,-9.41096],[-75.63002,-9.41086],[-75.6348,-9.41307],[-75.64349,-9.41277],[-75.64886,-9.4145],[-75.65227,-9.41469],[-75.65559,-9.41662],[-75.66252,-9.41806],[-75.67045,-9.41794],[-75.67046,-9.41451],[-75.6685,-9.40899],[-75.66871,-9.40554],[-75.6713,-9.40202],[-75.67195,-9.39707],[-75.67093,-9.39355],[-75.67113,-9.38587],[-75.67409,-9.38256],[-75.67835,-9.38133],[-75.68072,-9.37537],[-75.68339,-9.37386],[-75.68563,-9.36976],[-75.68844,-9.36911],[-75.69025,-9.3676],[-75.69307,-9.36752],[-75.69501,-9.36393],[-75.6937,-9.36077],[-75.69406,-9.35862],[-75.69326,-9.35646],[-75.69037,-9.35381],[-75.68862,-9.34937],[-75.69761,-9.34597],[-75.69855,-9.34382],[-75.69833,-9.34131],[-75.70569,-9.33627],[-75.70684,-9.33311],[-75.70661,-9.32823],[-75.70791,-9.32398],[-75.71093,-9.31867],[-75.7115,-9.31565],[-75.71078,-9.314],[-75.71604,-9.30796],[-75.71531,-9.3033],[-75.71797,-9.29855],[-75.7171,-9.29676],[-75.71746,-9.29504],[-75.71644,-9.29066],[-75.71817,-9.28786],[-75.71708,-9.28456],[-75.72024,-9.27723],[-75.72385,-9.27564],[-75.7258,-9.27578],[-75.72905,-9.27348],[-75.7297,-9.27376],[-75.73035,-9.27261],[-75.72969,-9.27017],[-75.73041,-9.26795],[-75.73474,-9.26708],[-75.74019,-9.26383],[-75.74293,-9.25986],[-75.74378,-9.25569],[-75.74349,-9.25217],[-75.74457,-9.24959],[-75.74976,-9.24426],[-75.75481,-9.2426],[-75.75957,-9.23886],[-75.76396,-9.23785],[-75.76412,-9.23684],[-75.7592,-9.23204],[-75.76021,-9.2311],[-75.76006,-9.22809]]]}},{"type":"Feature","properties":{"code":"TUN-NW","name":"Northwestern Tunisia","landscape_system":"Dryland Mediterranean","countries":["Tunisia"],"source_file":"Tunisia_ALL_TUN.shp","source_features_dissolved":6,"simplify_tolerance_deg":0.0005,"generated":"2026-09-29","source":"Tunisia - Subnational Administrative Boundaries (COD-AB) v01, admin level 4, valid 2022-11-15; source Institut National de la Statistique Tunisie (INS), published by OCHA on HDX. Union of 7 sectors: Bousliaa, El Marja and Elles (Es Sers, Le Kef); El Ahouez Sud (Gaafour), Hammam Biadha Sud (El Krib), Chouarnia (Makthar) and Kesra (Kesra) (Siliana).","license":"CC-BY-3.0-IGO","license_url":"https://creativecommons.org/licenses/by/3.0/igo/legalcode","attribution":"Contains data from 'Tunisia - Subnational Administrative Boundaries' (COD-AB), source: Institut National de la Statistique Tunisie (INS), published by UN OCHA on the Humanitarian Data Exchange (https://data.humdata.org/dataset/cod-ab-tun), licensed under CC BY-IGO 3.0. Changes: seven admin-4 sectors dissolved into one outline and simplified."},"bbox":[8.92352,35.73839,9.44657,36.43239],"geometry":{"type":"MultiPolygon","coordinates":[[[[9.39246,35.85312],[9.39376,35.84938],[9.39488,35.84804],[9.39716,35.84716],[9.39891,35.84442],[9.40681,35.8454],[9.40759,35.8451],[9.40651,35.84342],[9.40795,35.84318],[9.41296,35.84331],[9.41464,35.8422],[9.42757,35.84192],[9.427,35.83959],[9.42349,35.83532],[9.42835,35.83464],[9.43178,35.83545],[9.4346,35.83419],[9.4369,35.8348],[9.43769,35.83419],[9.43709,35.83157],[9.43526,35.83031],[9.42935,35.83002],[9.42707,35.8275],[9.42539,35.82917],[9.42224,35.82792],[9.41889,35.82364],[9.41618,35.82516],[9.41369,35.82374],[9.41363,35.82137],[9.41221,35.81811],[9.41279,35.81687],[9.41748,35.81475],[9.41989,35.81509],[9.4194,35.814],[9.42156,35.81176],[9.42563,35.81049],[9.42388,35.80875],[9.42137,35.80994],[9.41887,35.80975],[9.41696,35.81247],[9.41471,35.81319],[9.41176,35.81267],[9.40912,35.80979],[9.40436,35.81024],[9.40102,35.80933],[9.39939,35.79509],[9.40172,35.79201],[9.40322,35.78659],[9.40903,35.77645],[9.41068,35.77046],[9.41008,35.76774],[9.41051,35.76322],[9.40779,35.76437],[9.39687,35.76413],[9.38706,35.75917],[9.38293,35.75346],[9.38164,35.74867],[9.38176,35.74329],[9.38301,35.7389],[9.38043,35.7398],[9.37864,35.74193],[9.37793,35.7411],[9.37817,35.73931],[9.37694,35.73839],[9.37599,35.73905],[9.3762,35.74126],[9.3743,35.74061],[9.37298,35.74303],[9.37138,35.74356],[9.36993,35.74234],[9.36802,35.74373],[9.36527,35.74306],[9.36348,35.74399],[9.36098,35.74353],[9.35761,35.74725],[9.35577,35.74808],[9.35378,35.74668],[9.35173,35.74862],[9.3452,35.7491],[9.34498,35.7496],[9.34623,35.75019],[9.34514,35.75097],[9.3413,35.75071],[9.33672,35.75355],[9.33537,35.7529],[9.33301,35.7565],[9.33486,35.75693],[9.33367,35.75873],[9.33094,35.75821],[9.32984,35.75966],[9.329,35.75823],[9.3293,35.7556],[9.32711,35.75644],[9.32665,35.75475],[9.32578,35.75433],[9.32384,35.7549],[9.32525,35.7564],[9.32467,35.75714],[9.3218,35.75608],[9.31903,35.7568],[9.31289,35.76195],[9.31358,35.7658],[9.31256,35.76783],[9.3144,35.76956],[9.31348,35.77176],[9.3117,35.7732],[9.31241,35.77778],[9.31514,35.77995],[9.31545,35.78132],[9.31649,35.78102],[9.3172,35.78354],[9.31972,35.78555],[9.32067,35.78521],[9.3202,35.78565],[9.32121,35.78598],[9.32118,35.78681],[9.32262,35.78675],[9.32283,35.78745],[9.32378,35.78674],[9.3261,35.78722],[9.33071,35.7894],[9.33196,35.7911],[9.33362,35.79625],[9.33234,35.79898],[9.33273,35.80175],[9.33436,35.80286],[9.3344,35.80667],[9.33528,35.80763],[9.33442,35.81016],[9.33637,35.81261],[9.33593,35.8142],[9.33671,35.81429],[9.33595,35.81934],[9.33433,35.82025],[9.33065,35.82633],[9.33402,35.83121],[9.33742,35.83313],[9.33981,35.83782],[9.34237,35.83803],[9.3433,35.83707],[9.34897,35.83982],[9.35243,35.83918],[9.35639,35.83725],[9.36032,35.83824],[9.36557,35.83685],[9.36688,35.8344],[9.36874,35.83379],[9.37032,35.83488],[9.37118,35.83706],[9.37607,35.83911],[9.37566,35.84069],[9.37823,35.84403],[9.38567,35.84971],[9.38526,35.85309],[9.3912,35.85465],[9.39246,35.85312]]],[[[9.14507,35.96393],[9.14513,35.9619],[9.14436,35.96104],[9.14581,35.96043],[9.1447,35.95925],[9.14579,35.95911],[9.14584,35.95658],[9.1479,35.95527],[9.15032,35.95152],[9.15597,35.94879],[9.15805,35.94561],[9.16253,35.94254],[9.16706,35.93409],[9.16511,35.93205],[9.16543,35.9305],[9.1561,35.92873],[9.15476,35.92711],[9.15213,35.92791],[9.14735,35.9273],[9.13991,35.92799],[9.13907,35.92651],[9.13468,35.92402],[9.12776,35.92351],[9.1216,35.9217],[9.11779,35.92257],[9.11511,35.92174],[9.1076,35.92195],[9.10069,35.92384],[9.09915,35.92498],[9.09786,35.92785],[9.09883,35.92965],[9.09789,35.93211],[9.09822,35.94588],[9.09379,35.94309],[9.08553,35.94352],[9.07926,35.94952],[9.0704,35.95568],[9.06872,35.95825],[9.06857,35.9617],[9.06755,35.9626],[9.06887,35.96684],[9.0661,35.96666],[9.05566,35.96211],[9.04048,35.96107],[9.02531,35.96543],[9.00678,35.96464],[9.00173,35.96769],[8.99666,35.96801],[8.98664,35.97255],[8.98358,35.97314],[8.97996,35.97519],[8.98398,35.97707],[8.97677,35.97954],[8.97489,35.98415],[8.97133,35.98962],[8.97074,35.99182],[8.9719,35.99395],[8.96998,35.99451],[8.97104,35.99714],[8.96981,36.00236],[8.97209,36.00489],[8.97214,36.00722],[8.95252,36.02123],[8.94835,36.02522],[8.9455,36.0298],[8.94364,36.04017],[8.93945,36.05341],[8.93688,36.0574],[8.93569,36.06707],[8.94269,36.0705],[8.93028,36.07332],[8.92352,36.07796],[8.9447,36.09728],[8.94808,36.09597],[8.95432,36.09024],[8.98012,36.08093],[8.98774,36.07904],[8.99042,36.07721],[9.00285,36.0755],[9.00189,36.07215],[9.01687,36.0724],[9.01874,36.07335],[9.01851,36.07224],[9.02004,36.07179],[9.02059,36.07078],[9.02435,36.07117],[9.02233,36.06637],[9.0208,36.06505],[9.02101,36.0614],[9.02162,36.06105],[9.02107,36.05961],[9.02337,36.05599],[9.02438,36.05523],[9.02811,36.05632],[9.03373,36.05965],[9.04115,36.05521],[9.04175,36.05331],[9.04322,36.0531],[9.04662,36.04981],[9.0491,36.04992],[9.05167,36.05175],[9.07603,36.05825],[9.08148,36.06121],[9.08547,36.06146],[9.08943,36.05898],[9.09996,36.05765],[9.10241,36.06138],[9.10493,36.0688],[9.11056,36.06485],[9.11317,36.06475],[9.12296,36.05434],[9.12303,36.05336],[9.11491,36.04092],[9.11323,36.03711],[9.10935,36.02657],[9.11035,36.02435],[9.10869,36.02349],[9.08551,36.02166],[9.09737,36.01624],[9.10602,36.00874],[9.10721,36.00693],[9.10672,36.00456],[9.10914,36.00113],[9.10928,35.99976],[9.11091,35.99914],[9.11243,35.99706],[9.11262,35.99438],[9.1146,35.99208],[9.11452,35.99063],[9.1155,35.98917],[9.11492,35.9884],[9.11863,35.98726],[9.11877,35.98579],[9.12155,35.98352],[9.12247,35.98055],[9.12159,35.97851],[9.12837,35.98068],[9.14336,35.98884],[9.14551,35.98719],[9.14609,35.9838],[9.14416,35.98174],[9.14488,35.97866],[9.14472,35.97621],[9.14382,35.97529],[9.14562,35.97291],[9.14644,35.96999],[9.14563,35.96865],[9.14677,35.96682],[9.14581,35.96511],[9.14631,35.9642],[9.14507,35.96393]]],[[[9.26649,36.31297],[9.27193,36.31057],[9.27729,36.30935],[9.27904,36.30964],[9.28114,36.30834],[9.2867,36.30745],[9.29085,36.30558],[9.29734,36.3041],[9.29849,36.30289],[9.303,36.30173],[9.3059,36.2998],[9.31168,36.30245],[9.31804,36.30001],[9.32015,36.29995],[9.32183,36.30282],[9.32291,36.30109],[9.32305,36.29838],[9.31902,36.29776],[9.31823,36.29624],[9.31943,36.29467],[9.32171,36.29485],[9.32235,36.2939],[9.31897,36.29179],[9.31434,36.29028],[9.31346,36.287],[9.30632,36.28215],[9.30589,36.28087],[9.31107,36.28063],[9.31538,36.27903],[9.31694,36.27912],[9.31899,36.28074],[9.32545,36.28088],[9.3259,36.28023],[9.3249,36.27737],[9.32708,36.2753],[9.32281,36.27035],[9.32664,36.26989],[9.32631,36.26818],[9.32984,36.2686],[9.33976,36.26646],[9.34277,36.26481],[9.3453,36.26199],[9.34587,36.25979],[9.352,36.25468],[9.37023,36.2509],[9.37591,36.24902],[9.39324,36.24923],[9.39553,36.24718],[9.39619,36.24458],[9.40334,36.24055],[9.41036,36.23262],[9.41453,36.22981],[9.42321,36.22881],[9.42722,36.22731],[9.43687,36.22639],[9.44638,36.22784],[9.44607,36.22653],[9.44433,36.22434],[9.4416,36.22304],[9.43498,36.22191],[9.42944,36.21862],[9.42821,36.21646],[9.42862,36.21178],[9.42711,36.20705],[9.42593,36.2051],[9.42434,36.20503],[9.4209,36.20858],[9.41824,36.20965],[9.41236,36.21461],[9.40977,36.21857],[9.40341,36.22055],[9.40172,36.22528],[9.40153,36.2333],[9.39695,36.23386],[9.39268,36.23547],[9.3892,36.23547],[9.3863,36.23655],[9.38061,36.2341],[9.37841,36.23477],[9.37775,36.23395],[9.37635,36.23421],[9.37431,36.23334],[9.37159,36.23046],[9.37239,36.22853],[9.37137,36.2299],[9.37144,36.23199],[9.37013,36.23366],[9.36693,36.23225],[9.35194,36.23218],[9.34494,36.22854],[9.33896,36.22902],[9.33691,36.22833],[9.33424,36.22596],[9.32959,36.22751],[9.32779,36.23023],[9.32125,36.23013],[9.31861,36.22898],[9.31077,36.22923],[9.31007,36.22824],[9.31045,36.22702],[9.31311,36.22661],[9.31344,36.22408],[9.31439,36.22307],[9.31609,36.22302],[9.31886,36.22443],[9.3205,36.22376],[9.32077,36.2197],[9.31163,36.21283],[9.31126,36.21146],[9.30484,36.21167],[9.30421,36.2109],[9.30474,36.2089],[9.30813,36.20632],[9.30451,36.20229],[9.30328,36.2024],[9.30407,36.20154],[9.30305,36.19974],[9.30374,36.19825],[9.29963,36.20011],[9.29778,36.20164],[9.29479,36.20658],[9.29438,36.20978],[9.29017,36.21277],[9.28993,36.21617],[9.28441,36.21969],[9.28406,36.22638],[9.2828,36.22971],[9.27968,36.2338],[9.27444,36.23689],[9.26865,36.2432],[9.26775,36.24553],[9.26801,36.24895],[9.26536,36.25011],[9.26359,36.2531],[9.26071,36.25486],[9.26277,36.25699],[9.25587,36.26339],[9.25269,36.26177],[9.24674,36.26838],[9.24664,36.27001],[9.25561,36.28888],[9.25524,36.29187],[9.24079,36.29151],[9.23695,36.29257],[9.23611,36.29368],[9.23545,36.29788],[9.2364,36.30222],[9.23966,36.30632],[9.24432,36.30874],[9.24713,36.31167],[9.25598,36.3163],[9.26649,36.31297]]],[[[9.04884,36.43068],[9.05116,36.43037],[9.05109,36.42964],[9.05392,36.42829],[9.05432,36.42704],[9.0583,36.42485],[9.05997,36.42548],[9.06051,36.42419],[9.0621,36.42742],[9.06572,36.42892],[9.07244,36.43063],[9.07352,36.42954],[9.0761,36.429],[9.07874,36.42615],[9.07916,36.42444],[9.08397,36.42124],[9.08891,36.41948],[9.08863,36.41845],[9.08957,36.41836],[9.0904,36.41694],[9.09039,36.41428],[9.09101,36.41399],[9.09023,36.41378],[9.09007,36.41258],[9.08587,36.40904],[9.08578,36.40792],[9.08308,36.40778],[9.08189,36.40662],[9.08388,36.40612],[9.0861,36.40283],[9.0883,36.40236],[9.09164,36.40269],[9.09349,36.40207],[9.09667,36.40338],[9.09888,36.40329],[9.1017,36.40108],[9.10789,36.39923],[9.11198,36.39667],[9.11327,36.39494],[9.11244,36.39335],[9.11341,36.39139],[9.11307,36.39003],[9.11488,36.38801],[9.11627,36.38373],[9.11549,36.38178],[9.11539,36.37653],[9.11433,36.37499],[9.11406,36.37154],[9.11273,36.36881],[9.11566,36.36563],[9.11381,36.36499],[9.11391,36.3635],[9.10711,36.36465],[9.10559,36.36392],[9.10151,36.35711],[9.09837,36.35563],[9.09771,36.35362],[9.09589,36.35235],[9.09568,36.35071],[9.09481,36.35009],[9.09505,36.34869],[9.09393,36.34763],[9.08704,36.34616],[9.08057,36.34627],[9.08014,36.34418],[9.07884,36.34273],[9.07291,36.34382],[9.07234,36.34045],[9.06967,36.34004],[9.06876,36.33916],[9.06424,36.33956],[9.05985,36.3374],[9.0567,36.33732],[9.05207,36.33932],[9.04785,36.33975],[9.04493,36.34102],[9.04354,36.34328],[9.03988,36.34618],[9.04052,36.34922],[9.03545,36.35354],[9.03488,36.35652],[9.03621,36.35913],[9.03414,36.36237],[9.03188,36.36187],[9.03181,36.36325],[9.02867,36.36243],[9.02847,36.36331],[9.02732,36.36314],[9.02527,36.36488],[9.02279,36.36423],[9.02078,36.36543],[9.01933,36.36752],[9.01641,36.36779],[9.01446,36.37047],[9.01219,36.37044],[9.01089,36.37126],[9.00761,36.37095],[9.00394,36.37204],[8.99809,36.37198],[8.99387,36.37315],[8.99152,36.37489],[8.98935,36.37502],[8.98758,36.37661],[8.9859,36.37627],[8.98401,36.37703],[8.98365,36.37892],[8.98238,36.37912],[8.98018,36.38174],[8.97804,36.3805],[8.97671,36.38143],[8.97586,36.37959],[8.96806,36.38284],[8.96671,36.38433],[8.96534,36.38952],[8.96316,36.39312],[8.96345,36.39525],[8.96732,36.39619],[8.97145,36.39572],[8.97716,36.39984],[8.98677,36.40305],[8.99294,36.40792],[9.00016,36.40828],[9.00253,36.40914],[9.00623,36.40785],[9.01496,36.41422],[9.0181,36.41558],[9.01898,36.41751],[9.01937,36.41701],[9.02502,36.41777],[9.02801,36.41892],[9.03317,36.41877],[9.03682,36.41822],[9.04014,36.41588],[9.04429,36.41623],[9.04597,36.41707],[9.04645,36.41835],[9.04823,36.41896],[9.04886,36.42063],[9.04925,36.42229],[9.04759,36.42525],[9.04894,36.42635],[9.04934,36.42799],[9.04685,36.43089],[9.04685,36.43239],[9.04884,36.43068]]]]}},{"type":"Feature","properties":{"code":"ETH-OG","name":"Omo-Gibe Basin","landscape_system":"East-South Africa Highland-Lowland-Rift Valley System","countries":["Ethiopia"],"source_file":"Omo_Gibe_LL_ETH.shp","source_features_dissolved":1,"simplify_tolerance_deg":0.001,"generated":"2026-09-29","source":"Ethiopia River Basins (eth_basins), World Bank Group, World Bank Data Catalog dataset 0040202: Omo basin polygon (79,549 km2).","license":"CC-BY-4.0","license_url":"https://creativecommons.org/licenses/by/4.0/","attribution":"Contains data from 'Ethiopia River Basins', World Bank Group (World Bank Data Catalog, dataset 0040202), licensed under CC BY 4.0. Changes: Omo basin polygon extracted, reprojected from Adindan / UTM zone 37N to WGS 84, trimmed near the Kenya border (about 255 km2) and simplified."},"bbox":[34.95333,4.43102,38.41284,9.36914],"geometry":{"type":"Polygon","coordinates":[[[36.66319,5.80191],[36.66359,5.8147],[36.66643,5.81861],[36.67772,5.82036],[36.6832,5.82012],[36.68771,5.81786],[36.70467,5.8044],[36.71219,5.7965],[36.71669,5.79384],[36.72737,5.79155],[36.73551,5.7846],[36.73992,5.77487],[36.73954,5.75844],[36.74346,5.75131],[36.73525,5.73917],[36.73093,5.73656],[36.7201,5.73624],[36.69812,5.72033],[36.67509,5.67141],[36.67011,5.6703],[36.66231,5.66249],[36.66038,5.65238],[36.65585,5.64957],[36.6496,5.65039],[36.6459,5.64876],[36.64604,5.63744],[36.64842,5.63275],[36.65799,5.62753],[36.66579,5.62002],[36.68967,5.60727],[36.71125,5.6066],[36.71516,5.60295],[36.71548,5.59741],[36.71278,5.5931],[36.70892,5.5891],[36.7041,5.58799],[36.70032,5.57204],[36.70087,5.56671],[36.7048,5.56307],[36.71563,5.56309],[36.71904,5.55896],[36.71998,5.54742],[36.7193,5.54237],[36.71526,5.54097],[36.68762,5.54154],[36.67951,5.53458],[36.67918,5.52361],[36.68887,5.52133],[36.69302,5.51747],[36.69435,5.51252],[36.69389,5.50155],[36.68638,5.48774],[36.6869,5.46587],[36.68336,5.46185],[36.67254,5.46181],[36.66093,5.45056],[36.65064,5.44714],[36.64715,5.44314],[36.65463,5.40625],[36.65465,5.36824],[36.65732,5.36375],[36.66558,5.36051],[36.66594,5.35475],[36.662,5.35327],[36.65482,5.34604],[36.65486,5.33519],[36.65101,5.33146],[36.64549,5.33171],[36.64113,5.32893],[36.6355,5.31945],[36.63288,5.3091],[36.6335,5.29267],[36.62918,5.29136],[36.62597,5.28709],[36.62255,5.24926],[36.62741,5.23968],[36.6366,5.23394],[36.66385,5.23416],[36.67006,5.22772],[36.69165,5.22678],[36.70713,5.22121],[36.7123,5.21268],[36.72849,5.21271],[36.74335,5.20656],[36.75089,5.19898],[36.75285,5.19396],[36.75298,5.18317],[36.76466,5.17167],[36.76895,5.16896],[36.77449,5.16927],[36.7759,5.15876],[36.78128,5.14919],[36.7824,5.13818],[36.77951,5.13411],[36.7747,5.13101],[36.76959,5.12917],[36.75872,5.12907],[36.75381,5.12654],[36.75058,5.12225],[36.74925,5.11697],[36.7497,5.10598],[36.74725,5.10158],[36.72424,5.07855],[36.72502,5.05619],[36.72289,5.05293],[36.71156,5.05353],[36.70714,5.05086],[36.69554,5.02648],[36.69967,5.00545],[36.6998,4.97826],[36.69791,4.95569],[36.69559,4.95177],[36.67937,4.95082],[36.67756,4.94582],[36.67746,4.93483],[36.68058,4.92458],[36.69585,4.90913],[36.69694,4.90318],[36.70612,4.89404],[36.71024,4.88748],[36.71189,4.88173],[36.70786,4.86447],[36.70379,4.85706],[36.69725,4.85375],[36.68169,4.85205],[36.6612,4.85609],[36.64484,4.8511],[36.63999,4.83055],[36.64089,4.80919],[36.63603,4.79356],[36.63112,4.79108],[36.62378,4.7812],[36.6222,4.76476],[36.62229,4.73847],[36.61743,4.72449],[36.61831,4.7056],[36.61588,4.69819],[36.60771,4.69324],[36.60122,4.67514],[36.59398,4.63568],[36.59651,4.61515],[36.60559,4.59218],[36.61057,4.57166],[36.6098,4.55605],[36.61969,4.53883],[36.6231,4.49447],[36.63053,4.4756],[36.6314,4.45917],[36.62854,4.45263],[36.61458,4.45272],[36.57988,4.4457],[36.49769,4.44409],[36.31776,4.43334],[36.23723,4.43102],[36.18574,4.43222],[36.13828,4.43615],[36.09746,4.44245],[36.05814,4.45184],[36.02749,4.46213],[36.00328,4.47444],[35.97886,4.49208],[35.95437,4.51535],[35.91642,4.56207],[35.83383,4.68599],[35.81109,4.7163],[35.80147,4.72649],[35.82646,4.95079],[35.84228,4.95162],[35.87719,4.94781],[35.88183,4.94481],[35.89129,4.93386],[35.90777,4.93339],[35.92377,4.93056],[35.9291,4.93109],[35.94306,4.93942],[35.95119,4.94658],[35.95345,4.95266],[35.95675,4.99031],[35.95287,5.006],[35.94792,5.04884],[35.94577,5.05382],[35.9152,5.08471],[35.91048,5.08637],[35.88345,5.08633],[35.88037,5.091],[35.88395,5.09306],[35.88663,5.09747],[35.90112,5.12677],[35.90214,5.1367],[35.90106,5.14168],[35.87788,5.16459],[35.86885,5.17009],[35.86648,5.17695],[35.86822,5.18584],[35.86645,5.19822],[35.8572,5.21036],[35.85173,5.2125],[35.84543,5.21783],[35.84315,5.2212],[35.84141,5.22964],[35.83399,5.24368],[35.83441,5.27128],[35.8541,5.2911],[35.8627,5.30472],[35.86957,5.3122],[35.86866,5.31991],[35.86637,5.3244],[35.8462,5.34114],[35.84135,5.34284],[35.83043,5.34224],[35.82441,5.34445],[35.81702,5.35117],[35.81498,5.35128],[35.81462,5.35304],[35.79596,5.35284],[35.78643,5.35945],[35.78248,5.35943],[35.77921,5.35655],[35.7709,5.35627],[35.76665,5.35765],[35.75925,5.36606],[35.7566,5.37826],[35.74617,5.38157],[35.72927,5.38062],[35.72517,5.39234],[35.72056,5.39592],[35.68272,5.39677],[35.65035,5.39941],[35.64507,5.39799],[35.63898,5.39148],[35.62567,5.39157],[35.62279,5.394],[35.62102,5.40694],[35.61705,5.40861],[35.60463,5.40572],[35.59838,5.41075],[35.59322,5.42254],[35.58314,5.42764],[35.5644,5.41899],[35.55817,5.41952],[35.5508,5.42285],[35.54001,5.43067],[35.52927,5.43061],[35.52194,5.42606],[35.50892,5.42823],[35.49877,5.42367],[35.48916,5.42248],[35.48071,5.41792],[35.46441,5.40149],[35.43793,5.385],[35.42777,5.38213],[35.41429,5.37247],[35.41205,5.36849],[35.40187,5.35975],[35.39245,5.35496],[35.38149,5.35225],[35.36251,5.35746],[35.2874,5.43526],[35.24189,5.48829],[35.19361,5.5594],[35.15447,5.62398],[35.09299,5.73171],[35.07161,5.77583],[35.06594,5.79286],[35.07939,5.81351],[35.07247,5.84844],[35.07016,5.87578],[35.0702,5.91674],[35.07263,5.92966],[35.05105,6.01959],[35.03493,6.02115],[35.01849,6.02553],[35.00311,6.03948],[34.99566,6.05237],[35.00055,6.07829],[35.00049,6.0873],[34.99819,6.09235],[34.98853,6.09677],[34.97204,6.1079],[34.97078,6.12421],[34.96562,6.13261],[34.96502,6.13711],[34.96979,6.17935],[34.97539,6.18784],[34.97648,6.19291],[34.97635,6.20979],[34.96314,6.23388],[34.96191,6.24682],[34.95961,6.2513],[34.95449,6.25464],[34.95333,6.258],[34.9561,6.2659],[34.95365,6.28952],[34.95759,6.29236],[34.9723,6.29361],[34.97794,6.29647],[34.98354,6.30326],[34.98742,6.31399],[34.98943,6.30534],[34.98966,6.29309],[34.98731,6.28419],[34.99166,6.26014],[35.00113,6.23332],[35.00109,6.21698],[35.00319,6.21245],[35.01106,6.20465],[35.02052,6.20249],[35.02694,6.18144],[35.02719,6.1598],[35.02969,6.15494],[35.07205,6.11317],[35.07695,6.11076],[35.08775,6.11075],[35.09303,6.10908],[35.10223,6.09679],[35.11285,6.09617],[35.12344,6.09922],[35.12482,6.10367],[35.14034,6.11855],[35.14533,6.11637],[35.14621,6.10576],[35.14866,6.10137],[35.16421,6.08618],[35.17872,6.07892],[35.18899,6.07547],[35.20523,6.07509],[35.22078,6.07923],[35.24786,6.07923],[35.25306,6.07714],[35.25477,6.07266],[35.26216,6.06491],[35.27298,6.06498],[35.28031,6.06751],[35.2807,6.07249],[35.29167,6.07226],[35.30738,6.07571],[35.32205,6.08258],[35.34127,6.10156],[35.34099,6.10727],[35.34483,6.10881],[35.36502,6.10581],[35.36652,6.10173],[35.38487,6.10191],[35.38979,6.10419],[35.39427,6.1075],[35.39605,6.11766],[35.40039,6.12112],[35.41827,6.13353],[35.42869,6.13498],[35.43836,6.13996],[35.45603,6.15247],[35.46643,6.17743],[35.47552,6.183],[35.48327,6.19073],[35.48528,6.20072],[35.49348,6.2075],[35.51521,6.20726],[35.52489,6.20326],[35.52666,6.19877],[35.53189,6.19674],[35.54271,6.19681],[35.56,6.21415],[35.57002,6.23925],[35.57157,6.25018],[35.56737,6.25154],[35.56523,6.25642],[35.56338,6.26736],[35.56463,6.27788],[35.57413,6.28338],[35.58568,6.2947],[35.59115,6.2945],[35.60079,6.29912],[35.623,6.32342],[35.62597,6.33316],[35.62551,6.36075],[35.6275,6.36588],[35.63197,6.36728],[35.63579,6.37733],[35.63569,6.38286],[35.63169,6.39245],[35.63144,6.39941],[35.64116,6.40177],[35.66771,6.42896],[35.67125,6.43292],[35.67119,6.44378],[35.67342,6.44875],[35.68929,6.46373],[35.69956,6.46598],[35.71599,6.46499],[35.72537,6.46075],[35.72743,6.45651],[35.76372,6.44466],[35.80139,6.44396],[35.80252,6.43881],[35.81067,6.43155],[35.83681,6.41222],[35.85137,6.40499],[35.85917,6.3975],[35.87,6.39757],[35.8739,6.39958],[35.87398,6.41077],[35.87555,6.41621],[35.88356,6.42162],[35.8854,6.43176],[35.90084,6.44728],[35.90581,6.44837],[35.90569,6.4733],[35.90297,6.48376],[35.90142,6.5058],[35.90253,6.51008],[35.90752,6.51167],[35.91168,6.51552],[35.91299,6.53151],[35.91173,6.53649],[35.90754,6.54032],[35.8923,6.54445],[35.88932,6.54857],[35.88422,6.56427],[35.88284,6.57535],[35.88861,6.58162],[35.89109,6.59824],[35.88925,6.60753],[35.88398,6.60927],[35.88304,6.62528],[35.90507,6.64722],[35.91062,6.64693],[35.91882,6.65382],[35.91882,6.67544],[35.9215,6.68593],[35.92209,6.69688],[35.92652,6.69816],[35.94176,6.71369],[35.94741,6.72285],[35.94709,6.74456],[35.951,6.76021],[35.9504,6.7708],[35.94097,6.77627],[35.93339,6.78419],[35.9232,6.78606],[35.91867,6.796],[35.91779,6.81755],[35.90579,6.82865],[35.8876,6.84048],[35.87588,6.85193],[35.87064,6.85284],[35.8586,6.8514],[35.8557,6.85386],[35.8561,6.88155],[35.85494,6.88704],[35.85273,6.89195],[35.84811,6.8932],[35.84553,6.89814],[35.84522,6.90896],[35.84227,6.91939],[35.83922,6.9239],[35.83412,6.92485],[35.8339,6.95736],[35.83931,6.96665],[35.84752,6.97377],[35.85255,6.97565],[35.86355,6.97536],[35.8685,6.977],[35.8704,6.98208],[35.8694,6.98735],[35.86101,6.99388],[35.85549,6.9936],[35.84773,7.00114],[35.84231,7.00914],[35.83156,7.0117],[35.82073,7.01201],[35.81587,7.01464],[35.81437,7.01876],[35.78172,7.01856],[35.77175,7.02237],[35.76993,7.02607],[35.76421,7.02538],[35.74905,7.01935],[35.74445,7.01645],[35.74339,7.01132],[35.73933,7.00817],[35.72028,6.99729],[35.71431,6.99629],[35.70503,7.00495],[35.70316,7.00959],[35.70295,7.0367],[35.70027,7.04136],[35.69949,7.04676],[35.71312,7.07004],[35.71479,7.09145],[35.7202,7.10068],[35.72999,7.10498],[35.74092,7.1047],[35.75192,7.10732],[35.75391,7.11131],[35.7531,7.11722],[35.7553,7.12179],[35.76305,7.12953],[35.77269,7.13415],[35.78363,7.13385],[35.78872,7.13524],[35.79879,7.1402],[35.80081,7.14999],[35.80535,7.15309],[35.81578,7.15608],[35.84375,7.15699],[35.8488,7.15849],[35.85189,7.16178],[35.85435,7.17844],[35.86564,7.19015],[35.87303,7.2046],[35.88033,7.21254],[35.88658,7.22742],[35.8865,7.24375],[35.88411,7.25456],[35.86829,7.26757],[35.86774,7.27828],[35.87075,7.28887],[35.8753,7.29019],[35.879,7.2942],[35.911,7.3378],[35.91029,7.34383],[35.91437,7.3451],[35.92591,7.34439],[35.93077,7.34593],[35.94227,7.35779],[35.94329,7.36278],[35.93942,7.36426],[35.93962,7.36998],[35.93175,7.3772],[35.91548,7.37638],[35.89947,7.3733],[35.85057,7.37288],[35.84228,7.37946],[35.84103,7.3839],[35.83002,7.38346],[35.81999,7.38726],[35.80895,7.39891],[35.80881,7.4098],[35.80637,7.41485],[35.80163,7.41591],[35.7965,7.40746],[35.78109,7.40156],[35.77019,7.40147],[35.766,7.39822],[35.76494,7.39334],[35.75997,7.39073],[35.75464,7.39058],[35.74462,7.39435],[35.72877,7.39745],[35.70781,7.39723],[35.70387,7.40087],[35.69289,7.40048],[35.68802,7.40182],[35.68441,7.40625],[35.67978,7.40822],[35.6688,7.4072],[35.65866,7.40403],[35.64282,7.40756],[35.6211,7.40745],[35.60781,7.39233],[35.60287,7.39644],[35.60674,7.40143],[35.6063,7.418],[35.61119,7.41912],[35.63787,7.44628],[35.6425,7.45596],[35.64227,7.46144],[35.63719,7.47098],[35.63469,7.48149],[35.63434,7.52487],[35.64067,7.53971],[35.65168,7.55164],[35.68537,7.56931],[35.70673,7.57191],[35.7103,7.57537],[35.71195,7.58042],[35.71692,7.58182],[35.77711,7.58138],[35.78104,7.58415],[35.78675,7.5938],[35.79492,7.60035],[35.8169,7.60017],[35.82206,7.61006],[35.82217,7.61398],[35.82934,7.61403],[35.83258,7.61027],[35.85563,7.61102],[35.86583,7.61459],[35.87655,7.62516],[35.88404,7.63919],[35.88673,7.65121],[35.89054,7.65507],[35.89031,7.66057],[35.8929,7.66493],[35.91989,7.6915],[35.94165,7.69164],[35.9578,7.69477],[35.9738,7.69531],[35.97493,7.69019],[35.97885,7.68609],[35.9836,7.68444],[36.01612,7.68409],[36.02996,7.67447],[36.03447,7.675],[36.05249,7.68814],[36.07568,7.71072],[36.08637,7.71106],[36.08894,7.71605],[36.08923,7.73235],[36.10186,7.7213],[36.10741,7.72164],[36.11256,7.72715],[36.11794,7.7288],[36.12953,7.74017],[36.13866,7.74585],[36.14997,7.75772],[36.15996,7.75987],[36.1667,7.76839],[36.17626,7.78791],[36.18052,7.79096],[36.2024,7.78993],[36.20748,7.78793],[36.20883,7.78339],[36.21365,7.78064],[36.24082,7.78033],[36.25133,7.78313],[36.26222,7.78392],[36.26332,7.78863],[36.26762,7.79199],[36.28271,7.79836],[36.31013,7.79862],[36.31399,7.80035],[36.30723,7.81553],[36.30607,7.83162],[36.3216,7.84687],[36.33061,7.85304],[36.34693,7.85359],[36.36162,7.84873],[36.37722,7.83336],[36.37837,7.82838],[36.38287,7.82544],[36.38823,7.82434],[36.39922,7.8241],[36.40969,7.82652],[36.4248,7.83324],[36.42918,7.83937],[36.45092,7.8395],[36.45674,7.83407],[36.4619,7.82461],[36.46555,7.81439],[36.46562,7.80354],[36.47736,7.79254],[36.49386,7.79261],[36.49523,7.79688],[36.50556,7.80066],[36.5107,7.7993],[36.51991,7.79363],[36.53698,7.78004],[36.54204,7.7706],[36.54224,7.74893],[36.54991,7.73454],[36.56058,7.72275],[36.56025,7.70074],[36.56411,7.69918],[36.58048,7.71599],[36.58538,7.71751],[36.59467,7.71203],[36.59985,7.71035],[36.605,7.71097],[36.61091,7.72017],[36.61031,7.73714],[36.61279,7.74028],[36.6191,7.73998],[36.6406,7.71751],[36.67244,7.72373],[36.68241,7.72819],[36.69403,7.7396],[36.71577,7.73963],[36.73713,7.74362],[36.73856,7.73947],[36.74909,7.73632],[36.79249,7.73666],[36.79348,7.74187],[36.81594,7.75729],[36.82363,7.76517],[36.8504,7.76599],[36.85151,7.77114],[36.85919,7.77919],[36.86408,7.78054],[36.88596,7.78036],[36.88891,7.78446],[36.89363,7.80033],[36.89361,7.82761],[36.89248,7.83268],[36.88724,7.83446],[36.8824,7.84881],[36.87854,7.86438],[36.87834,7.88605],[36.87063,7.90047],[36.86636,7.90347],[36.86079,7.90312],[36.85677,7.90663],[36.84933,7.92112],[36.84924,7.93212],[36.85585,7.94103],[36.85693,7.94664],[36.85498,7.95031],[36.85097,7.95291],[36.84675,7.96319],[36.84495,7.97381],[36.84519,7.98471],[36.85504,8.02646],[36.856,8.03728],[36.85939,8.0476],[36.86313,8.05151],[36.86921,8.05096],[36.87105,8.05449],[36.87006,8.07146],[36.87721,8.0976],[36.87744,8.11383],[36.88297,8.12959],[36.88714,8.13164],[36.89294,8.13104],[36.9015,8.13706],[36.91118,8.16223],[36.91631,8.16358],[36.91887,8.16778],[36.92092,8.17869],[36.92087,8.18967],[36.9168,8.19642],[36.92296,8.19847],[36.93309,8.21139],[36.9442,8.24199],[36.94617,8.25291],[36.94552,8.25804],[36.94163,8.25958],[36.94141,8.29293],[36.94377,8.29762],[36.94829,8.30111],[36.95831,8.3033],[36.96251,8.30719],[36.96361,8.31217],[36.96321,8.3448],[36.9678,8.34614],[36.97213,8.35634],[36.97429,8.36686],[36.97375,8.38321],[36.98959,8.41759],[36.99184,8.42823],[36.99172,8.44992],[36.99546,8.45276],[36.99586,8.4583],[37.0004,8.46104],[37.01138,8.46114],[37.02149,8.46509],[37.03663,8.48088],[37.04668,8.48302],[37.04996,8.48734],[37.0531,8.50335],[37.05281,8.53072],[37.05875,8.53701],[37.06351,8.54696],[37.06756,8.5627],[37.07479,8.5711],[37.07209,8.58106],[37.06861,8.61343],[37.06724,8.657],[37.06497,8.66013],[37.06016,8.66261],[37.05678,8.67855],[37.05469,8.68333],[37.05021,8.68685],[37.04842,8.69154],[37.04882,8.70258],[37.03013,8.72194],[37.03031,8.73284],[37.03446,8.74864],[37.037,8.75349],[37.04202,8.75452],[37.04496,8.75897],[37.04467,8.76451],[37.04093,8.76839],[37.03579,8.76937],[37.03391,8.77445],[37.03008,8.77596],[37.01545,8.77548],[37.01472,8.78626],[37.00965,8.80172],[37.00658,8.80632],[36.99642,8.80827],[36.98078,8.8237],[36.97897,8.82819],[36.98218,8.83268],[36.98283,8.83809],[36.98043,8.84261],[36.97226,8.85003],[36.96362,8.86979],[36.94653,8.88315],[36.93486,8.88714],[36.93457,8.90957],[36.93101,8.91986],[36.93147,8.92518],[36.93418,8.93005],[36.93919,8.93109],[36.94212,8.93549],[36.9415,8.94638],[36.9379,8.96266],[36.93863,8.96701],[36.94332,8.96883],[36.94574,8.97945],[36.94536,8.99038],[36.94201,9.00053],[36.94106,9.02216],[36.93099,9.04148],[36.92178,9.05502],[36.9118,9.05723],[36.9062,9.0666],[36.90411,9.07721],[36.90465,9.10995],[36.90173,9.11444],[36.88544,9.11482],[36.88029,9.11715],[36.87896,9.12185],[36.88955,9.13237],[36.89494,9.14191],[36.8969,9.14692],[36.89671,9.15797],[36.90678,9.15969],[36.91843,9.15831],[36.9263,9.15092],[36.93157,9.1522],[36.93347,9.15706],[36.93186,9.17478],[36.93387,9.17997],[36.93287,9.18722],[36.92682,9.19961],[36.92452,9.2212],[36.93416,9.2461],[36.93028,9.2585],[36.93945,9.27097],[36.94596,9.27371],[36.95189,9.28185],[36.95398,9.2959],[36.94899,9.31208],[36.95165,9.32235],[36.95651,9.32832],[36.96359,9.32674],[36.97614,9.31979],[36.99354,9.31935],[36.99765,9.32372],[36.99782,9.32822],[37.0029,9.33787],[37.01831,9.34214],[37.01959,9.34683],[37.02431,9.34815],[37.02664,9.35327],[37.02662,9.36416],[37.02989,9.36843],[37.04621,9.3685],[37.06094,9.36494],[37.06522,9.35935],[37.07466,9.35403],[37.07798,9.34993],[37.07811,9.33907],[37.08583,9.32467],[37.09008,9.32136],[37.1109,9.31472],[37.11826,9.3069],[37.11795,9.30133],[37.12901,9.2896],[37.13454,9.28978],[37.14684,9.27962],[37.15391,9.25883],[37.1682,9.26219],[37.17279,9.26104],[37.17223,9.24411],[37.1753,9.2418],[37.19275,9.24315],[37.20265,9.23862],[37.20586,9.2321],[37.20808,9.21999],[37.21147,9.21715],[37.21732,9.21756],[37.2223,9.21527],[37.23847,9.20051],[37.23763,9.18348],[37.23851,9.17869],[37.24176,9.17532],[37.25282,9.17165],[37.26387,9.1702],[37.27495,9.17058],[37.2837,9.17401],[37.28651,9.16948],[37.28642,9.15849],[37.28253,9.14853],[37.28248,9.14299],[37.30937,9.1164],[37.31974,9.11302],[37.3277,9.10594],[37.37155,9.10659],[37.37613,9.10449],[37.38011,9.10048],[37.38458,9.09004],[37.39766,9.08087],[37.40826,9.08014],[37.41617,9.07227],[37.41792,9.06749],[37.41746,9.06172],[37.42053,9.05941],[37.43157,9.05969],[37.44633,9.05273],[37.45037,9.04908],[37.45409,9.03886],[37.45419,9.01705],[37.45865,9.01582],[37.46561,9.00764],[37.46538,9.0021],[37.46167,8.99819],[37.46127,8.99245],[37.46358,8.98778],[37.47393,8.97486],[37.47853,8.97271],[37.48418,8.97318],[37.48901,8.9717],[37.49306,8.96767],[37.49478,8.96295],[37.49434,8.95734],[37.50045,8.94883],[37.50546,8.94771],[37.50981,8.95099],[37.51458,8.95002],[37.51877,8.94605],[37.52023,8.94114],[37.5184,8.92298],[37.52084,8.91466],[37.53094,8.91315],[37.54338,8.91498],[37.54968,8.92151],[37.57658,8.92648],[37.59937,8.92572],[37.60479,8.9246],[37.60809,8.92182],[37.6075,8.90502],[37.61119,8.90113],[37.60501,8.89723],[37.59393,8.89759],[37.5785,8.88266],[37.57854,8.86102],[37.57317,8.86004],[37.57088,8.85184],[37.56526,8.84203],[37.55454,8.84199],[37.54515,8.83044],[37.54004,8.82317],[37.54308,8.81124],[37.53153,8.80651],[37.52812,8.8018],[37.52644,8.79327],[37.50075,8.78549],[37.49174,8.78631],[37.47653,8.78067],[37.47883,8.77112],[37.48961,8.75706],[37.49119,8.74525],[37.4989,8.73461],[37.51538,8.7343],[37.53042,8.73062],[37.534,8.73329],[37.53903,8.73438],[37.54269,8.74895],[37.54631,8.75258],[37.56361,8.75215],[37.56903,8.75048],[37.58227,8.73484],[37.5877,8.73482],[37.59643,8.72883],[37.59864,8.71318],[37.60555,8.70469],[37.60988,8.702],[37.62636,8.70241],[37.63661,8.69902],[37.64127,8.69917],[37.64301,8.70383],[37.65378,8.70646],[37.65915,8.70598],[37.66192,8.70209],[37.66394,8.70167],[37.67805,8.71025],[37.68021,8.71678],[37.68367,8.71664],[37.68498,8.72091],[37.68982,8.72361],[37.7008,8.72396],[37.70553,8.72629],[37.70728,8.73672],[37.71219,8.73918],[37.71742,8.73854],[37.71887,8.73385],[37.72936,8.73044],[37.75104,8.72764],[37.76736,8.72884],[37.77189,8.7318],[37.77297,8.7368],[37.78464,8.74837],[37.79399,8.75378],[37.80542,8.76553],[37.80973,8.76827],[37.81531,8.76799],[37.82017,8.77648],[37.82772,8.7845],[37.83243,8.78638],[37.84833,8.78667],[37.84969,8.79177],[37.85747,8.79962],[37.86248,8.80069],[37.86872,8.80645],[37.86972,8.81157],[37.87234,8.8089],[37.87747,8.81168],[37.8911,8.81216],[37.91045,8.80872],[37.9175,8.80349],[37.92415,8.78602],[37.92457,8.77925],[37.94288,8.77955],[37.94983,8.77562],[37.96051,8.77364],[37.9693,8.76743],[37.9719,8.76308],[37.97173,8.74671],[37.97515,8.73639],[37.98272,8.72863],[37.99206,8.71523],[38.01337,8.71388],[38.03286,8.70396],[38.04828,8.68877],[38.04438,8.66773],[38.04468,8.65649],[38.04856,8.65499],[38.04834,8.64927],[38.05227,8.64562],[38.07409,8.64567],[38.07908,8.64344],[38.09889,8.6247],[38.09999,8.61985],[38.10496,8.61732],[38.11537,8.61579],[38.12714,8.60414],[38.13234,8.57797],[38.12123,8.56624],[38.12222,8.56103],[38.12691,8.55877],[38.13795,8.5592],[38.1431,8.55769],[38.15951,8.54347],[38.16923,8.53829],[38.1908,8.53732],[38.19553,8.53481],[38.20425,8.52776],[38.20621,8.51769],[38.21801,8.50611],[38.22303,8.50503],[38.22592,8.50049],[38.22773,8.48437],[38.2305,8.47918],[38.23444,8.47589],[38.25092,8.47621],[38.25811,8.47029],[38.26283,8.4696],[38.27722,8.46286],[38.30963,8.45746],[38.31591,8.45513],[38.32219,8.44681],[38.3269,8.44318],[38.34102,8.44008],[38.35357,8.43464],[38.36246,8.42815],[38.37923,8.40398],[38.40146,8.38632],[38.40316,8.38271],[38.41012,8.3776],[38.41267,8.37312],[38.41284,8.36751],[38.4113,8.36247],[38.4062,8.36076],[38.40277,8.35719],[38.40107,8.34107],[38.39849,8.33621],[38.39076,8.32846],[38.3907,8.29595],[38.3755,8.28079],[38.36461,8.28068],[38.36146,8.2763],[38.36205,8.27041],[38.34606,8.27022],[38.34134,8.26835],[38.33341,8.26049],[38.33281,8.2499],[38.326,8.24188],[38.32071,8.23233],[38.31622,8.23006],[38.30606,8.23399],[38.30052,8.23396],[38.28689,8.22485],[38.28431,8.20939],[38.27365,8.19043],[38.26358,8.17811],[38.2675,8.16798],[38.26801,8.16196],[38.26357,8.16091],[38.25158,8.16198],[38.2484,8.15977],[38.24921,8.1537],[38.24786,8.14861],[38.24378,8.1447],[38.23881,8.14342],[38.2359,8.13912],[38.23478,8.11786],[38.22404,8.11691],[38.20855,8.11161],[38.18409,8.09974],[38.16472,8.0807],[38.15036,8.07244],[38.1474,8.06891],[38.14769,8.06325],[38.14506,8.05858],[38.13023,8.04254],[38.12669,8.03231],[38.11561,8.02051],[38.11035,8.01091],[38.1057,8.00881],[38.09467,8.00919],[38.08484,8.00453],[38.08243,8.00006],[38.08247,7.99471],[38.08655,7.96776],[38.08539,7.94077],[38.06698,7.92066],[38.0625,7.91835],[38.05703,7.91839],[38.04547,7.90676],[38.04281,7.9023],[38.04303,7.89683],[38.01586,7.89686],[38.01064,7.89566],[37.99433,7.88109],[37.99196,7.87664],[37.99217,7.84945],[37.9803,7.83855],[37.97472,7.83888],[37.9595,7.82372],[37.95964,7.81337],[37.96734,7.8032],[37.96738,7.78956],[37.96056,7.78272],[37.95516,7.75271],[37.94973,7.74043],[37.9429,7.73632],[37.91419,7.73761],[37.90601,7.72804],[37.86913,7.71567],[37.84866,7.70471],[37.83777,7.68832],[37.8223,7.67844],[37.81876,7.66147],[37.81317,7.65186],[37.80379,7.64951],[37.80452,7.61674],[37.81379,7.61071],[37.83017,7.61072],[37.83499,7.60926],[37.85358,7.58919],[37.85534,7.5787],[37.85535,7.54069],[37.86717,7.52234],[37.87209,7.52037],[37.87385,7.51665],[37.87382,7.50539],[37.87249,7.50017],[37.86749,7.4982],[37.85134,7.49816],[37.85193,7.47063],[37.84119,7.45871],[37.83095,7.45505],[37.81472,7.45458],[37.81176,7.45012],[37.81204,7.43376],[37.80236,7.41434],[37.79755,7.39325],[37.79016,7.38767],[37.79065,7.36012],[37.7868,7.3571],[37.78651,7.34597],[37.78108,7.34484],[37.77922,7.34],[37.7803,7.32366],[37.78473,7.30212],[37.78625,7.29699],[37.7898,7.29328],[37.79528,7.29189],[37.81163,7.29214],[37.81661,7.29022],[37.82632,7.28519],[37.84725,7.26788],[37.85225,7.26684],[37.85314,7.26529],[37.8744,7.2845],[37.88648,7.28453],[37.9,7.27392],[37.90858,7.25337],[37.90862,7.23422],[37.89873,7.21292],[37.90162,7.19306],[37.89244,7.17105],[37.89117,7.10578],[37.86359,7.05819],[37.83526,7.02975],[37.83246,7.01526],[37.83244,6.98032],[37.83016,6.95933],[37.80373,6.93129],[37.79874,6.93022],[37.79159,6.91216],[37.78798,6.90853],[37.78075,6.90489],[37.78031,6.89952],[37.77649,6.88943],[37.76564,6.87755],[37.75681,6.84588],[37.75288,6.84361],[37.75126,6.82872],[37.75217,6.7958],[37.76349,6.78643],[37.76264,6.78076],[37.75646,6.76567],[37.74698,6.73454],[37.73274,6.71831],[37.72132,6.69996],[37.70912,6.68854],[37.71969,6.67016],[37.72005,6.65929],[37.70367,6.63112],[37.69859,6.62999],[37.69549,6.62589],[37.67783,6.59202],[37.66657,6.58023],[37.66465,6.57017],[37.64148,6.54701],[37.63657,6.54595],[37.62969,6.53118],[37.63367,6.52154],[37.63366,6.50515],[37.63282,6.49984],[37.62629,6.48488],[37.61904,6.48122],[37.61938,6.46843],[37.6163,6.46428],[37.61512,6.45934],[37.61533,6.43202],[37.62322,6.41189],[37.63869,6.39654],[37.64346,6.3946],[37.64439,6.39044],[37.64025,6.38714],[37.61305,6.38724],[37.6088,6.38417],[37.60661,6.3792],[37.60507,6.36307],[37.60045,6.35329],[37.59606,6.3508],[37.58592,6.35475],[37.58104,6.35285],[37.57657,6.3429],[37.57597,6.33758],[37.58009,6.32192],[37.57916,6.31661],[37.57299,6.30759],[37.55153,6.30645],[37.54361,6.30014],[37.53334,6.297],[37.53193,6.29277],[37.50468,6.29288],[37.49684,6.28567],[37.48757,6.28021],[37.48013,6.2721],[37.46777,6.27098],[37.4667,6.266],[37.45519,6.25418],[37.45043,6.25259],[37.43944,6.25291],[37.43169,6.24551],[37.43172,6.23466],[37.4239,6.22732],[37.41307,6.2272],[37.4099,6.22288],[37.41026,6.21731],[37.38753,6.19453],[37.37673,6.19646],[37.37413,6.20057],[37.37052,6.20256],[37.36472,6.20227],[37.36022,6.19945],[37.35925,6.1944],[37.34456,6.18731],[37.33902,6.18761],[37.33108,6.18059],[37.32102,6.16767],[37.31992,6.1584],[37.3098,6.15522],[37.2867,6.13229],[37.28368,6.12812],[37.28402,6.12256],[37.28045,6.11857],[37.27636,6.11718],[37.27671,6.11125],[37.27281,6.10758],[37.25114,6.10761],[37.22841,6.13137],[37.2238,6.1333],[37.21267,6.13251],[37.20718,6.1348],[37.19919,6.13463],[37.1874,6.13707],[37.16881,6.1367],[37.15859,6.13356],[37.14464,6.13227],[37.13223,6.1344],[37.12414,6.14337],[37.12625,6.16107],[37.13176,6.18156],[37.13355,6.20018],[37.13816,6.21323],[37.14341,6.21915],[37.14772,6.22785],[37.15319,6.25951],[37.15123,6.26759],[37.14575,6.27638],[37.14627,6.29284],[37.14507,6.29802],[37.14219,6.30271],[37.13426,6.30992],[37.1287,6.3099],[37.12448,6.30656],[37.12443,6.30114],[37.12237,6.29657],[37.10695,6.28108],[37.10211,6.27999],[37.0924,6.26039],[37.09112,6.2499],[37.07754,6.23353],[37.07227,6.23419],[37.05798,6.2419],[37.03942,6.26167],[37.03755,6.26671],[37.03724,6.27736],[37.03228,6.27993],[37.02129,6.2801],[37.0159,6.28755],[37.01092,6.28647],[37.00698,6.28249],[37.00478,6.27262],[36.99994,6.26998],[36.97281,6.26935],[36.9459,6.24257],[36.94381,6.23664],[36.92029,6.22315],[36.90459,6.20822],[36.89185,6.17818],[36.88871,6.174],[36.86815,6.16576],[36.85245,6.16446],[36.83145,6.17006],[36.81588,6.17532],[36.79635,6.18501],[36.79502,6.18954],[36.78451,6.19268],[36.77372,6.19272],[36.76691,6.19977],[36.76595,6.1946],[36.76129,6.19233],[36.75584,6.19238],[36.74045,6.17693],[36.73786,6.17258],[36.73821,6.15621],[36.74182,6.14628],[36.73821,6.13624],[36.74199,6.10583],[36.73676,6.10495],[36.7224,6.09719],[36.7207,6.09211],[36.71679,6.09068],[36.70234,6.09102],[36.70266,6.08547],[36.6809,6.0549],[36.67244,6.0391],[36.67063,6.02502],[36.66373,6.01751],[36.66698,6.00579],[36.66813,5.98658],[36.66181,5.9668],[36.66005,5.94384],[36.66435,5.93452],[36.67052,5.92601],[36.67057,5.91319],[36.66499,5.9081],[36.65866,5.8926],[36.65043,5.88562],[36.63294,5.86126],[36.64943,5.82652],[36.6462,5.81382],[36.64863,5.80529],[36.66319,5.80191]]]}}]}
