{"type":"Feature","properties":{"code":"MEK-3S","name":"3S Basins (Sekong, Sesan, Srepok)","landscape_system":"Three S Rivers Sub-basin in the Mekong Basin","countries":["Laos","Cambodia","Vietnam"],"source_file":"3sbasins_LAO.shp","source_features_dissolved":3,"simplify_tolerance_deg":0.002,"generated":"2026-07-21"},"bbox":[105.95001,11.85192,108.77569,16.38525],"geometry":{"type":"Polygon","coordinates":[[[108.01787,13.88191],[108.00466,13.86595],[107.99895,13.8494],[108.00402,13.84217],[108.00173,13.83259],[108.00832,13.80465],[108.00736,13.78981],[108.023,13.7637],[108.02887,13.76196],[108.03417,13.75235],[108.04552,13.74281],[108.05095,13.73092],[108.0665,13.723],[108.0671,13.7095],[108.0753,13.69652],[108.08361,13.69172],[108.09646,13.65473],[108.11417,13.62971],[108.11525,13.61709],[108.10867,13.59813],[108.1097,13.58187],[108.09924,13.56843],[108.09765,13.56056],[108.11006,13.54246],[108.10926,13.50998],[108.10515,13.49851],[108.10759,13.48587],[108.13229,13.48969],[108.13407,13.4933],[108.14215,13.49502],[108.14892,13.4919],[108.14543,13.48031],[108.14875,13.46868],[108.16107,13.4563],[108.16967,13.45163],[108.19169,13.4551],[108.20412,13.45038],[108.21926,13.43699],[108.22537,13.42094],[108.2254,13.41083],[108.22983,13.40589],[108.22623,13.3854],[108.21483,13.37985],[108.21405,13.37106],[108.21587,13.35767],[108.22528,13.33963],[108.23075,13.31234],[108.21921,13.30842],[108.21664,13.30274],[108.22739,13.29805],[108.22892,13.28776],[108.24132,13.28174],[108.24743,13.26585],[108.25352,13.26121],[108.25309,13.2534],[108.26771,13.2273],[108.25972,13.18927],[108.26169,13.17491],[108.26821,13.16505],[108.26731,13.15984],[108.27978,13.14746],[108.30286,13.14489],[108.30567,13.131],[108.31286,13.12211],[108.31492,13.1141],[108.33268,13.11191],[108.32686,13.07484],[108.32295,13.06837],[108.32311,13.04344],[108.3151,13.01535],[108.3155,13.00801],[108.32738,12.98945],[108.32302,12.97419],[108.3139,12.96257],[108.31438,12.94888],[108.30467,12.93075],[108.31825,12.90255],[108.3274,12.89119],[108.34635,12.87938],[108.37743,12.86888],[108.39159,12.8599],[108.40607,12.86216],[108.42172,12.85332],[108.42762,12.84721],[108.43502,12.82952],[108.45072,12.81237],[108.45096,12.80552],[108.47349,12.79008],[108.4773,12.77748],[108.50063,12.75958],[108.52357,12.75047],[108.54422,12.74336],[108.56697,12.74419],[108.57222,12.74005],[108.59051,12.75361],[108.63154,12.75618],[108.64793,12.76575],[108.66167,12.76859],[108.67811,12.7651],[108.68894,12.7562],[108.69151,12.73464],[108.6882,12.72852],[108.68923,12.72367],[108.69602,12.71748],[108.70992,12.7152],[108.72541,12.7054],[108.73506,12.70318],[108.74404,12.7068],[108.7515,12.70147],[108.75678,12.68877],[108.76925,12.67249],[108.77569,12.64846],[108.76833,12.64015],[108.76594,12.62829],[108.77075,12.61371],[108.76585,12.60232],[108.76755,12.59692],[108.75795,12.59749],[108.75181,12.59134],[108.75871,12.57804],[108.75199,12.56319],[108.75226,12.55158],[108.75808,12.5454],[108.75905,12.53074],[108.74759,12.52437],[108.74988,12.50954],[108.76458,12.48408],[108.75783,12.47721],[108.74867,12.47676],[108.7424,12.47206],[108.72435,12.47986],[108.71384,12.47797],[108.70398,12.46998],[108.70695,12.46065],[108.69111,12.44737],[108.68428,12.43441],[108.67173,12.42355],[108.68274,12.40889],[108.68193,12.40368],[108.67641,12.3994],[108.67783,12.39575],[108.68963,12.38442],[108.68893,12.37659],[108.69342,12.37073],[108.69101,12.36684],[108.69256,12.36203],[108.68035,12.35407],[108.68192,12.33983],[108.68753,12.32945],[108.68655,12.3225],[108.69188,12.313],[108.69813,12.30667],[108.70446,12.30528],[108.70821,12.29943],[108.70821,12.2884],[108.70294,12.28078],[108.70806,12.26736],[108.70607,12.26231],[108.70842,12.25125],[108.70342,12.24116],[108.70655,12.23328],[108.72475,12.2162],[108.71494,12.18978],[108.6988,12.18507],[108.68026,12.19939],[108.66553,12.20089],[108.65381,12.19568],[108.64617,12.19767],[108.63452,12.18752],[108.63436,12.17533],[108.61804,12.15784],[108.61022,12.15765],[108.59651,12.14724],[108.59223,12.14715],[108.58451,12.15465],[108.57636,12.15142],[108.55483,12.16258],[108.54604,12.15645],[108.53364,12.16007],[108.52448,12.15499],[108.51366,12.1393],[108.50049,12.13628],[108.49162,12.12333],[108.47607,12.11844],[108.46188,12.10454],[108.44904,12.10441],[108.44703,12.10865],[108.43999,12.11164],[108.44558,12.12187],[108.43191,12.12582],[108.41766,12.11874],[108.41165,12.12128],[108.39399,12.10161],[108.3737,12.09489],[108.35952,12.10493],[108.34726,12.10348],[108.34196,12.09281],[108.33437,12.08709],[108.32761,12.08891],[108.32037,12.07579],[108.30977,12.06561],[108.29763,12.06213],[108.28575,12.06793],[108.27378,12.05326],[108.25957,12.04951],[108.25307,12.03594],[108.25533,12.02749],[108.24749,12.02555],[108.24758,12.02076],[108.23244,12.0131],[108.2324,12.00947],[108.21804,12.00528],[108.20533,11.99033],[108.20505,11.97901],[108.19004,11.96872],[108.18025,11.93864],[108.18,11.93022],[108.18347,11.92379],[108.1821,11.90755],[108.1749,11.90937],[108.16571,11.91862],[108.15042,11.92199],[108.14043,11.93807],[108.13836,11.94985],[108.14092,11.95505],[108.12597,11.97525],[108.12428,11.98195],[108.11725,11.98682],[108.11762,11.99262],[108.0947,11.98736],[108.08825,11.99092],[108.07939,11.99043],[108.07729,11.98683],[108.07126,11.98878],[108.06548,11.98609],[108.08539,11.94696],[108.08622,11.9423],[108.08233,11.93755],[108.09242,11.91712],[108.09749,11.89572],[108.06676,11.86089],[108.0472,11.85192],[108.03419,11.85903],[108.02315,11.8739],[108.02687,11.8907],[108.03126,11.8931],[108.03256,11.904],[108.00758,11.92762],[107.9953,11.90475],[107.98545,11.89963],[107.98664,11.88939],[107.96659,11.889],[107.9482,11.87164],[107.94408,11.87223],[107.93252,11.879],[107.93637,11.88783],[107.92751,11.88405],[107.91458,11.88584],[107.91017,11.89383],[107.91586,11.90024],[107.90997,11.91047],[107.89308,11.91027],[107.87889,11.89951],[107.87628,11.90083],[107.87299,11.90937],[107.85309,11.92601],[107.85689,11.93097],[107.84856,11.94121],[107.85354,11.95133],[107.85076,11.95413],[107.82237,11.9679],[107.8111,11.96691],[107.80272,11.97364],[107.80387,11.9862],[107.8092,11.99354],[107.80559,12.00762],[107.80987,12.01467],[107.80938,12.02502],[107.80027,12.04492],[107.78667,12.05112],[107.78195,12.05974],[107.7889,12.06337],[107.79272,12.07028],[107.78704,12.08734],[107.79753,12.09891],[107.79581,12.10721],[107.80144,12.11439],[107.80106,12.1212],[107.79839,12.12403],[107.78097,12.1248],[107.75964,12.13935],[107.74266,12.13952],[107.74392,12.14557],[107.73963,12.15153],[107.74547,12.16492],[107.73974,12.17725],[107.73183,12.18265],[107.71695,12.18221],[107.70682,12.19162],[107.71945,12.22151],[107.71746,12.23217],[107.70125,12.24978],[107.69541,12.2519],[107.68334,12.24759],[107.68027,12.24111],[107.67544,12.23894],[107.66044,12.24264],[107.64554,12.24071],[107.64458,12.23421],[107.6318,12.23389],[107.62679,12.22906],[107.62085,12.23622],[107.61677,12.24927],[107.61254,12.25036],[107.61478,12.26138],[107.60821,12.26655],[107.59511,12.29142],[107.59925,12.30381],[107.59154,12.30144],[107.58277,12.31036],[107.58238,12.31872],[107.57056,12.3186],[107.57075,12.32557],[107.55978,12.32788],[107.55746,12.33197],[107.5492,12.33286],[107.53614,12.32694],[107.52558,12.33424],[107.48938,12.31207],[107.47124,12.30464],[107.46767,12.29604],[107.45157,12.28798],[107.44217,12.27056],[107.44432,12.25931],[107.43789,12.24642],[107.41799,12.24159],[107.41447,12.24792],[107.40689,12.24974],[107.39069,12.26907],[107.39001,12.2761],[107.39325,12.28043],[107.3915,12.28347],[107.38606,12.28331],[107.38604,12.29824],[107.3694,12.31874],[107.35738,12.32368],[107.35438,12.33776],[107.3489,12.34088],[107.34142,12.33758],[107.34103,12.34344],[107.33312,12.34234],[107.32963,12.35174],[107.32337,12.3512],[107.31942,12.35841],[107.31274,12.35854],[107.31062,12.37796],[107.32236,12.38814],[107.3157,12.39327],[107.30016,12.39575],[107.29493,12.40214],[107.29762,12.4077],[107.28631,12.41369],[107.28735,12.42149],[107.27148,12.42955],[107.2636,12.42905],[107.26286,12.43381],[107.25291,12.43992],[107.25007,12.44731],[107.24561,12.4469],[107.24972,12.45886],[107.24655,12.4809],[107.23544,12.48835],[107.21112,12.49096],[107.2072,12.48516],[107.18207,12.48358],[107.17957,12.49071],[107.16968,12.49798],[107.16142,12.49869],[107.15958,12.50532],[107.14726,12.5108],[107.14624,12.52481],[107.13145,12.54521],[107.12825,12.55609],[107.12132,12.55866],[107.10867,12.57141],[107.11516,12.57542],[107.11659,12.59021],[107.1224,12.60037],[107.12043,12.614],[107.11115,12.61958],[107.09436,12.62328],[107.08841,12.63442],[107.0755,12.64174],[107.07366,12.65649],[107.0627,12.66179],[107.05746,12.67077],[107.04955,12.67434],[107.0457,12.68495],[107.04179,12.68762],[107.04379,12.70953],[107.0212,12.70803],[107.01397,12.71428],[107.00739,12.72684],[106.99219,12.7384],[106.97102,12.7326],[106.96407,12.72753],[106.94629,12.73576],[106.93063,12.7606],[106.92849,12.77834],[106.91671,12.78191],[106.91264,12.78851],[106.91006,12.78657],[106.89843,12.79112],[106.89334,12.79492],[106.89002,12.80653],[106.88348,12.80784],[106.87812,12.81416],[106.8776,12.82058],[106.8695,12.82162],[106.86713,12.82791],[106.87176,12.83793],[106.88118,12.84205],[106.88195,12.86982],[106.8861,12.8723],[106.88773,12.88206],[106.88582,12.89226],[106.90171,12.90039],[106.90326,12.92651],[106.89992,12.92928],[106.90246,12.94683],[106.8992,12.95122],[106.91241,12.97787],[106.90806,12.98017],[106.91031,12.99466],[106.90491,12.99924],[106.91502,13.01685],[106.90731,13.01593],[106.90623,13.02084],[106.89834,13.02073],[106.89721,13.02697],[106.87193,13.03875],[106.86521,13.03741],[106.85699,13.04024],[106.85253,13.04809],[106.84629,13.04978],[106.83788,13.05798],[106.83652,13.06526],[106.82416,13.0808],[106.82823,13.13154],[106.82109,13.15456],[106.81275,13.15482],[106.79634,13.14822],[106.77499,13.16913],[106.7607,13.16948],[106.75514,13.17882],[106.76037,13.1825],[106.76079,13.19312],[106.74806,13.20029],[106.733,13.1985],[106.73362,13.20302],[106.7255,13.20761],[106.71838,13.22355],[106.70574,13.23039],[106.69658,13.23103],[106.68797,13.22721],[106.67828,13.23559],[106.65969,13.23366],[106.6419,13.23945],[106.63013,13.23986],[106.61445,13.23296],[106.60979,13.22755],[106.59943,13.22736],[106.59292,13.23235],[106.57538,13.23674],[106.56881,13.2484],[106.56845,13.25853],[106.55811,13.26234],[106.55581,13.26709],[106.52995,13.27409],[106.52688,13.27954],[106.5174,13.28429],[106.46156,13.26938],[106.445,13.28537],[106.44225,13.30302],[106.43719,13.30049],[106.4362,13.2902],[106.43131,13.288],[106.42188,13.30099],[106.38771,13.29657],[106.37639,13.31706],[106.36017,13.32609],[106.33844,13.32859],[106.32812,13.32444],[106.31389,13.33429],[106.31363,13.3449],[106.31818,13.35182],[106.31681,13.35687],[106.3048,13.35904],[106.30118,13.36484],[106.29245,13.35973],[106.2858,13.36092],[106.28565,13.36534],[106.28143,13.36672],[106.27423,13.3655],[106.28077,13.3826],[106.29013,13.38644],[106.29995,13.39554],[106.29338,13.39989],[106.28578,13.39867],[106.26952,13.40294],[106.25726,13.38891],[106.24505,13.39173],[106.23324,13.38871],[106.22986,13.39437],[106.22018,13.39698],[106.20612,13.41449],[106.19277,13.41763],[106.17658,13.42823],[106.11402,13.44236],[106.10854,13.44649],[106.08783,13.44632],[106.0648,13.45386],[106.01408,13.48178],[105.9955,13.47897],[105.97873,13.48307],[105.96347,13.49957],[105.95001,13.52355],[105.95145,13.53352],[105.96893,13.53876],[106.00263,13.56141],[106.02033,13.5671],[106.06035,13.59017],[106.075,13.61881],[106.07562,13.64109],[106.08748,13.67595],[106.08702,13.71543],[106.09157,13.72131],[106.10645,13.72804],[106.11366,13.73769],[106.11457,13.74474],[106.10989,13.7569],[106.09456,13.77498],[106.10236,13.79038],[106.10429,13.81412],[106.0966,13.83338],[106.08713,13.84058],[106.08622,13.84633],[106.09258,13.85622],[106.09037,13.86576],[106.09811,13.87697],[106.10012,13.88582],[106.10903,13.88849],[106.09794,13.905],[106.09961,13.90934],[106.11072,13.9093],[106.10787,13.93462],[106.11042,13.94228],[106.10588,13.96101],[106.11103,13.96643],[106.10375,13.97646],[106.10465,13.98454],[106.09465,13.98804],[106.08908,13.99389],[106.07601,13.98882],[106.07313,13.99367],[106.06784,13.99354],[106.06675,13.9981],[106.07219,14.01141],[106.05843,14.01826],[106.06352,14.03229],[106.04436,14.0337],[106.03371,14.04352],[106.02336,14.04365],[106.02141,14.05015],[106.01442,14.0534],[106.01415,14.06373],[106.02039,14.07444],[106.01986,14.08423],[106.00908,14.10257],[105.99194,14.1088],[105.9969,14.11204],[105.99452,14.12209],[105.97602,14.11789],[105.96526,14.12003],[105.96737,14.12703],[105.97289,14.12788],[105.97204,14.13524],[105.9766,14.14214],[105.97487,14.14875],[105.97846,14.15486],[105.98564,14.1587],[105.98705,14.17141],[105.9966,14.18668],[105.99494,14.19983],[105.98413,14.20121],[105.98069,14.20815],[105.9845,14.21141],[105.97791,14.21825],[105.97608,14.22826],[105.96261,14.23609],[105.95906,14.24884],[105.97785,14.26607],[106.00215,14.2713],[106.00135,14.28054],[105.9977,14.28306],[106.00294,14.28627],[106.00333,14.29334],[106.00711,14.29343],[106.00492,14.30058],[106.00832,14.3069],[106.00427,14.31308],[106.00614,14.31671],[105.99967,14.32324],[106.0016,14.33393],[106.00532,14.33779],[106.00041,14.34614],[106.00091,14.35607],[106.0054,14.35936],[106.00548,14.3735],[105.9934,14.38146],[105.98528,14.39519],[105.98522,14.4026],[105.98148,14.40553],[105.98246,14.41905],[105.97601,14.42441],[105.97699,14.43615],[105.97322,14.43907],[105.97201,14.44776],[105.96689,14.45245],[105.96106,14.4508],[105.95467,14.45824],[105.95771,14.4823],[105.95227,14.4985],[105.95505,14.51128],[105.96254,14.51409],[105.96452,14.52676],[105.96889,14.52651],[105.9701,14.53023],[105.97841,14.52929],[105.98388,14.53548],[105.9811,14.54443],[105.98483,14.55673],[105.98156,14.55915],[105.99077,14.56773],[105.98584,14.56967],[105.98384,14.57455],[105.97564,14.57607],[105.97576,14.58173],[105.97106,14.58457],[105.97088,14.58863],[105.96386,14.58935],[105.96178,14.595],[105.9754,14.60442],[105.97849,14.61231],[106.0001,14.61636],[106.00436,14.63804],[106.01135,14.63582],[106.03268,14.65581],[106.02515,14.66955],[106.01521,14.6728],[106.01296,14.68106],[106.02241,14.69616],[106.03873,14.69649],[106.0255,14.71548],[106.02625,14.74168],[106.02118,14.75206],[106.04005,14.76883],[106.04945,14.77112],[106.06364,14.7604],[106.0751,14.77292],[106.08547,14.77384],[106.09033,14.77736],[106.09738,14.77462],[106.1098,14.78752],[106.12035,14.8082],[106.1182,14.84714],[106.12401,14.85185],[106.12209,14.85956],[106.1377,14.86777],[106.14374,14.87758],[106.15507,14.87666],[106.16576,14.88631],[106.17169,14.89779],[106.16932,14.90697],[106.17274,14.91491],[106.17691,14.91517],[106.18242,14.92145],[106.19431,14.92131],[106.20334,14.92962],[106.20995,14.92989],[106.20307,14.94858],[106.21231,14.95732],[106.21634,14.9662],[106.21465,14.97115],[106.21944,14.99489],[106.21928,15.0011],[106.21491,15.0054],[106.21677,15.01611],[106.21393,15.01748],[106.21489,15.02558],[106.21189,15.0302],[106.2197,15.03751],[106.21308,15.052],[106.22133,15.05147],[106.22654,15.05502],[106.23178,15.06755],[106.23838,15.06909],[106.24321,15.0752],[106.23947,15.08219],[106.24765,15.08857],[106.24608,15.10192],[106.24836,15.107],[106.23893,15.11609],[106.23842,15.1205],[106.2436,15.13737],[106.25308,15.14538],[106.26298,15.14506],[106.26767,15.14974],[106.2771,15.14974],[106.28069,15.15305],[106.27991,15.15695],[106.2893,15.15782],[106.30136,15.16496],[106.30887,15.17662],[106.30794,15.1827],[106.3109,15.18519],[106.3147,15.203],[106.3276,15.21245],[106.32592,15.21816],[106.333,15.21731],[106.35352,15.22902],[106.36114,15.23469],[106.36596,15.24912],[106.38347,15.2524],[106.39227,15.26383],[106.40355,15.26935],[106.40827,15.28724],[106.40056,15.28786],[106.4019,15.30624],[106.39146,15.31821],[106.38155,15.32168],[106.37941,15.33516],[106.38363,15.33497],[106.38634,15.34168],[106.39301,15.34537],[106.39289,15.35336],[106.39762,15.35964],[106.40399,15.36038],[106.40239,15.36526],[106.40777,15.36994],[106.4042,15.38012],[106.41178,15.38921],[106.40263,15.39888],[106.40713,15.41251],[106.40443,15.41722],[106.40921,15.42107],[106.41235,15.43387],[106.41966,15.44104],[106.42075,15.44839],[106.43006,15.4572],[106.42967,15.46847],[106.43842,15.46783],[106.44688,15.47409],[106.45568,15.4718],[106.46886,15.48347],[106.49208,15.47814],[106.49893,15.48747],[106.51407,15.48086],[106.52033,15.48483],[106.52678,15.48057],[106.53362,15.48527],[106.54196,15.4843],[106.54761,15.48814],[106.57382,15.48734],[106.57651,15.47953],[106.5888,15.47954],[106.59785,15.48639],[106.59427,15.50099],[106.5972,15.50772],[106.59389,15.52985],[106.59806,15.54144],[106.60189,15.54079],[106.602,15.54436],[106.60698,15.54577],[106.60304,15.55462],[106.60474,15.55697],[106.62726,15.56175],[106.63048,15.55704],[106.64143,15.55858],[106.64628,15.55473],[106.64961,15.56112],[106.65785,15.56514],[106.66213,15.55876],[106.67684,15.55462],[106.67665,15.55111],[106.68856,15.55007],[106.69446,15.55819],[106.70231,15.55987],[106.70465,15.5689],[106.7212,15.57051],[106.72442,15.57512],[106.74299,15.58378],[106.73688,15.60558],[106.73032,15.61501],[106.72798,15.62836],[106.71938,15.63743],[106.72519,15.65456],[106.71721,15.66124],[106.70628,15.65707],[106.69837,15.66082],[106.68707,15.68117],[106.68909,15.70129],[106.68242,15.70884],[106.68291,15.71891],[106.67266,15.72525],[106.67243,15.73388],[106.66619,15.73546],[106.65754,15.74394],[106.65512,15.75449],[106.64557,15.75844],[106.64389,15.7702],[106.63839,15.77642],[106.60224,15.79554],[106.60223,15.80561],[106.59788,15.8147],[106.57979,15.82418],[106.57568,15.84631],[106.5628,15.84868],[106.55962,15.85404],[106.56057,15.85933],[106.55324,15.86279],[106.55331,15.88109],[106.5506,15.88653],[106.56524,15.88692],[106.56904,15.88277],[106.59051,15.87803],[106.59377,15.88347],[106.61923,15.88133],[106.62446,15.89675],[106.63695,15.90046],[106.64634,15.91026],[106.65615,15.90818],[106.66099,15.91184],[106.66478,15.92351],[106.66978,15.91613],[106.69649,15.91335],[106.70594,15.92321],[106.70957,15.91685],[106.7212,15.91997],[106.72113,15.92977],[106.72627,15.93217],[106.73228,15.93002],[106.73624,15.94117],[106.74691,15.93843],[106.74969,15.93053],[106.76029,15.93118],[106.76876,15.94582],[106.781,15.94759],[106.78304,15.95736],[106.79023,15.96527],[106.79515,15.96563],[106.80253,15.97657],[106.80452,15.98655],[106.81297,15.99982],[106.81311,16.00725],[106.81783,16.01091],[106.81697,16.019],[106.82261,16.02169],[106.82221,16.03117],[106.82714,16.03281],[106.83232,16.04164],[106.8393,16.04311],[106.86599,16.06469],[106.88023,16.10056],[106.88775,16.10414],[106.88882,16.10874],[106.90106,16.11856],[106.91085,16.1221],[106.91694,16.11477],[106.91107,16.097],[106.91835,16.08518],[106.92226,16.08399],[106.9231,16.07861],[106.93098,16.07747],[106.93788,16.08028],[106.94297,16.07559],[106.94809,16.07549],[106.94899,16.08395],[106.95672,16.09063],[106.95616,16.09579],[106.96414,16.09937],[106.96923,16.10635],[106.97125,16.11892],[106.97878,16.12163],[106.98549,16.13357],[107.00218,16.14281],[107.00355,16.15126],[107.01075,16.15099],[107.01898,16.15531],[107.0256,16.16457],[107.0321,16.16626],[107.03352,16.17262],[107.03943,16.17742],[107.03763,16.18548],[107.02588,16.18478],[107.04296,16.19046],[107.04221,16.19578],[107.04608,16.2011],[107.0445,16.2101],[107.05553,16.2251],[107.05638,16.24082],[107.04229,16.25979],[107.04134,16.26532],[107.04821,16.27922],[107.0485,16.29156],[107.05495,16.30372],[107.07399,16.30063],[107.08694,16.3098],[107.09602,16.30544],[107.09067,16.31399],[107.08874,16.34739],[107.09226,16.35072],[107.09952,16.34865],[107.10793,16.35193],[107.10038,16.35757],[107.09923,16.37248],[107.09581,16.37808],[107.10245,16.37844],[107.1061,16.38375],[107.11915,16.38383],[107.13086,16.38077],[107.13213,16.37793],[107.14483,16.38525],[107.15714,16.37587],[107.17894,16.37279],[107.18023,16.36597],[107.19556,16.36395],[107.20753,16.3568],[107.21548,16.35594],[107.22018,16.35897],[107.22664,16.3566],[107.22516,16.34651],[107.23,16.34284],[107.21569,16.33355],[107.21719,16.32574],[107.23511,16.3101],[107.24901,16.30405],[107.25409,16.26716],[107.2667,16.24674],[107.27739,16.24574],[107.28307,16.23406],[107.30156,16.21978],[107.3034,16.21208],[107.32433,16.19525],[107.32696,16.18548],[107.34163,16.16871],[107.3426,16.16366],[107.35343,16.16098],[107.35612,16.15731],[107.35857,16.14795],[107.36459,16.144],[107.37321,16.12796],[107.37349,16.11573],[107.36468,16.10831],[107.37003,16.09817],[107.37182,16.08295],[107.39132,16.06098],[107.40287,16.05936],[107.40827,16.07611],[107.41615,16.08181],[107.42462,16.07571],[107.43067,16.0753],[107.4385,16.08043],[107.44701,16.08033],[107.44999,16.08587],[107.45424,16.08525],[107.45964,16.07638],[107.46697,16.07289],[107.45336,16.06019],[107.44948,16.05073],[107.45043,16.03589],[107.45902,16.03307],[107.46165,16.02749],[107.47056,16.0219],[107.46796,16.01284],[107.4594,16.00217],[107.45567,15.98637],[107.44748,15.98715],[107.4508,15.97872],[107.44284,15.96145],[107.43781,15.95787],[107.43067,15.93372],[107.43196,15.92845],[107.42346,15.92385],[107.41939,15.90938],[107.41375,15.9071],[107.40159,15.8877],[107.38519,15.88238],[107.37394,15.88988],[107.35006,15.89093],[107.33282,15.8843],[107.32975,15.87808],[107.32245,15.8781],[107.31713,15.86466],[107.29371,15.86267],[107.28626,15.85493],[107.2779,15.85822],[107.27413,15.85009],[107.26069,15.84555],[107.25079,15.83486],[107.23674,15.84011],[107.23516,15.83506],[107.22612,15.83263],[107.22031,15.82196],[107.2316,15.8013],[107.23036,15.79313],[107.23369,15.78153],[107.22412,15.77475],[107.22126,15.75819],[107.21551,15.75469],[107.21627,15.7286],[107.22518,15.72318],[107.23353,15.72372],[107.23634,15.71898],[107.27025,15.71786],[107.27124,15.70754],[107.27964,15.70552],[107.27748,15.69932],[107.28112,15.69299],[107.27716,15.68568],[107.28011,15.67975],[107.27177,15.66759],[107.26826,15.656],[107.27148,15.65092],[107.28119,15.65025],[107.28255,15.6459],[107.27841,15.64138],[107.28037,15.63161],[107.28765,15.62702],[107.2987,15.63803],[107.31089,15.63199],[107.31486,15.63652],[107.31945,15.63672],[107.35018,15.60886],[107.35723,15.59088],[107.35321,15.57478],[107.36919,15.56711],[107.36941,15.54479],[107.37446,15.53762],[107.3805,15.53845],[107.37896,15.52286],[107.39226,15.52129],[107.39606,15.5171],[107.39926,15.50616],[107.39548,15.50554],[107.3934,15.50061],[107.39484,15.49383],[107.40867,15.49511],[107.41457,15.48716],[107.41868,15.49077],[107.42002,15.48749],[107.42604,15.48908],[107.43191,15.48645],[107.43867,15.4916],[107.44416,15.48905],[107.4466,15.49242],[107.44749,15.49004],[107.46704,15.48954],[107.47305,15.49511],[107.48168,15.48823],[107.48998,15.48864],[107.49581,15.48471],[107.50133,15.47879],[107.50209,15.47317],[107.50691,15.47177],[107.51512,15.4846],[107.52133,15.48288],[107.52413,15.4762],[107.51839,15.47294],[107.5176,15.46693],[107.52097,15.46175],[107.51875,15.45701],[107.52551,15.454],[107.52604,15.4432],[107.53024,15.4347],[107.52289,15.42087],[107.52273,15.41238],[107.53466,15.40261],[107.5483,15.40336],[107.55865,15.39429],[107.5639,15.40108],[107.56775,15.39751],[107.58005,15.39872],[107.59223,15.39332],[107.60332,15.39591],[107.61119,15.39203],[107.6086,15.38594],[107.59946,15.38039],[107.61203,15.3666],[107.60888,15.35088],[107.61276,15.34971],[107.61075,15.34209],[107.6143,15.33263],[107.63105,15.32716],[107.64081,15.31352],[107.64883,15.31112],[107.65266,15.30312],[107.66083,15.29834],[107.66749,15.28675],[107.68898,15.28065],[107.6983,15.25704],[107.69179,15.24682],[107.69824,15.23918],[107.69131,15.23075],[107.7175,15.20115],[107.7356,15.20491],[107.74711,15.20369],[107.77361,15.22262],[107.77811,15.21988],[107.77377,15.2095],[107.77481,15.19593],[107.76534,15.16657],[107.76615,15.16086],[107.77487,15.13279],[107.79248,15.10794],[107.78804,15.09003],[107.79231,15.06954],[107.7908,15.06386],[107.79906,15.05246],[107.80678,15.03279],[107.81629,15.03278],[107.81921,15.02694],[107.82395,15.0258],[107.83477,15.03191],[107.84266,15.0431],[107.86171,15.03544],[107.87024,15.02769],[107.87569,15.02956],[107.88026,15.02391],[107.88541,15.02836],[107.88966,15.03993],[107.89485,15.039],[107.90061,15.03118],[107.89733,15.02606],[107.90061,15.01526],[107.91128,15.01039],[107.91246,14.99898],[107.92553,15.00053],[107.93048,14.99778],[107.94612,15.00059],[107.95068,15.01053],[107.95223,15.02707],[107.95618,15.03262],[107.9633,15.03532],[107.96835,15.01579],[107.97645,15.00955],[107.98495,15.00826],[107.99407,14.99598],[108.05141,14.99769],[108.07307,14.97974],[108.07163,14.97007],[108.0555,14.95197],[108.05129,14.94161],[108.05272,14.93836],[108.06101,14.93718],[108.064,14.92636],[108.0715,14.92178],[108.07455,14.91563],[108.09328,14.9082],[108.09654,14.90385],[108.10893,14.90308],[108.14368,14.95175],[108.15197,14.95455],[108.17147,14.97571],[108.18021,14.97334],[108.18759,14.96664],[108.2015,14.96413],[108.20206,14.93978],[108.18709,14.92627],[108.18294,14.906],[108.19534,14.89749],[108.19715,14.89026],[108.19571,14.87688],[108.18958,14.8661],[108.19576,14.8543],[108.20236,14.8515],[108.20621,14.84479],[108.21206,14.8493],[108.22618,14.8403],[108.23188,14.84171],[108.22958,14.83622],[108.23799,14.80566],[108.26201,14.80279],[108.28828,14.81469],[108.30326,14.80539],[108.30273,14.79584],[108.29158,14.78439],[108.29498,14.78012],[108.2867,14.7349],[108.286,14.72705],[108.28931,14.72297],[108.28449,14.67077],[108.30046,14.67099],[108.31356,14.67521],[108.32159,14.67327],[108.32525,14.66666],[108.33339,14.66471],[108.34458,14.67444],[108.35206,14.67272],[108.36371,14.67599],[108.37239,14.67318],[108.37406,14.66746],[108.38035,14.66705],[108.38645,14.65285],[108.39077,14.63715],[108.38069,14.60557],[108.39203,14.60207],[108.39271,14.59698],[108.38334,14.59258],[108.37558,14.58233],[108.36318,14.57918],[108.36134,14.57032],[108.36451,14.56019],[108.37833,14.54445],[108.37442,14.53119],[108.38777,14.52211],[108.385,14.50828],[108.38014,14.50761],[108.37001,14.49702],[108.36966,14.49295],[108.38308,14.48869],[108.37964,14.48097],[108.36802,14.47198],[108.37027,14.4577],[108.37437,14.45218],[108.36724,14.44571],[108.37119,14.44307],[108.37129,14.43687],[108.35645,14.42265],[108.36725,14.41472],[108.37462,14.39991],[108.36739,14.39233],[108.36514,14.37516],[108.37322,14.35719],[108.38522,14.34712],[108.38561,14.34147],[108.38032,14.33692],[108.38194,14.33144],[108.39442,14.32164],[108.392,14.2969],[108.3874,14.28934],[108.37469,14.28153],[108.3708,14.26493],[108.35761,14.25594],[108.34551,14.25352],[108.34205,14.23987],[108.31723,14.2397],[108.31403,14.23841],[108.31032,14.22855],[108.303,14.22628],[108.28728,14.23605],[108.2732,14.22758],[108.27315,14.2187],[108.26757,14.21078],[108.26962,14.18988],[108.2649,14.18328],[108.27095,14.16121],[108.2691,14.15347],[108.26192,14.15512],[108.2561,14.14654],[108.26188,14.14727],[108.26673,14.1418],[108.26547,14.12754],[108.26878,14.11491],[108.25738,14.11351],[108.25515,14.10621],[108.25249,14.10588],[108.23131,14.11475],[108.22471,14.11461],[108.21683,14.09232],[108.20473,14.08425],[108.20762,14.07469],[108.19503,14.0692],[108.18928,14.05383],[108.16874,14.03928],[108.17427,14.02927],[108.17068,14.02297],[108.15012,14.00776],[108.13893,14.00677],[108.12801,14.00056],[108.12468,13.9892],[108.13923,13.96735],[108.13642,13.95696],[108.14163,13.94729],[108.13993,13.94503],[108.13026,13.94483],[108.10478,13.93538],[108.08608,13.92064],[108.07939,13.90704],[108.06859,13.89691],[108.05673,13.89527],[108.04556,13.88303],[108.03402,13.88008],[108.01891,13.8845],[108.01787,13.88191]]]}}
