{"type":"Feature","properties":{"code":"SEN-FK","name":"Fatick Department","landscape_system":"Sudan-Sahelian and Guinea Forest-Savanna Transition","countries":["Senegal"],"source_file":"MFL_Senegal_LL_SEN.shp","source_features_dissolved":1,"simplify_tolerance_deg":0.0005,"generated":"2026-07-21"},"bbox":[-16.79207,13.92839,-16.10546,14.60836],"geometry":{"type":"Polygon","coordinates":[[[-16.35856,14.59986],[-16.35723,14.59757],[-16.35809,14.59651],[-16.35808,14.59484],[-16.3552,14.5931],[-16.3483,14.59225],[-16.34174,14.58502],[-16.32478,14.58269],[-16.32317,14.58014],[-16.3175,14.57694],[-16.29827,14.57468],[-16.29037,14.57827],[-16.27956,14.57745],[-16.27647,14.57852],[-16.25737,14.57596],[-16.25399,14.57654],[-16.24887,14.57579],[-16.2432,14.57614],[-16.24025,14.57538],[-16.23817,14.57932],[-16.23488,14.58226],[-16.2323,14.58247],[-16.22526,14.57737],[-16.21654,14.576],[-16.20896,14.57247],[-16.20197,14.56726],[-16.18947,14.57025],[-16.18636,14.56837],[-16.18644,14.56152],[-16.17492,14.55759],[-16.17175,14.56003],[-16.16921,14.56075],[-16.16638,14.5607],[-16.16245,14.55912],[-16.16108,14.55332],[-16.16397,14.55166],[-16.16471,14.54907],[-16.16698,14.54865],[-16.16797,14.54497],[-16.16503,14.53954],[-16.1631,14.53209],[-16.17658,14.51944],[-16.17528,14.49925],[-16.179,14.49491],[-16.18156,14.49499],[-16.18532,14.49682],[-16.18862,14.49117],[-16.18037,14.48814],[-16.1807,14.48506],[-16.18258,14.48106],[-16.18376,14.48047],[-16.18382,14.47423],[-16.1924,14.4734],[-16.19507,14.46568],[-16.19621,14.45485],[-16.20025,14.45018],[-16.20408,14.44405],[-16.21482,14.43487],[-16.21537,14.43454],[-16.22333,14.44363],[-16.2294,14.44243],[-16.22595,14.43079],[-16.22575,14.42762],[-16.2213,14.41907],[-16.2181,14.41761],[-16.20769,14.41653],[-16.21103,14.40127],[-16.20594,14.3979],[-16.19773,14.39917],[-16.18949,14.40331],[-16.18356,14.40268],[-16.18267,14.41006],[-16.16276,14.40361],[-16.14913,14.40251],[-16.13699,14.40395],[-16.12977,14.40251],[-16.12575,14.40032],[-16.11829,14.39117],[-16.1154,14.38188],[-16.11291,14.37885],[-16.10721,14.36827],[-16.10546,14.3678],[-16.10596,14.36691],[-16.12381,14.36064],[-16.14807,14.36144],[-16.14795,14.36316],[-16.15048,14.3624],[-16.16549,14.36242],[-16.17173,14.36093],[-16.18156,14.35554],[-16.18237,14.35218],[-16.18677,14.3489],[-16.18964,14.34458],[-16.19332,14.33488],[-16.19395,14.32486],[-16.19488,14.32336],[-16.19711,14.32281],[-16.20434,14.3254],[-16.21814,14.32717],[-16.23072,14.32772],[-16.23246,14.32837],[-16.2456,14.32823],[-16.24677,14.32745],[-16.2443,14.32549],[-16.25232,14.32026],[-16.25006,14.31087],[-16.25264,14.31013],[-16.26086,14.29857],[-16.26025,14.29749],[-16.26465,14.29532],[-16.27797,14.30255],[-16.28217,14.29622],[-16.28617,14.29749],[-16.28968,14.29299],[-16.29238,14.29084],[-16.30357,14.28622],[-16.3049,14.28433],[-16.30587,14.27861],[-16.31309,14.27443],[-16.31926,14.27266],[-16.32086,14.26924],[-16.34233,14.27191],[-16.34715,14.26764],[-16.34835,14.26023],[-16.34907,14.25848],[-16.35088,14.25721],[-16.35294,14.2525],[-16.35383,14.248],[-16.35326,14.24648],[-16.35589,14.24562],[-16.35631,14.24459],[-16.35409,14.24021],[-16.36021,14.23749],[-16.36379,14.23686],[-16.36291,14.23457],[-16.3574,14.23326],[-16.35504,14.23138],[-16.35449,14.22872],[-16.35617,14.2256],[-16.35889,14.22235],[-16.36026,14.22233],[-16.36311,14.22237],[-16.36441,14.22687],[-16.36607,14.22805],[-16.36889,14.22775],[-16.37015,14.22571],[-16.36984,14.22266],[-16.36622,14.21625],[-16.36581,14.21329],[-16.36832,14.20385],[-16.36766,14.20076],[-16.36852,14.1982],[-16.36746,14.19743],[-16.3648,14.1976],[-16.35743,14.19191],[-16.35391,14.18801],[-16.35803,14.18632],[-16.35871,14.18392],[-16.36032,14.18408],[-16.3616,14.1856],[-16.36374,14.18381],[-16.36557,14.18465],[-16.36704,14.18064],[-16.36362,14.17922],[-16.36222,14.17525],[-16.35895,14.17631],[-16.358,14.1741],[-16.36082,14.1714],[-16.36506,14.1755],[-16.36886,14.17648],[-16.36992,14.17564],[-16.37116,14.16941],[-16.37563,14.17216],[-16.37621,14.1715],[-16.37599,14.16591],[-16.37773,14.16249],[-16.37987,14.16192],[-16.38246,14.1636],[-16.38586,14.16146],[-16.385,14.15952],[-16.38015,14.15509],[-16.38165,14.15208],[-16.38767,14.14641],[-16.38939,14.14621],[-16.39117,14.1471],[-16.41075,14.15077],[-16.41829,14.15708],[-16.42194,14.1651],[-16.42454,14.1687],[-16.42651,14.16955],[-16.43267,14.16907],[-16.41762,14.18257],[-16.41469,14.18837],[-16.41325,14.19417],[-16.41624,14.19993],[-16.43557,14.20994],[-16.44134,14.20361],[-16.44966,14.19627],[-16.46028,14.18243],[-16.46649,14.17745],[-16.4911,14.16381],[-16.4985,14.16087],[-16.52024,14.139],[-16.52992,14.11922],[-16.53249,14.10097],[-16.53734,14.08272],[-16.53843,14.0753],[-16.54185,14.06998],[-16.54671,14.06684],[-16.5502,14.06644],[-16.55706,14.06715],[-16.56861,14.07087],[-16.57171,14.07085],[-16.57585,14.06943],[-16.57752,14.06765],[-16.57866,14.06436],[-16.5804,14.05381],[-16.59848,14.05651],[-16.61671,14.02885],[-16.65362,14.02499],[-16.67724,14.02622],[-16.67838,14.02326],[-16.67819,14.01934],[-16.68139,14.01375],[-16.68343,14.00818],[-16.69497,14.01077],[-16.69996,14.01023],[-16.70673,14.00785],[-16.72214,13.99249],[-16.74417,13.97306],[-16.75269,13.96163],[-16.75442,13.95835],[-16.75621,13.95179],[-16.75623,13.92839],[-16.76197,13.92887],[-16.7632,13.93097],[-16.76458,13.9393],[-16.76708,13.98208],[-16.76792,13.98514],[-16.7682,13.99875],[-16.77264,14.03125],[-16.77399,14.05071],[-16.76431,14.06326],[-16.76329,14.06368],[-16.75936,14.06208],[-16.75508,14.06269],[-16.75266,14.06384],[-16.75174,14.07049],[-16.75265,14.07531],[-16.75234,14.0793],[-16.75318,14.08041],[-16.75358,14.08492],[-16.75694,14.08954],[-16.76765,14.09992],[-16.76606,14.10477],[-16.76669,14.10594],[-16.77901,14.11181],[-16.77985,14.11357],[-16.78936,14.12026],[-16.79207,14.12409],[-16.79156,14.1301],[-16.7849,14.1397],[-16.77985,14.14113],[-16.77102,14.13785],[-16.76768,14.13847],[-16.76327,14.14119],[-16.75927,14.14204],[-16.75593,14.14008],[-16.75366,14.14098],[-16.75257,14.14318],[-16.75353,14.14681],[-16.75507,14.14835],[-16.7574,14.15318],[-16.76297,14.15764],[-16.76347,14.16086],[-16.75743,14.16908],[-16.74931,14.17155],[-16.74676,14.17387],[-16.7428,14.18064],[-16.74129,14.18196],[-16.73411,14.18287],[-16.72908,14.18895],[-16.7254,14.19143],[-16.72395,14.19441],[-16.72215,14.2035],[-16.72391,14.20802],[-16.73034,14.21128],[-16.73212,14.21119],[-16.7387,14.21562],[-16.74216,14.21886],[-16.74327,14.22222],[-16.745,14.22429],[-16.74197,14.22822],[-16.74196,14.23221],[-16.74342,14.24131],[-16.74572,14.24522],[-16.73319,14.25034],[-16.72623,14.25756],[-16.72386,14.25891],[-16.7297,14.25877],[-16.73459,14.2656],[-16.72903,14.27132],[-16.7219,14.28073],[-16.70884,14.30235],[-16.70708,14.31167],[-16.7079,14.32371],[-16.70891,14.32624],[-16.71021,14.33627],[-16.71039,14.3523],[-16.70787,14.36083],[-16.70827,14.36473],[-16.70525,14.39415],[-16.70083,14.40188],[-16.69934,14.40825],[-16.69846,14.41831],[-16.69453,14.42641],[-16.69105,14.42805],[-16.68341,14.42658],[-16.67103,14.42563],[-16.6495,14.42568],[-16.63517,14.42865],[-16.62505,14.44056],[-16.6175,14.44717],[-16.60728,14.45227],[-16.59499,14.45613],[-16.57943,14.46771],[-16.55123,14.49215],[-16.54839,14.49916],[-16.54431,14.50298],[-16.53609,14.51839],[-16.53457,14.52518],[-16.53174,14.53159],[-16.52848,14.55034],[-16.5268,14.55428],[-16.52727,14.56154],[-16.51905,14.57529],[-16.5177,14.5795],[-16.51828,14.59105],[-16.51144,14.59108],[-16.50871,14.59303],[-16.4941,14.59258],[-16.48951,14.59352],[-16.48599,14.59096],[-16.48143,14.59253],[-16.47977,14.5916],[-16.47856,14.58801],[-16.47257,14.58785],[-16.46755,14.58867],[-16.45689,14.595],[-16.44216,14.59464],[-16.43563,14.59596],[-16.42811,14.59633],[-16.42417,14.59496],[-16.4214,14.59721],[-16.41684,14.59858],[-16.41036,14.59767],[-16.39887,14.60359],[-16.39446,14.60249],[-16.39224,14.59935],[-16.37503,14.60836],[-16.37015,14.60749],[-16.36065,14.60425],[-16.35856,14.59986]]]}}
