{"type":"Feature","properties":{"code":"TUN-NW","name":"Northwestern Tunisia","landscape_system":"Dryland Mediterranean","countries":["Tunisia"],"source_file":"Tunisia_ALL_TUN.shp","source_features_dissolved":6,"simplify_tolerance_deg":0.0005,"generated":"2026-07-21"},"bbox":[8.92352,35.73839,9.44657,36.43239],"geometry":{"type":"MultiPolygon","coordinates":[[[[9.39246,35.85312],[9.39376,35.84938],[9.39488,35.84804],[9.39716,35.84716],[9.39891,35.84442],[9.40681,35.8454],[9.40759,35.8451],[9.40651,35.84342],[9.40795,35.84318],[9.41296,35.84331],[9.41464,35.8422],[9.42757,35.84192],[9.427,35.83959],[9.42349,35.83532],[9.42835,35.83464],[9.43178,35.83545],[9.4346,35.83419],[9.4369,35.8348],[9.43769,35.83419],[9.43709,35.83157],[9.43526,35.83031],[9.42935,35.83002],[9.42707,35.8275],[9.42539,35.82917],[9.42224,35.82792],[9.41889,35.82364],[9.41618,35.82516],[9.41369,35.82374],[9.41363,35.82137],[9.41221,35.81811],[9.41279,35.81687],[9.41748,35.81475],[9.41989,35.81509],[9.4194,35.814],[9.42156,35.81176],[9.42563,35.81049],[9.42388,35.80875],[9.42137,35.80994],[9.41887,35.80975],[9.41696,35.81247],[9.41471,35.81319],[9.41176,35.81267],[9.40912,35.80979],[9.40436,35.81024],[9.40102,35.80933],[9.39939,35.79509],[9.40172,35.79201],[9.40322,35.78659],[9.40903,35.77645],[9.41068,35.77046],[9.41008,35.76774],[9.41051,35.76322],[9.40779,35.76437],[9.39687,35.76413],[9.38706,35.75917],[9.38293,35.75346],[9.38164,35.74867],[9.38176,35.74329],[9.38301,35.7389],[9.38043,35.7398],[9.37864,35.74193],[9.37793,35.7411],[9.37817,35.73931],[9.37694,35.73839],[9.37599,35.73905],[9.3762,35.74126],[9.3743,35.74061],[9.37298,35.74303],[9.37138,35.74356],[9.36993,35.74234],[9.36802,35.74373],[9.36527,35.74306],[9.36348,35.74399],[9.36098,35.74353],[9.35761,35.74725],[9.35577,35.74808],[9.35378,35.74668],[9.35173,35.74862],[9.3452,35.7491],[9.34498,35.7496],[9.34623,35.75019],[9.34514,35.75097],[9.3413,35.75071],[9.33672,35.75355],[9.33537,35.7529],[9.33301,35.7565],[9.33486,35.75693],[9.33367,35.75873],[9.33094,35.75821],[9.32984,35.75966],[9.329,35.75823],[9.3293,35.7556],[9.32711,35.75644],[9.32665,35.75475],[9.32578,35.75433],[9.32384,35.7549],[9.32525,35.7564],[9.32467,35.75714],[9.3218,35.75608],[9.31903,35.7568],[9.31289,35.76195],[9.31358,35.7658],[9.31256,35.76783],[9.3144,35.76956],[9.31348,35.77176],[9.3117,35.7732],[9.31241,35.77778],[9.31514,35.77995],[9.31545,35.78132],[9.31649,35.78102],[9.3172,35.78354],[9.31972,35.78555],[9.32067,35.78521],[9.3202,35.78565],[9.32121,35.78598],[9.32118,35.78681],[9.32262,35.78675],[9.32283,35.78745],[9.32378,35.78674],[9.3261,35.78722],[9.33071,35.7894],[9.33196,35.7911],[9.33362,35.79625],[9.33234,35.79898],[9.33273,35.80175],[9.33436,35.80286],[9.3344,35.80667],[9.33528,35.80763],[9.33442,35.81016],[9.33637,35.81261],[9.33593,35.8142],[9.33671,35.81429],[9.33595,35.81934],[9.33433,35.82025],[9.33065,35.82633],[9.33402,35.83121],[9.33742,35.83313],[9.33981,35.83782],[9.34237,35.83803],[9.3433,35.83707],[9.34897,35.83982],[9.35243,35.83918],[9.35639,35.83725],[9.36032,35.83824],[9.36557,35.83685],[9.36688,35.8344],[9.36874,35.83379],[9.37032,35.83488],[9.37118,35.83706],[9.37607,35.83911],[9.37566,35.84069],[9.37823,35.84403],[9.38567,35.84971],[9.38526,35.85309],[9.3912,35.85465],[9.39246,35.85312]]],[[[9.14507,35.96393],[9.14513,35.9619],[9.14436,35.96104],[9.14581,35.96043],[9.1447,35.95925],[9.14579,35.95911],[9.14584,35.95658],[9.1479,35.95527],[9.15032,35.95152],[9.15597,35.94879],[9.15805,35.94561],[9.16253,35.94254],[9.16706,35.93409],[9.16511,35.93205],[9.16543,35.9305],[9.1561,35.92873],[9.15476,35.92711],[9.15213,35.92791],[9.14735,35.9273],[9.13991,35.92799],[9.13907,35.92651],[9.13468,35.92402],[9.12776,35.92351],[9.1216,35.9217],[9.11779,35.92257],[9.11511,35.92174],[9.1076,35.92195],[9.10069,35.92384],[9.09915,35.92498],[9.09786,35.92785],[9.09883,35.92965],[9.09789,35.93211],[9.09822,35.94588],[9.09379,35.94309],[9.08553,35.94352],[9.07926,35.94952],[9.0704,35.95568],[9.06872,35.95825],[9.06857,35.9617],[9.06755,35.9626],[9.06887,35.96684],[9.0661,35.96666],[9.05566,35.96211],[9.04048,35.96107],[9.02531,35.96543],[9.00678,35.96464],[9.00173,35.96769],[8.99666,35.96801],[8.98664,35.97255],[8.98358,35.97314],[8.97996,35.97519],[8.98398,35.97707],[8.97677,35.97954],[8.97489,35.98415],[8.97133,35.98962],[8.97074,35.99182],[8.9719,35.99395],[8.96998,35.99451],[8.97104,35.99714],[8.96981,36.00236],[8.97209,36.00489],[8.97214,36.00722],[8.95252,36.02123],[8.94835,36.02522],[8.9455,36.0298],[8.94364,36.04017],[8.93945,36.05341],[8.93688,36.0574],[8.93569,36.06707],[8.94269,36.0705],[8.93028,36.07332],[8.92352,36.07796],[8.9447,36.09728],[8.94808,36.09597],[8.95432,36.09024],[8.98012,36.08093],[8.98774,36.07904],[8.99042,36.07721],[9.00285,36.0755],[9.00189,36.07215],[9.01687,36.0724],[9.01874,36.07335],[9.01851,36.07224],[9.02004,36.07179],[9.02059,36.07078],[9.02435,36.07117],[9.02233,36.06637],[9.0208,36.06505],[9.02101,36.0614],[9.02162,36.06105],[9.02107,36.05961],[9.02337,36.05599],[9.02438,36.05523],[9.02811,36.05632],[9.03373,36.05965],[9.04115,36.05521],[9.04175,36.05331],[9.04322,36.0531],[9.04662,36.04981],[9.0491,36.04992],[9.05167,36.05175],[9.07603,36.05825],[9.08148,36.06121],[9.08547,36.06146],[9.08943,36.05898],[9.09996,36.05765],[9.10241,36.06138],[9.10493,36.0688],[9.11056,36.06485],[9.11317,36.06475],[9.12296,36.05434],[9.12303,36.05336],[9.11491,36.04092],[9.11323,36.03711],[9.10935,36.02657],[9.11035,36.02435],[9.10869,36.02349],[9.08551,36.02166],[9.09737,36.01624],[9.10602,36.00874],[9.10721,36.00693],[9.10672,36.00456],[9.10914,36.00113],[9.10928,35.99976],[9.11091,35.99914],[9.11243,35.99706],[9.11262,35.99438],[9.1146,35.99208],[9.11452,35.99063],[9.1155,35.98917],[9.11492,35.9884],[9.11863,35.98726],[9.11877,35.98579],[9.12155,35.98352],[9.12247,35.98055],[9.12159,35.97851],[9.12837,35.98068],[9.14336,35.98884],[9.14551,35.98719],[9.14609,35.9838],[9.14416,35.98174],[9.14488,35.97866],[9.14472,35.97621],[9.14382,35.97529],[9.14562,35.97291],[9.14644,35.96999],[9.14563,35.96865],[9.14677,35.96682],[9.14581,35.96511],[9.14631,35.9642],[9.14507,35.96393]]],[[[9.26649,36.31297],[9.27193,36.31057],[9.27729,36.30935],[9.27904,36.30964],[9.28114,36.30834],[9.2867,36.30745],[9.29085,36.30558],[9.29734,36.3041],[9.29849,36.30289],[9.303,36.30173],[9.3059,36.2998],[9.31168,36.30245],[9.31804,36.30001],[9.32015,36.29995],[9.32183,36.30282],[9.32291,36.30109],[9.32305,36.29838],[9.31902,36.29776],[9.31823,36.29624],[9.31943,36.29467],[9.32171,36.29485],[9.32235,36.2939],[9.31897,36.29179],[9.31434,36.29028],[9.31346,36.287],[9.30632,36.28215],[9.30589,36.28087],[9.31107,36.28063],[9.31538,36.27903],[9.31694,36.27912],[9.31899,36.28074],[9.32545,36.28088],[9.3259,36.28023],[9.3249,36.27737],[9.32708,36.2753],[9.32281,36.27035],[9.32664,36.26989],[9.32631,36.26818],[9.32984,36.2686],[9.33976,36.26646],[9.34277,36.26481],[9.3453,36.26199],[9.34587,36.25979],[9.352,36.25468],[9.37023,36.2509],[9.37591,36.24902],[9.39324,36.24923],[9.39553,36.24718],[9.39619,36.24458],[9.40334,36.24055],[9.41036,36.23262],[9.41453,36.22981],[9.42321,36.22881],[9.42722,36.22731],[9.43687,36.22639],[9.44638,36.22784],[9.44607,36.22653],[9.44433,36.22434],[9.4416,36.22304],[9.43498,36.22191],[9.42944,36.21862],[9.42821,36.21646],[9.42862,36.21178],[9.42711,36.20705],[9.42593,36.2051],[9.42434,36.20503],[9.4209,36.20858],[9.41824,36.20965],[9.41236,36.21461],[9.40977,36.21857],[9.40341,36.22055],[9.40172,36.22528],[9.40153,36.2333],[9.39695,36.23386],[9.39268,36.23547],[9.3892,36.23547],[9.3863,36.23655],[9.38061,36.2341],[9.37841,36.23477],[9.37775,36.23395],[9.37635,36.23421],[9.37431,36.23334],[9.37159,36.23046],[9.37239,36.22853],[9.37137,36.2299],[9.37144,36.23199],[9.37013,36.23366],[9.36693,36.23225],[9.35194,36.23218],[9.34494,36.22854],[9.33896,36.22902],[9.33691,36.22833],[9.33424,36.22596],[9.32959,36.22751],[9.32779,36.23023],[9.32125,36.23013],[9.31861,36.22898],[9.31077,36.22923],[9.31007,36.22824],[9.31045,36.22702],[9.31311,36.22661],[9.31344,36.22408],[9.31439,36.22307],[9.31609,36.22302],[9.31886,36.22443],[9.3205,36.22376],[9.32077,36.2197],[9.31163,36.21283],[9.31126,36.21146],[9.30484,36.21167],[9.30421,36.2109],[9.30474,36.2089],[9.30813,36.20632],[9.30451,36.20229],[9.30328,36.2024],[9.30407,36.20154],[9.30305,36.19974],[9.30374,36.19825],[9.29963,36.20011],[9.29778,36.20164],[9.29479,36.20658],[9.29438,36.20978],[9.29017,36.21277],[9.28993,36.21617],[9.28441,36.21969],[9.28406,36.22638],[9.2828,36.22971],[9.27968,36.2338],[9.27444,36.23689],[9.26865,36.2432],[9.26775,36.24553],[9.26801,36.24895],[9.26536,36.25011],[9.26359,36.2531],[9.26071,36.25486],[9.26277,36.25699],[9.25587,36.26339],[9.25269,36.26177],[9.24674,36.26838],[9.24664,36.27001],[9.25561,36.28888],[9.25524,36.29187],[9.24079,36.29151],[9.23695,36.29257],[9.23611,36.29368],[9.23545,36.29788],[9.2364,36.30222],[9.23966,36.30632],[9.24432,36.30874],[9.24713,36.31167],[9.25598,36.3163],[9.26649,36.31297]]],[[[9.04884,36.43068],[9.05116,36.43037],[9.05109,36.42964],[9.05392,36.42829],[9.05432,36.42704],[9.0583,36.42485],[9.05997,36.42548],[9.06051,36.42419],[9.0621,36.42742],[9.06572,36.42892],[9.07244,36.43063],[9.07352,36.42954],[9.0761,36.429],[9.07874,36.42615],[9.07916,36.42444],[9.08397,36.42124],[9.08891,36.41948],[9.08863,36.41845],[9.08957,36.41836],[9.0904,36.41694],[9.09039,36.41428],[9.09101,36.41399],[9.09023,36.41378],[9.09007,36.41258],[9.08587,36.40904],[9.08578,36.40792],[9.08308,36.40778],[9.08189,36.40662],[9.08388,36.40612],[9.0861,36.40283],[9.0883,36.40236],[9.09164,36.40269],[9.09349,36.40207],[9.09667,36.40338],[9.09888,36.40329],[9.1017,36.40108],[9.10789,36.39923],[9.11198,36.39667],[9.11327,36.39494],[9.11244,36.39335],[9.11341,36.39139],[9.11307,36.39003],[9.11488,36.38801],[9.11627,36.38373],[9.11549,36.38178],[9.11539,36.37653],[9.11433,36.37499],[9.11406,36.37154],[9.11273,36.36881],[9.11566,36.36563],[9.11381,36.36499],[9.11391,36.3635],[9.10711,36.36465],[9.10559,36.36392],[9.10151,36.35711],[9.09837,36.35563],[9.09771,36.35362],[9.09589,36.35235],[9.09568,36.35071],[9.09481,36.35009],[9.09505,36.34869],[9.09393,36.34763],[9.08704,36.34616],[9.08057,36.34627],[9.08014,36.34418],[9.07884,36.34273],[9.07291,36.34382],[9.07234,36.34045],[9.06967,36.34004],[9.06876,36.33916],[9.06424,36.33956],[9.05985,36.3374],[9.0567,36.33732],[9.05207,36.33932],[9.04785,36.33975],[9.04493,36.34102],[9.04354,36.34328],[9.03988,36.34618],[9.04052,36.34922],[9.03545,36.35354],[9.03488,36.35652],[9.03621,36.35913],[9.03414,36.36237],[9.03188,36.36187],[9.03181,36.36325],[9.02867,36.36243],[9.02847,36.36331],[9.02732,36.36314],[9.02527,36.36488],[9.02279,36.36423],[9.02078,36.36543],[9.01933,36.36752],[9.01641,36.36779],[9.01446,36.37047],[9.01219,36.37044],[9.01089,36.37126],[9.00761,36.37095],[9.00394,36.37204],[8.99809,36.37198],[8.99387,36.37315],[8.99152,36.37489],[8.98935,36.37502],[8.98758,36.37661],[8.9859,36.37627],[8.98401,36.37703],[8.98365,36.37892],[8.98238,36.37912],[8.98018,36.38174],[8.97804,36.3805],[8.97671,36.38143],[8.97586,36.37959],[8.96806,36.38284],[8.96671,36.38433],[8.96534,36.38952],[8.96316,36.39312],[8.96345,36.39525],[8.96732,36.39619],[8.97145,36.39572],[8.97716,36.39984],[8.98677,36.40305],[8.99294,36.40792],[9.00016,36.40828],[9.00253,36.40914],[9.00623,36.40785],[9.01496,36.41422],[9.0181,36.41558],[9.01898,36.41751],[9.01937,36.41701],[9.02502,36.41777],[9.02801,36.41892],[9.03317,36.41877],[9.03682,36.41822],[9.04014,36.41588],[9.04429,36.41623],[9.04597,36.41707],[9.04645,36.41835],[9.04823,36.41896],[9.04886,36.42063],[9.04925,36.42229],[9.04759,36.42525],[9.04894,36.42635],[9.04934,36.42799],[9.04685,36.43089],[9.04685,36.43239],[9.04884,36.43068]]]]}}
