{"type":"Feature","properties":{"code":"ZWE-MB","name":"Mbire - Lower Zambezi Valley","landscape_system":"East-South Africa Highland-Lowland-Rift Valley System","countries":["Zimbabwe"],"source_file":"mfl_aoi_ZWE.shp","source_features_dissolved":112,"simplify_tolerance_deg":0.001,"generated":"2026-07-21"},"bbox":[28.84448,-17.43389,32.05844,-15.60728],"geometry":{"type":"Polygon","coordinates":[[[29.67086,-17.20783],[29.67169,-17.20987],[29.66828,-17.21462],[29.66522,-17.21032],[29.6618,-17.21315],[29.66404,-17.21575],[29.66157,-17.21632],[29.66639,-17.21722],[29.66569,-17.21926],[29.66793,-17.22084],[29.67369,-17.22106],[29.67381,-17.22559],[29.67664,-17.22423],[29.67793,-17.22763],[29.68146,-17.23034],[29.68229,-17.23453],[29.68724,-17.23702],[29.68465,-17.24075],[29.69053,-17.24313],[29.68677,-17.24652],[29.69235,-17.26217],[29.69133,-17.26497],[29.70093,-17.26674],[29.70284,-17.27217],[29.70541,-17.2715],[29.70679,-17.27446],[29.70816,-17.27429],[29.70853,-17.27955],[29.70595,-17.27742],[29.70425,-17.27973],[29.70081,-17.27826],[29.70238,-17.2827],[29.69878,-17.28288],[29.69897,-17.286],[29.69296,-17.28323],[29.69315,-17.28636],[29.69041,-17.28784],[29.69145,-17.29064],[29.68596,-17.28852],[29.68697,-17.28473],[29.68423,-17.28441],[29.66902,-17.29072],[29.66151,-17.29552],[29.65722,-17.29455],[29.65552,-17.29669],[29.64986,-17.29605],[29.64525,-17.29755],[29.64146,-17.29444],[29.63599,-17.29742],[29.63308,-17.29644],[29.63207,-17.29974],[29.63001,-17.29892],[29.63001,-17.30089],[29.62745,-17.30123],[29.62405,-17.30832],[29.62029,-17.30998],[29.61703,-17.30834],[29.6131,-17.31082],[29.61499,-17.31296],[29.60919,-17.31643],[29.6092,-17.31989],[29.60612,-17.31973],[29.60596,-17.32253],[29.6015,-17.32304],[29.59622,-17.32997],[29.59331,-17.32833],[29.59364,-17.3257],[29.59073,-17.32604],[29.58909,-17.32423],[29.58773,-17.32523],[29.58583,-17.32227],[29.57768,-17.33925],[29.56691,-17.34471],[29.56726,-17.348],[29.56504,-17.34932],[29.56609,-17.35393],[29.55666,-17.3528],[29.55153,-17.3543],[29.55188,-17.35759],[29.54982,-17.35709],[29.54932,-17.35972],[29.54534,-17.36325],[29.53647,-17.35462],[29.53287,-17.3557],[29.53015,-17.35999],[29.52587,-17.36115],[29.52665,-17.36321],[29.52939,-17.36246],[29.52761,-17.3674],[29.52468,-17.36371],[29.5247,-17.36881],[29.5216,-17.36594],[29.52076,-17.36899],[29.51648,-17.36883],[29.51615,-17.37262],[29.51142,-17.36951],[29.5086,-17.37206],[29.51007,-17.37559],[29.50656,-17.3742],[29.50476,-17.37536],[29.50446,-17.38598],[29.49955,-17.38015],[29.49966,-17.38599],[29.5025,-17.38779],[29.50267,-17.3896],[29.49179,-17.38574],[29.49118,-17.38856],[29.4879,-17.38657],[29.48151,-17.38814],[29.48194,-17.39004],[29.4847,-17.39113],[29.48392,-17.3927],[29.48004,-17.39154],[29.48392,-17.39494],[29.48357,-17.39701],[29.48012,-17.39344],[29.47693,-17.39377],[29.47425,-17.39194],[29.47269,-17.39261],[29.47425,-17.39493],[29.47312,-17.39667],[29.46993,-17.39401],[29.4644,-17.39359],[29.46406,-17.38986],[29.46078,-17.38819],[29.45448,-17.38777],[29.44963,-17.38951],[29.44756,-17.38727],[29.44143,-17.38585],[29.43384,-17.37704],[29.42263,-17.37072],[29.42081,-17.37263],[29.4195,-17.37901],[29.42252,-17.38391],[29.42131,-17.38524],[29.41725,-17.38498],[29.42001,-17.38955],[29.41905,-17.39345],[29.41313,-17.39676],[29.40933,-17.39708],[29.40596,-17.39708],[29.39776,-17.39142],[29.3937,-17.39374],[29.393,-17.39581],[29.39559,-17.39938],[29.39766,-17.3993],[29.39861,-17.40229],[29.39118,-17.40485],[29.38555,-17.41314],[29.38459,-17.41662],[29.38675,-17.4211],[29.38432,-17.42243],[29.3851,-17.42517],[29.38371,-17.42815],[29.37758,-17.42764],[29.37404,-17.42415],[29.36833,-17.4263],[29.36186,-17.42513],[29.35875,-17.42114],[29.35365,-17.42171],[29.34967,-17.42511],[29.35053,-17.43224],[29.34689,-17.43389],[29.34197,-17.43314],[29.33235,-17.43043],[29.32839,-17.41586],[29.3195,-17.41269],[29.31521,-17.4074],[29.30873,-17.4038],[29.29497,-17.3905],[29.28017,-17.38126],[29.27605,-17.37071],[29.27633,-17.36059],[29.2785,-17.35238],[29.2724,-17.34075],[29.27069,-17.33088],[29.25147,-17.31717],[29.24182,-17.30297],[29.23397,-17.29746],[29.22732,-17.29681],[29.21449,-17.30505],[29.20836,-17.30628],[29.18609,-17.30484],[29.17472,-17.30101],[29.16243,-17.29952],[29.14807,-17.29222],[29.12776,-17.28535],[29.11659,-17.28435],[29.11494,-17.27922],[29.1057,-17.27018],[29.10036,-17.26903],[29.0975,-17.27115],[29.07321,-17.27136],[29.07057,-17.26823],[29.07032,-17.2563],[29.06668,-17.24901],[29.0578,-17.24828],[29.0488,-17.24007],[29.04434,-17.23851],[29.02737,-17.23625],[29.02163,-17.22762],[29.01767,-17.22456],[29.00021,-17.22345],[28.98655,-17.2249],[28.9775,-17.22112],[28.97281,-17.21303],[28.96823,-17.21076],[28.96181,-17.20353],[28.95609,-17.18072],[28.95031,-17.17371],[28.94795,-17.16553],[28.94183,-17.16415],[28.93777,-17.15999],[28.9365,-17.15134],[28.9315,-17.13888],[28.93221,-17.13204],[28.92265,-17.11187],[28.92079,-17.09858],[28.91242,-17.08261],[28.90771,-17.0797],[28.89997,-17.0655],[28.88963,-17.06153],[28.8866,-17.05602],[28.87312,-17.05997],[28.86915,-17.04932],[28.85727,-17.04422],[28.85421,-17.03833],[28.85439,-17.03634],[28.86213,-17.02993],[28.86276,-17.02786],[28.86887,-17.02466],[28.8704,-17.02648],[28.874,-17.02145],[28.87598,-17.02275],[28.88209,-17.02015],[28.88353,-17.02232],[28.88632,-17.02024],[28.89271,-17.02101],[28.89604,-17.01972],[28.89802,-17.02231],[28.90405,-17.02387],[28.90828,-17.02222],[28.91412,-17.02352],[28.91439,-17.01936],[28.91808,-17.02031],[28.92024,-17.01867],[28.92077,-17.01364],[28.92509,-17.00923],[28.92527,-17.00646],[28.92823,-17.00594],[28.92832,-17.00299],[28.9321,-16.99961],[28.93647,-16.99891],[28.93816,-16.99483],[28.93684,-16.99051],[28.9392,-16.99029],[28.94029,-16.99296],[28.94372,-16.99335],[28.94712,-16.9889],[28.95118,-16.98743],[28.94825,-16.9824],[28.95028,-16.98053],[28.95178,-16.98072],[28.95362,-16.98442],[28.95963,-16.98521],[28.96069,-16.98356],[28.95864,-16.98109],[28.96596,-16.9796],[28.96573,-16.97631],[28.96819,-16.97629],[28.97082,-16.96885],[28.97578,-16.97449],[28.97728,-16.97417],[28.97801,-16.97056],[28.9811,-16.9691],[28.98421,-16.96928],[28.9867,-16.9737],[28.98904,-16.97111],[28.99301,-16.97088],[28.99886,-16.96496],[29.00256,-16.96743],[29.00604,-16.96743],[29.00749,-16.97233],[29.0101,-16.97247],[29.0194,-16.96759],[29.02332,-16.96356],[29.02956,-16.96189],[29.05323,-16.9485],[29.05598,-16.95144],[29.05584,-16.94752],[29.05817,-16.94529],[29.06819,-16.94041],[29.06963,-16.94223],[29.06687,-16.94697],[29.06876,-16.94865],[29.07456,-16.9467],[29.07689,-16.94335],[29.07761,-16.9467],[29.07543,-16.95019],[29.07688,-16.95145],[29.07876,-16.95117],[29.07964,-16.94782],[29.08153,-16.94671],[29.08588,-16.94629],[29.09008,-16.94867],[29.0985,-16.94602],[29.09705,-16.95175],[29.09966,-16.95398],[29.10677,-16.95147],[29.10663,-16.94826],[29.10808,-16.94784],[29.10981,-16.95259],[29.11504,-16.95008],[29.11736,-16.95357],[29.1191,-16.95358],[29.1223,-16.94603],[29.12476,-16.9459],[29.07935,-16.81766],[29.07632,-16.76556],[29.21437,-16.45917],[29.1553,-16.36563],[28.99893,-16.37198],[28.99719,-16.37312],[28.9315,-16.37626],[28.8648,-16.37773],[28.86548,-16.37109],[28.85889,-16.35291],[28.85852,-16.33521],[28.84747,-16.32397],[28.84448,-16.3161],[28.84589,-16.30249],[28.85327,-16.2829],[28.85712,-16.27509],[28.87268,-16.2569],[28.87268,-16.2514],[28.86871,-16.24371],[28.8609,-16.23499],[28.85529,-16.22479],[28.85529,-16.19208],[28.85107,-16.1792],[28.85107,-16.1684],[28.85413,-16.15948],[28.8653,-16.15289],[28.87189,-16.1463],[28.87549,-16.13831],[28.88068,-16.1178],[28.87909,-16.09601],[28.87408,-16.0769],[28.87073,-16.07098],[28.86853,-16.05988],[28.86792,-16.0459],[28.86969,-16.03729],[28.87408,-16.03101],[28.8833,-16.02631],[28.89429,-16.0163],[28.89728,-16.01099],[28.89948,-16.0011],[28.90991,-15.9837],[28.91931,-15.9715],[28.93511,-15.95648],[28.93924,-15.95568],[28.95424,-15.94438],[28.97444,-15.94128],[28.99604,-15.94188],[29.01384,-15.94628],[29.02354,-15.94568],[29.03344,-15.93838],[29.04674,-15.92388],[29.05714,-15.90538],[29.06544,-15.89468],[29.09524,-15.86478],[29.11794,-15.85488],[29.12974,-15.84798],[29.14724,-15.83448],[29.16874,-15.81168],[29.21404,-15.78088],[29.24084,-15.76848],[29.26394,-15.76318],[29.28714,-15.75468],[29.30834,-15.73878],[29.32594,-15.72948],[29.33704,-15.72578],[29.35474,-15.71668],[29.36564,-15.71568],[29.38964,-15.70878],[29.41564,-15.69368],[29.44474,-15.68238],[29.45274,-15.68048],[29.46324,-15.68118],[29.49604,-15.68668],[29.51264,-15.68318],[29.54274,-15.67098],[29.56344,-15.65968],[29.58744,-15.65388],[29.60334,-15.65398],[29.61744,-15.65648],[29.65764,-15.65418],[29.68634,-15.64218],[29.72734,-15.63628],[29.74374,-15.63188],[29.76824,-15.62148],[29.78684,-15.61088],[29.80074,-15.60728],[29.88314,-15.60998],[29.89564,-15.61558],[29.90414,-15.61738],[29.92164,-15.61738],[29.94324,-15.62208],[29.94814,-15.62388],[29.95654,-15.63028],[29.97404,-15.63638],[29.98174,-15.63688],[30.01654,-15.63188],[30.06024,-15.62788],[30.08284,-15.62158],[30.11694,-15.62228],[30.14254,-15.61428],[30.16194,-15.61388],[30.17514,-15.61778],[30.20134,-15.65018],[30.20584,-15.65368],[30.21504,-15.65658],[30.22304,-15.65558],[30.23474,-15.64728],[30.26064,-15.62158],[30.26414,-15.62328],[30.27024,-15.63578],[30.27964,-15.63938],[30.32174,-15.64038],[30.34074,-15.64548],[30.36094,-15.64568],[30.39134,-15.63388],[30.41214,-15.61838],[30.41384,-15.61488],[30.41154,-15.61071],[30.4224,-15.62251],[30.4219,-16.0008],[30.48842,-16.00191],[30.65422,-16.0],[30.92098,-16.0],[30.94987,-16.01631],[30.95486,-16.02818],[30.9572,-16.03867],[30.96627,-16.04937],[30.98211,-16.05898],[30.99066,-16.05949],[31.00684,-16.05698],[31.01258,-16.04993],[31.01706,-16.04976],[31.02511,-16.03881],[31.02445,-16.03653],[31.02893,-16.0279],[31.03029,-16.02038],[31.04382,-16.02115],[31.05182,-16.0176],[31.05809,-16.01171],[31.06432,-16.0],[31.06646,-16.00265],[31.06632,-16.00668],[31.06189,-16.01448],[31.06515,-16.0182],[31.07208,-16.01502],[31.07239,-16.01623],[31.07961,-16.01209],[31.08745,-16.01716],[31.08787,-16.00883],[31.09442,-16.00866],[31.09882,-16.00216],[31.10471,-16.00089],[31.10666,-15.99581],[31.14395,-15.98465],[31.15003,-15.98987],[31.15235,-15.98862],[31.17826,-15.99043],[31.18657,-16.00467],[31.20201,-16.00456],[31.21538,-16.00756],[31.22505,-16.00712],[31.23932,-16.00119],[31.24972,-16.00972],[31.26775,-16.00977],[31.28348,-16.01989],[31.30733,-16.02715],[31.31714,-16.03671],[31.3338,-16.04845],[31.33895,-16.05311],[31.33936,-16.05538],[31.33665,-16.05743],[31.33641,-16.06034],[31.33864,-16.06656],[31.34175,-16.06835],[31.34871,-16.0801],[31.36396,-16.09111],[31.37326,-16.10318],[31.38731,-16.11556],[31.39425,-16.12667],[31.40453,-16.13715],[31.40644,-16.13668],[31.41314,-16.14033],[31.41756,-16.13589],[31.42277,-16.13346],[31.42657,-16.13516],[31.43059,-16.14145],[31.42783,-16.1508],[31.42902,-16.15319],[31.42442,-16.15409],[31.42417,-16.15627],[31.42679,-16.15913],[31.43208,-16.15616],[31.44631,-16.15379],[31.45172,-16.15495],[31.45113,-16.15811],[31.45246,-16.15921],[31.45682,-16.15585],[31.46105,-16.15878],[31.46285,-16.15748],[31.46594,-16.15896],[31.48141,-16.1569],[31.49925,-16.1707],[31.54513,-16.18423],[31.58803,-16.19127],[31.61822,-16.1901],[31.63522,-16.19722],[31.6917,-16.20169],[31.70279,-16.20665],[31.73314,-16.2284],[31.75797,-16.23699],[31.77081,-16.23671],[31.78575,-16.2564],[31.79071,-16.2583],[31.79756,-16.25795],[31.79505,-16.26133],[31.79552,-16.26283],[31.79979,-16.26343],[31.80315,-16.27016],[31.81612,-16.27744],[31.81784,-16.28125],[31.81401,-16.28395],[31.81451,-16.28739],[31.81671,-16.2879],[31.81493,-16.29486],[31.8254,-16.29431],[31.82953,-16.29904],[31.82801,-16.30241],[31.83038,-16.30512],[31.83068,-16.30836],[31.83402,-16.31108],[31.83585,-16.31256],[31.83996,-16.30757],[31.84849,-16.30951],[31.85195,-16.31782],[31.85788,-16.31904],[31.8628,-16.32415],[31.87276,-16.32588],[31.88337,-16.3329],[31.89379,-16.33647],[31.9022,-16.34759],[31.90551,-16.36758],[31.90976,-16.37179],[31.90916,-16.38849],[31.90745,-16.3888],[31.90807,-16.39072],[31.90581,-16.39202],[31.91348,-16.41287],[32.03754,-16.44237],[32.05844,-16.44107],[32.05453,-16.45322],[32.04798,-16.46117],[32.04343,-16.46074],[32.02562,-16.46813],[32.01424,-16.46996],[31.99588,-16.46945],[31.99311,-16.46716],[31.98674,-16.4698],[31.98582,-16.47299],[31.98819,-16.47666],[31.97852,-16.48489],[31.97647,-16.48866],[31.97774,-16.49388],[31.97415,-16.49912],[31.96994,-16.50197],[31.94866,-16.50831],[31.94433,-16.52128],[31.9359,-16.52709],[31.93645,-16.53041],[31.94096,-16.53479],[31.94614,-16.53743],[31.95715,-16.53948],[31.95771,-16.54314],[31.95238,-16.54407],[31.95084,-16.54939],[31.94786,-16.54934],[31.94098,-16.54559],[31.928,-16.54519],[31.92242,-16.55106],[31.92051,-16.55593],[31.91055,-16.55765],[31.90742,-16.56105],[31.91387,-16.5718],[31.93004,-16.58074],[31.9427,-16.59229],[31.94473,-16.59247],[31.94361,-16.59583],[31.94844,-16.59824],[31.94454,-16.60453],[31.94808,-16.61318],[31.95922,-16.61569],[31.96315,-16.62077],[31.97345,-16.62789],[31.97343,-16.63237],[31.96504,-16.64508],[31.96483,-16.65609],[31.96013,-16.65884],[31.96551,-16.6694],[31.97612,-16.671],[31.97852,-16.67692],[31.99231,-16.67052],[32.01151,-16.65857],[32.01505,-16.67191],[32.02701,-16.66788],[32.03354,-16.74146],[32.03517,-16.74235],[32.03662,-16.74731],[32.03389,-16.75223],[32.03536,-16.75978],[32.04496,-16.77224],[32.04488,-16.77458],[32.0429,-16.77587],[32.04352,-16.77778],[32.0447,-16.779],[32.04651,-16.77702],[32.04824,-16.77767],[32.05036,-16.78231],[32.04871,-16.78511],[32.05117,-16.78629],[32.05104,-16.79277],[32.04615,-16.79771],[32.04664,-16.7999],[32.05097,-16.80159],[32.05159,-16.80351],[32.03991,-16.81163],[32.04188,-16.82165],[32.04071,-16.82664],[32.03318,-16.82888],[32.03015,-16.83377],[32.02203,-16.83534],[32.00763,-16.84297],[32.00284,-16.84046],[32.0002,-16.83679],[31.99806,-16.8379],[31.99447,-16.83575],[31.97989,-16.83396],[31.9717,-16.83862],[31.96454,-16.8356],[31.96252,-16.83307],[31.95703,-16.83331],[31.94189,-16.82824],[31.92824,-16.82949],[31.92292,-16.8269],[31.91906,-16.82864],[31.91816,-16.82677],[31.91325,-16.82594],[31.90539,-16.82929],[31.90111,-16.82386],[31.8968,-16.82772],[31.89425,-16.82813],[31.891,-16.82503],[31.88748,-16.82581],[31.88426,-16.82423],[31.88314,-16.82849],[31.88108,-16.82889],[31.87969,-16.82728],[31.88027,-16.82079],[31.87379,-16.81858],[31.87111,-16.81911],[31.87161,-16.82498],[31.86795,-16.82471],[31.86506,-16.8216],[31.85905,-16.82056],[31.8588,-16.82555],[31.83901,-16.83058],[31.83873,-16.83411],[31.82902,-16.83174],[31.82487,-16.82653],[31.82292,-16.82669],[31.80954,-16.83969],[31.80889,-16.843],[31.80432,-16.84098],[31.80138,-16.84587],[31.7956,-16.84411],[31.79598,-16.85022],[31.79178,-16.8482],[31.78948,-16.84872],[31.78084,-16.86114],[31.77586,-16.85701],[31.77557,-16.85502],[31.77761,-16.85333],[31.77662,-16.85264],[31.77052,-16.85289],[31.76803,-16.85624],[31.7601,-16.85124],[31.75753,-16.85129],[31.75029,-16.86039],[31.75057,-16.86191],[31.75589,-16.86497],[31.75162,-16.87036],[31.75454,-16.87512],[31.75422,-16.87725],[31.74214,-16.87804],[31.74116,-16.88124],[31.73832,-16.88085],[31.73708,-16.88349],[31.73052,-16.88011],[31.72883,-16.88355],[31.71908,-16.88557],[31.71609,-16.88882],[31.71191,-16.88664],[31.70712,-16.88697],[31.70219,-16.89332],[31.70315,-16.89898],[31.68923,-16.89882],[31.69243,-16.90488],[31.68608,-16.91115],[31.6817,-16.91011],[31.68293,-16.90747],[31.68207,-16.90578],[31.67294,-16.90904],[31.66995,-16.90695],[31.66932,-16.91037],[31.66756,-16.91097],[31.66319,-16.91061],[31.66123,-16.90758],[31.66093,-16.90998],[31.65583,-16.90861],[31.65506,-16.9109],[31.65268,-16.91004],[31.64624,-16.91222],[31.64374,-16.91102],[31.6424,-16.91292],[31.62,-16.92291],[31.59307,-16.90871],[31.61302,-16.85604],[31.5676,-16.89001],[31.55102,-16.91397],[31.53487,-16.89817],[31.5343,-16.89376],[31.52727,-16.88493],[31.52252,-16.88344],[31.50066,-16.84835],[31.50114,-16.84973],[31.49879,-16.85106],[31.38595,-16.83845],[31.35933,-16.88284],[31.35131,-16.8575],[31.37156,-16.83635],[31.25289,-16.82019],[31.28506,-16.78835],[31.27136,-16.78484],[31.07267,-16.83911],[30.97627,-16.85208],[30.91704,-16.83475],[30.86945,-16.81228],[30.93642,-16.77915],[30.9577,-16.75939],[30.95552,-16.74825],[30.96091,-16.72845],[30.96425,-16.70791],[30.97445,-16.69516],[30.97988,-16.67656],[30.96813,-16.65628],[30.95532,-16.64895],[30.94619,-16.6394],[30.8823,-16.64064],[30.86919,-16.63708],[30.83502,-16.60207],[30.81725,-16.60847],[30.80126,-16.61034],[30.84765,-16.55948],[30.82498,-16.55185],[30.82591,-16.54129],[30.83049,-16.53156],[30.83155,-16.52534],[30.82742,-16.52262],[30.82633,-16.51383],[30.82191,-16.51624],[30.81995,-16.51106],[30.81638,-16.50914],[30.81689,-16.50662],[30.81519,-16.50539],[30.81774,-16.5023],[30.81616,-16.49685],[30.81775,-16.49486],[30.8157,-16.49353],[30.81595,-16.49049],[30.81209,-16.49016],[30.81084,-16.48275],[30.80745,-16.48007],[30.8073,-16.47743],[30.80352,-16.47544],[30.80338,-16.47349],[30.8062,-16.47227],[30.80565,-16.47013],[30.80788,-16.47029],[30.80722,-16.46707],[30.8046,-16.46799],[30.79933,-16.46231],[30.8018,-16.45904],[30.80358,-16.46185],[30.80608,-16.46005],[30.80613,-16.45741],[30.80422,-16.45812],[30.80317,-16.45657],[30.80712,-16.45592],[30.80556,-16.45419],[30.80727,-16.45348],[30.80613,-16.45174],[30.80897,-16.45208],[30.8064,-16.44998],[30.80695,-16.44674],[30.80961,-16.44827],[30.81396,-16.44262],[30.81119,-16.44061],[30.80858,-16.44193],[30.80923,-16.43859],[30.80478,-16.43886],[30.80681,-16.43364],[30.79992,-16.43327],[30.80231,-16.43108],[30.79761,-16.42861],[30.79757,-16.42695],[30.79534,-16.42679],[30.79511,-16.42513],[30.79843,-16.424],[30.79381,-16.42066],[30.79223,-16.41659],[30.77194,-16.41294],[30.75001,-16.40292],[30.71553,-16.39403],[30.69122,-16.39662],[30.65936,-16.39657],[30.64695,-16.40047],[30.6399,-16.39111],[30.62716,-16.38617],[30.62209,-16.37696],[30.6167,-16.37615],[30.59405,-16.37832],[30.58232,-16.37264],[30.56959,-16.36993],[30.5483,-16.36945],[30.53668,-16.36366],[30.52789,-16.3612],[30.5069,-16.36066],[30.50211,-16.35552],[30.49244,-16.35105],[30.48315,-16.35449],[30.46967,-16.35613],[30.46314,-16.35593],[30.45513,-16.35264],[30.4421,-16.35033],[30.43298,-16.35157],[30.42795,-16.33892],[30.39265,-16.33778],[30.37425,-16.33477],[30.3631,-16.34059],[30.35932,-16.34064],[30.34078,-16.33475],[30.32748,-16.33713],[30.3177,-16.33387],[30.31609,-16.32882],[30.31838,-16.32425],[30.31498,-16.31778],[30.30414,-16.3149],[30.30168,-16.31161],[30.3021,-16.2904],[30.29928,-16.28152],[30.29314,-16.27557],[30.27669,-16.26999],[30.26628,-16.27136],[30.25419,-16.27623],[30.24825,-16.2731],[30.24418,-16.26732],[30.23829,-16.26511],[30.21773,-16.26822],[30.20684,-16.27688],[30.20802,-16.2891],[30.20689,-16.29961],[30.20928,-16.3048],[30.21403,-16.30644],[30.21426,-16.30957],[30.20824,-16.31209],[30.20567,-16.31564],[30.21034,-16.32903],[30.20841,-16.33637],[30.19761,-16.34898],[30.19324,-16.35122],[30.16388,-16.35475],[30.15328,-16.361],[30.14649,-16.36818],[30.14424,-16.36879],[30.11804,-16.36929],[30.11049,-16.37303],[30.10588,-16.37336],[30.09128,-16.37245],[30.08121,-16.38912],[30.08105,-16.39192],[30.08636,-16.39871],[30.0862,-16.40112],[30.08341,-16.40364],[30.08012,-16.40373],[30.07529,-16.39974],[30.06557,-16.39824],[30.06088,-16.39374],[30.0555,-16.39267],[30.04952,-16.38658],[30.0491,-16.39011],[30.04588,-16.39408],[30.04632,-16.39595],[30.0298,-16.39413],[30.0322,-16.40328],[30.0288,-16.41867],[30.02579,-16.42076],[30.02083,-16.41744],[30.01651,-16.41746],[30.01458,-16.42038],[30.01503,-16.4235],[30.01094,-16.42622],[30.01397,-16.43162],[30.0224,-16.43534],[30.01939,-16.44076],[30.02416,-16.44823],[30.02094,-16.45011],[30.01381,-16.44702],[30.00693,-16.45141],[30.00522,-16.45537],[30.00849,-16.46639],[30.00853,-16.48075],[30.00444,-16.48076],[29.99793,-16.48751],[29.99901,-16.48936],[30.00296,-16.49055],[30.00276,-16.49388],[29.9984,-16.49597],[29.99234,-16.49274],[29.99176,-16.49809],[29.99433,-16.50038],[29.99351,-16.50445],[29.98908,-16.50653],[29.98579,-16.50404],[29.98157,-16.50751],[29.97929,-16.51913],[29.97353,-16.51843],[29.97322,-16.52131],[29.97795,-16.52439],[29.99092,-16.52868],[29.99112,-16.53266],[29.98402,-16.54159],[29.98391,-16.54476],[29.98607,-16.54685],[29.99266,-16.54655],[29.99431,-16.55212],[29.99101,-16.55529],[29.98277,-16.55648],[29.97937,-16.56183],[29.97936,-16.57514],[29.98049,-16.58041],[29.98368,-16.58528],[29.97719,-16.59153],[29.97379,-16.59202],[29.97966,-16.59869],[29.97997,-16.60117],[29.97214,-16.60662],[29.97357,-16.61169],[29.97923,-16.61885],[29.97717,-16.62361],[29.97892,-16.62619],[29.97532,-16.62728],[29.97624,-16.63324],[29.97119,-16.64247],[29.96768,-16.64475],[29.96747,-16.64962],[29.97633,-16.65728],[29.97664,-16.66413],[29.97303,-16.66701],[29.97756,-16.67248],[29.98518,-16.67785],[29.98621,-16.68182],[29.98487,-16.6845],[29.99383,-16.69634],[29.99465,-16.70447],[29.99824,-16.70362],[30.00333,-16.69772],[30.00709,-16.69872],[30.00747,-16.70044],[30.00446,-16.70507],[30.00502,-16.70779],[30.01105,-16.72449],[30.01387,-16.72803],[30.0118,-16.73166],[30.01406,-16.7391],[30.0102,-16.74318],[30.01594,-16.74645],[30.01664,-16.74974],[30.02014,-16.75018],[30.0209,-16.76243],[30.02164,-16.76358],[30.02744,-16.76287],[30.02801,-16.77095],[30.03289,-16.77298],[30.03041,-16.77681],[30.03236,-16.78293],[30.03255,-16.79181],[30.02926,-16.80434],[30.02944,-16.80762],[30.03259,-16.81241],[30.02466,-16.81739],[30.02578,-16.82271],[30.03131,-16.82448],[30.03473,-16.82821],[30.02736,-16.83381],[30.02045,-16.83559],[30.01935,-16.84048],[30.0235,-16.84323],[30.0236,-16.84598],[30.0153,-16.8459],[30.01254,-16.8491],[30.00737,-16.84786],[30.01071,-16.85567],[30.00176,-16.85621],[30.00012,-16.85853],[30.00161,-16.86199],[30.00071,-16.86598],[29.99339,-16.86695],[29.99668,-16.86932],[29.9964,-16.87143],[29.98135,-16.87274],[29.98353,-16.87827],[29.9921,-16.88477],[29.98334,-16.89206],[29.98525,-16.90058],[29.98178,-16.90594],[29.9846,-16.9106],[29.97931,-16.91455],[29.97747,-16.92825],[29.9844,-16.93397],[29.97609,-16.94196],[29.98494,-16.94556],[29.99032,-16.95092],[29.98456,-16.95997],[29.98502,-16.96726],[29.98054,-16.96814],[29.98081,-16.9698],[29.98328,-16.97007],[29.98318,-16.97262],[29.97762,-16.97622],[29.9778,-16.97806],[29.97999,-16.97868],[29.97587,-16.98368],[29.97678,-16.98834],[29.97304,-16.99089],[29.97468,-16.99941],[29.96877,-17.00591],[29.97133,-17.01449],[29.96726,-17.01879],[29.96867,-17.02222],[29.96226,-17.03016],[29.96227,-17.03383],[29.95641,-17.03531],[29.95642,-17.0401],[29.96026,-17.04512],[29.96179,-17.05014],[29.95849,-17.05235],[29.95773,-17.05714],[29.95365,-17.0569],[29.95289,-17.0596],[29.96005,-17.06805],[29.96197,-17.07307],[29.95866,-17.07491],[29.95763,-17.07112],[29.95279,-17.07284],[29.95369,-17.07529],[29.95192,-17.08449],[29.9532,-17.08461],[29.95474,-17.08902],[29.95373,-17.09381],[29.94773,-17.09087],[29.94506,-17.09308],[29.94595,-17.09517],[29.9485,-17.09418],[29.94863,-17.097],[29.94407,-17.1078],[29.94203,-17.10854],[29.93501,-17.1045],[29.92839,-17.10807],[29.9187,-17.106],[29.91297,-17.11091],[29.90761,-17.10822],[29.90735,-17.10553],[29.90506,-17.10651],[29.89919,-17.10407],[29.88526,-17.08288],[29.88115,-17.06866],[29.83633,-17.10133],[29.85601,-17.12876],[29.80038,-17.17809],[29.76944,-17.1661],[29.76722,-17.17401],[29.75766,-17.17899],[29.74955,-17.17691],[29.74575,-17.17987],[29.74234,-17.17874],[29.73881,-17.18179],[29.73269,-17.18089],[29.7301,-17.18361],[29.72928,-17.18972],[29.7247,-17.19583],[29.71982,-17.19798],[29.7177,-17.19787],[29.71534,-17.19515],[29.7117,-17.19696],[29.70816,-17.19572],[29.70193,-17.20081],[29.70087,-17.19753],[29.69204,-17.19866],[29.68334,-17.20285],[29.68087,-17.20624],[29.67839,-17.20319],[29.67863,-17.20511],[29.67522,-17.20319],[29.67086,-17.20783]],[[29.71463,-16.82573],[29.71455,-16.8188],[29.70396,-16.80739],[29.70698,-16.80427],[29.70697,-16.8015],[29.69883,-16.79862],[29.69691,-16.7954],[29.69369,-16.79598],[29.68917,-16.80035],[29.6857,-16.7984],[29.67295,-16.81082],[29.67284,-16.81473],[29.67487,-16.81795],[29.67141,-16.81956],[29.67309,-16.8237],[29.67119,-16.82887],[29.67788,-16.83266],[29.68468,-16.83265],[29.68655,-16.836],[29.69751,-16.83708],[29.70204,-16.84413],[29.70277,-16.84917],[29.71478,-16.83942],[29.71463,-16.82573]]]}}
